{"type":"FeatureCollection","metadata":{"schema_version":1,"contract":"actual-public-geometry-chunk-v1","mode":"ACTUAL","jurisdiction":"RO","tier":"detail","root_entity_id":"osm-r2248573","feature_count":5,"geometry_source":"OpenStreetMap","geometry_precision":"master_coordinate_fidelity"},"features":[{"type":"Feature","properties":{"entity_id":"osm-r11283027","jurisdiction":"RO","display_name":"Mureșeni","display_type":"municipality_component_locality_boundary_representation","admin_level":9,"tier":"detail","legal_registry":null,"legal_id":null,"legal_type":null,"parent_catalog_id":"osm-r8334767","osm_relation_id":11283027,"legal_identity_status":"not_bound_to_official_registry","geometry_source":"OpenStreetMap","canonical_geometry_role":null,"geometry_scope":null,"geometry_precision":"master_coordinate_fidelity"},"geometry":{"type":"Polygon","coordinates":[[[24.5288815,46.5221402],[24.5284849,46.5225115],[24.5241129,46.5272248],[24.5235228,46.5274537],[24.5220208,46.5273946],[24.5174932,46.5276161],[24.5159268,46.5285461],[24.5142531,46.5291662],[24.5106375,46.5291809],[24.5069468,46.5282287],[24.5066678,46.5264867],[24.5097041,46.5229212],[24.5133948,46.5194811],[24.5179063,46.5160111],[24.5288815,46.5221402]]]}},{"type":"Feature","properties":{"entity_id":"osm-r11283576","jurisdiction":"RO","display_name":"Remetea","display_type":"municipality_component_locality_boundary_representation","admin_level":9,"tier":"detail","legal_registry":null,"legal_id":null,"legal_type":null,"parent_catalog_id":"osm-r8334767","osm_relation_id":11283576,"legal_identity_status":"not_bound_to_official_registry","geometry_source":"OpenStreetMap","canonical_geometry_role":null,"geometry_scope":null,"geometry_precision":"master_coordinate_fidelity"},"geometry":{"type":"Polygon","coordinates":[[[24.4934325,46.5792838],[24.4939756,46.5790555],[24.4945014,46.578624],[24.4964647,46.5793652],[24.4984925,46.5779493],[24.4994473,46.5776322],[24.500134,46.5772782],[24.500649,46.5774404],[24.5010996,46.5771897],[24.5017648,46.5774699],[24.5021617,46.5774109],[24.502784,46.5779566],[24.5034921,46.578495],[24.5040071,46.578613],[24.5041788,46.5787605],[24.5049512,46.578436],[24.5035779,46.5773888],[24.504565,46.57702],[24.5051658,46.5768652],[24.5055628,46.5771528],[24.5066142,46.5764669],[24.5057452,46.5758991],[24.5069629,46.575003],[24.5053053,46.5738045],[24.5065016,46.5737861],[24.5072579,46.5733436],[24.5071131,46.5731076],[24.5077032,46.5726024],[24.5082718,46.5727536],[24.5085347,46.5715698],[24.5089585,46.5723221],[24.5100528,46.5721967],[24.5103586,46.5722779],[24.5105839,46.572477],[24.5115066,46.5726208],[24.5121288,46.5729859],[24.5120215,46.5720271],[24.5121503,46.5715772],[24.5124668,46.5715145],[24.5126009,46.5713154],[24.5147198,46.5714702],[24.5156264,46.5714444],[24.5214731,46.5692606],[24.5215541,46.5688887],[24.5213664,46.5686933],[24.5200092,46.5676422],[24.5193601,46.5667313],[24.5200628,46.5662444],[24.522686,46.566794],[24.5252073,46.5669378],[24.5271063,46.5667681],[24.5271224,46.565883],[24.5303786,46.5661375],[24.5311457,46.5637807],[24.5312637,46.5636452],[24.5310116,46.5631371],[24.5304242,46.5623349],[24.5300728,46.5618904],[24.5297843,46.5616197],[24.5345682,46.5583365],[24.5342839,46.5582591],[24.5340639,46.5581263],[24.5336616,46.557739],[24.5343268,46.5573738],[24.5338708,46.5569311],[24.5358127,46.5559315],[24.5363921,46.556411],[24.536773,46.5561952],[24.5374301,46.5559075],[24.5375428,46.5557858],[24.5389026,46.5562856],[24.5408338,46.5578754],[24.5428991,46.5597271],[24.5411235,46.5607193],[24.5417458,46.5612763],[24.5416921,46.5618591],[24.5414078,46.5623718],[24.5408606,46.5630062],[24.5415258,46.5633529],[24.5403564,46.5643708],[24.5404851,46.5650347],[24.5415621,46.5675064],[24.5375669,46.5693571],[24.5298314,46.5719312],[24.5263016,46.5730891],[24.5243168,46.5739742],[24.5218706,46.5777391],[24.5210606,46.5792177],[24.5172626,46.5821932],[24.5181531,46.5828495],[24.5154387,46.5848644],[24.5159832,46.5857335],[24.5154578,46.5858901],[24.5152054,46.5859616],[24.5150082,46.5859955],[24.514627,46.5861326],[24.5144292,46.5862359],[24.5141953,46.5864074],[24.5140701,46.586574],[24.5139136,46.586668],[24.513537,46.586802],[24.5131241,46.5868949],[24.5126654,46.5869876],[24.5123267,46.5869767],[24.5116924,46.5868349],[24.5108752,46.5865696],[24.5102906,46.5864125],[24.5097101,46.5863091],[24.509361,46.5862085],[24.5091463,46.5861539],[24.5089869,46.5860681],[24.5088778,46.585973],[24.5088048,46.5859538],[24.5085619,46.5859811],[24.5087138,46.5858808],[24.5088433,46.5857457],[24.5090754,46.5853871],[24.5090772,46.5851926],[24.5090479,46.5848833],[24.5093915,46.584869],[24.5096527,46.5848354],[24.5098503,46.5847511],[24.5100108,46.5847266],[24.5101301,46.5846955],[24.5101763,46.5846516],[24.510154,46.5845915],[24.5101087,46.5845345],[24.50989,46.5844106],[24.5097121,46.5843373],[24.5095431,46.5842955],[24.5093319,46.5842325],[24.5090813,46.5840958],[24.5089536,46.5840416],[24.5088805,46.5840192],[24.5088025,46.584041],[24.5087563,46.5840849],[24.508674,46.5840688],[24.5084923,46.5839166],[24.5083287,46.5837866],[24.5080284,46.5835771],[24.5078872,46.5834976],[24.5077457,46.5834529],[24.5076588,46.5834367],[24.5075809,46.583449],[24.50735,46.5836657],[24.506874,46.5841526],[24.5065064,46.5844141],[24.5060975,46.5845606],[24.5058084,46.5846329],[24.5055373,46.5847421],[24.5051975,46.584851],[24.5049955,46.5849101],[24.5046778,46.5851043],[24.5045378,46.5852571],[24.5043572,46.5854866],[24.5042816,46.5857386],[24.5039291,46.5862355],[24.5037989,46.5864557],[24.5037983,46.5865283],[24.5033909,46.5865171],[24.5030131,46.5864749],[24.5026613,46.5863945],[24.502411,46.58622],[24.5021877,46.5861117],[24.5019503,46.5860319],[24.5017491,46.5860089],[24.5016715,46.5859833],[24.5016255,46.5858777],[24.501609,46.5856789],[24.5014703,46.5853218],[24.5014183,46.5849956],[24.5013932,46.5847399],[24.5013776,46.5844339],[24.4999754,46.5838262],[24.4985889,46.5831252],[24.4984969,46.5831753],[24.4984238,46.5831719],[24.4978971,46.5833424],[24.4975521,46.5833726],[24.4969998,46.5834651],[24.4964468,46.5836211],[24.4959409,46.5836663],[24.4951579,46.5838529],[24.494744,46.5838827],[24.4944235,46.5837547],[24.4942566,46.5834856],[24.4938254,46.5826541],[24.4939113,46.5813857],[24.4940614,46.581076],[24.4938469,46.5803165],[24.4934325,46.5792838]]]}},{"type":"Feature","properties":{"entity_id":"osm-r11366846","jurisdiction":"RO","display_name":"Sat Vălureni","display_type":"component_village_boundary_representation","admin_level":9,"tier":"detail","legal_registry":null,"legal_id":null,"legal_type":null,"parent_catalog_id":"osm-r11318838","osm_relation_id":11366846,"legal_identity_status":"not_bound_to_official_registry","geometry_source":"OpenStreetMap","canonical_geometry_role":null,"geometry_scope":null,"geometry_precision":"master_coordinate_fidelity"},"geometry":{"type":"Polygon","coordinates":[[[24.5614237,46.503878],[24.5603067,46.5040862],[24.5581233,46.5046474],[24.5590192,46.5040086],[24.5613635,46.5029784],[24.5638418,46.5021735],[24.5630801,46.501387],[24.5609182,46.5023175],[24.560414,46.5026055],[24.5595396,46.5016602],[24.5592874,46.5018892],[24.5589817,46.5024689],[24.5585418,46.502816],[24.5574743,46.503872],[24.5573348,46.5041009],[24.5571631,46.5045219],[24.5570183,46.5047065],[24.556345,46.5051735],[24.55594,46.5053378],[24.5546848,46.506475],[24.5542502,46.506992],[24.5537728,46.5076787],[24.5532891,46.5083322],[24.5532384,46.5086547],[24.5529942,46.5091063],[24.5526216,46.5094691],[24.5517826,46.5099124],[24.5503127,46.5103923],[24.5484245,46.5112562],[24.5475232,46.5114187],[24.5454326,46.511725],[24.5432532,46.5120537],[24.5403564,46.5122899],[24.5378244,46.5122382],[24.5377439,46.5113744],[24.5379639,46.5109609],[24.5379209,46.5108243],[24.5352441,46.5104034],[24.5353299,46.5102188],[24.5351851,46.5101154],[24.534241,46.5101007],[24.5336401,46.5094656],[24.5325351,46.5083137],[24.5321703,46.508118],[24.5322508,46.5080553],[24.5313388,46.5073796],[24.5303464,46.5080221],[24.5297295,46.5084134],[24.5290428,46.5086349],[24.5274603,46.508982],[24.5270473,46.509126],[24.5266879,46.5092367],[24.5262909,46.5092404],[24.5257598,46.5091998],[24.5251751,46.5091444],[24.5244616,46.5090595],[24.5240378,46.5091629],[24.5227269,46.5079452],[24.5218599,46.5054745],[24.5219672,46.5049428],[24.521656,46.5035766],[24.520905,46.5016639],[24.5190811,46.5018486],[24.5177829,46.502107],[24.5172143,46.5020184],[24.5166135,46.5017525],[24.5159322,46.500017],[24.5149637,46.4985245],[24.516452,46.497912],[24.5181492,46.5001644],[24.5202798,46.4997002],[24.5194742,46.4978097],[24.5201676,46.4976957],[24.5202572,46.4945703],[24.5212664,46.492778],[24.5213744,46.492697],[24.5237401,46.4933588],[24.5236367,46.4941438],[24.5232058,46.4953486],[24.5232987,46.4953906],[24.5242048,46.4944368],[24.5257533,46.4933608],[24.5244772,46.491801],[24.5240149,46.4909808],[24.5241345,46.4907306],[24.5268016,46.4910043],[24.527246,46.4905835],[24.5282999,46.4914624],[24.5295882,46.4914598],[24.5310526,46.4915307],[24.5309556,46.4918788],[24.5333503,46.4920141],[24.5335123,46.4913187],[24.5368508,46.491492],[24.5367803,46.4921972],[24.5405249,46.4923236],[24.5443784,46.4921584],[24.548021,46.4916608],[24.5481542,46.4917912],[24.5500301,46.4907724],[24.549684,46.4904802],[24.551435,46.4898093],[24.5536516,46.4894341],[24.5544862,46.4894895],[24.5553956,46.4897618],[24.5559707,46.4901202],[24.5558533,46.4902027],[24.5576419,46.4915464],[24.5589896,46.493227],[24.5601709,46.4939695],[24.5618239,46.4947695],[24.5633073,46.4939518],[24.5645624,46.4947604],[24.5663678,46.4954741],[24.5670962,46.4947571],[24.5682485,46.4952655],[24.5690381,46.4952619],[24.569891,46.495609],[24.5678082,46.4973519],[24.5651351,46.4982055],[24.5652446,46.4991678],[24.5659143,46.5002996],[24.5660455,46.500794],[24.5665238,46.5013321],[24.5664696,46.5014509],[24.5621525,46.504116],[24.5617956,46.5037625],[24.5616097,46.5038202],[24.5614237,46.503878]]]}},{"type":"Feature","properties":{"entity_id":"osm-r11366847","jurisdiction":"RO","display_name":"Sat Cristești","display_type":"component_village_boundary_representation","admin_level":9,"tier":"detail","legal_registry":null,"legal_id":null,"legal_type":null,"parent_catalog_id":"osm-r11318838","osm_relation_id":11366847,"legal_identity_status":"not_bound_to_official_registry","geometry_source":"OpenStreetMap","canonical_geometry_role":null,"geometry_scope":null,"geometry_precision":"master_coordinate_fidelity"},"geometry":{"type":"Polygon","coordinates":[[[24.5015305,46.4887026],[24.5017622,46.4890121],[24.504114,46.4922052],[24.5020327,46.4931848],[24.5023979,46.4935729],[24.5012556,46.4942014],[24.5015107,46.4943145],[24.5019301,46.49422],[24.5036771,46.4944572],[24.5097593,46.4903023],[24.511167,46.493099],[24.5149637,46.4985245],[24.5159322,46.500017],[24.5142853,46.5015827],[24.5135772,46.5015384],[24.5120484,46.5017489],[24.511013,46.5021772],[24.5098489,46.5035175],[24.5096344,46.5042191],[24.5098221,46.5054228],[24.5096505,46.5068332],[24.5072606,46.5095561],[24.5064801,46.5103628],[24.5010244,46.5078615],[24.5008736,46.5080192],[24.4986992,46.5072647],[24.4996592,46.5077968],[24.5001903,46.5080922],[24.500547,46.5086682],[24.5005148,46.5090466],[24.5004934,46.5091555],[24.4965935,46.5105548],[24.4918674,46.5131575],[24.4897628,46.5118272],[24.4884875,46.5112166],[24.487455,46.5109879],[24.4866561,46.510638],[24.4846324,46.5094932],[24.4837252,46.5091036],[24.4832615,46.5090972],[24.4815974,46.5094446],[24.480711,46.5097817],[24.4794981,46.5104655],[24.4782309,46.5118697],[24.4771178,46.5124327],[24.4763375,46.5125958],[24.4746057,46.5124894],[24.4735225,46.5122194],[24.4727917,46.5117994],[24.4722068,46.5111972],[24.471842,46.5102847],[24.4718486,46.5096004],[24.4726745,46.5069329],[24.4727122,46.5059236],[24.4724052,46.5053793],[24.4710447,46.5040918],[24.4700582,46.5036633],[24.4674957,46.5030769],[24.4655851,46.5024433],[24.4642224,46.5014578],[24.4626039,46.4991716],[24.4617491,46.4985056],[24.4608694,46.4981742],[24.4600098,46.4979991],[24.4579781,46.4978821],[24.4543691,46.4970925],[24.4536647,46.4968538],[24.453883,46.4967227],[24.4542553,46.4969313],[24.4545568,46.4967936],[24.4545023,46.4964335],[24.454992,46.4961475],[24.4557438,46.4959704],[24.4560868,46.4957864],[24.45639,46.4958365],[24.4572013,46.4956742],[24.4577104,46.4954264],[24.4593228,46.4953311],[24.4600865,46.4955959],[24.4609444,46.4956137],[24.4620538,46.4958772],[24.4626758,46.4955188],[24.4632863,46.494961],[24.4644088,46.4947307],[24.4651885,46.4941721],[24.465671,46.4940869],[24.4668797,46.4945964],[24.4679633,46.4945095],[24.468777,46.4950411],[24.4701532,46.4948725],[24.4709742,46.494866],[24.4714436,46.4950357],[24.4718036,46.4948892],[24.4764219,46.4947346],[24.4825292,46.4977762],[24.4818314,46.4949775],[24.4897781,46.4924615],[24.4900284,46.492302],[24.4901433,46.492373],[24.4927242,46.4915263],[24.4945337,46.4907492],[24.4967437,46.4902014],[24.5015305,46.4887026]]]}},{"type":"Feature","properties":{"entity_id":"osm-r12557978","jurisdiction":"RO","display_name":"Bărdești","display_type":"component_village_boundary_representation","admin_level":9,"tier":"detail","legal_registry":null,"legal_id":null,"legal_type":null,"parent_catalog_id":"osm-r11318833","osm_relation_id":12557978,"legal_identity_status":"not_bound_to_official_registry","geometry_source":"OpenStreetMap","canonical_geometry_role":null,"geometry_scope":null,"geometry_precision":"master_coordinate_fidelity"},"geometry":{"type":"Polygon","coordinates":[[[24.5159832,46.5857335],[24.5167531,46.5854224],[24.5172496,46.5851579],[24.5173289,46.5851661],[24.51744,46.5854322],[24.5176186,46.5857612],[24.5177982,46.5859651],[24.5180127,46.5860832],[24.5182615,46.5861624],[24.5184652,46.5862102],[24.518521,46.586312],[24.5184324,46.58752],[24.5187272,46.5878543],[24.5187819,46.5878861],[24.5187724,46.5879239],[24.5187856,46.5879839],[24.5188584,46.5880284],[24.5189865,46.5880478],[24.5191321,46.5880431],[24.5193855,46.5880873],[24.5195309,46.5883048],[24.519707,46.5885831],[24.5197246,46.5886589],[24.5197514,46.5887347],[24.5197968,46.5887791],[24.5197873,46.5888137],[24.5197134,46.5888891],[24.5197542,46.5889303],[24.5199053,46.5889404],[24.5200202,46.5888841],[24.520177,46.5887586],[24.5202833,46.5886455],[24.5203238,46.588328],[24.5202896,46.5880535],[24.5203636,46.5879749],[24.520479,46.5878713],[24.5206167,46.5878277],[24.5206125,46.5877772],[24.5205214,46.5877295],[24.5204441,46.5876756],[24.5204449,46.5875809],[24.5204963,46.5874676],[24.5205254,46.5873713],[24.520567,46.5873273],[24.5206857,46.5873657],[24.5207773,46.5873597],[24.5208144,46.5873063],[24.5207924,46.5872052],[24.5207612,46.5871042],[24.5208494,46.5869752],[24.521006,46.5868623],[24.5212448,46.5867781],[24.521337,46.5867059],[24.5215276,46.5864806],[24.5216838,46.586415],[24.5217989,46.5863398],[24.5218362,46.5862705],[24.5218416,46.5861728],[24.5219797,46.5860913],[24.5220494,46.5859718],[24.5221283,46.5858554],[24.5222843,46.5858119],[24.522431,46.5857967],[24.5225775,46.5857878],[24.5227194,46.5857947],[24.5226767,46.5859649],[24.5225696,46.5861727],[24.5225964,46.5862422],[24.5226696,46.5862551],[24.5227891,46.586202],[24.5229222,46.5861646],[24.5229883,46.5861949],[24.5229695,46.5862453],[24.5228543,46.5863332],[24.5228531,46.5864625],[24.5227836,46.5865632],[24.5225216,46.5871993],[24.5228232,46.5872636],[24.5232117,46.5873409],[24.523495,46.5867033],[24.5237541,46.5865038],[24.5239872,46.5861875],[24.5244856,46.5857229],[24.5248765,46.5859439],[24.5254408,46.5861318],[24.5255509,46.586107],[24.5255458,46.5861732],[24.5255819,46.5862301],[24.5256734,46.5862431],[24.5257561,46.5862056],[24.5258523,46.586206],[24.5259664,46.586238],[24.5262315,46.5862927],[24.5265141,46.5864359],[24.5267605,46.5865346],[24.5268013,46.5865884],[24.5269153,46.5866362],[24.5270782,46.5866759],[24.5274895,46.5867564],[24.5278548,46.5868778],[24.5282974,46.5870468],[24.528494,46.5870823],[24.5286858,46.5871367],[24.5290365,46.58716],[24.5293206,46.5871391],[24.5295405,46.5871274],[24.5296614,46.5870933],[24.5297859,46.5870339],[24.529922,46.586946],[24.5301448,46.5867575],[24.5301551,46.5866463],[24.5301317,46.5865192],[24.530082,46.5864464],[24.5300719,46.5863199],[24.5301297,46.5862321],[24.5300942,46.5860995],[24.5299706,46.5860927],[24.5297745,46.5860544],[24.5295885,46.5859374],[24.5295187,46.5858242],[24.5295334,46.585379],[24.5295912,46.5849676],[24.5296001,46.5845673],[24.5293632,46.5843643],[24.5292229,46.5842702],[24.5292118,46.5841813],[24.529246,46.5841094],[24.5294359,46.5841139],[24.5297896,46.5841926],[24.5299053,46.5841571],[24.5302391,46.5841269],[24.5305005,46.584146],[24.5310978,46.5842933],[24.5317511,46.5843771],[24.5322477,46.5844332],[24.5332086,46.5846391],[24.533805,46.5847592],[24.5340404,46.5847923],[24.5354532,46.5848856],[24.5359994,46.584952],[24.5371629,46.5852047],[24.5376067,46.5853278],[24.5380052,46.5855004],[24.5381902,46.5856145],[24.5383987,46.5857876],[24.5384963,46.5858864],[24.5385575,46.5859829],[24.5386149,46.5861605],[24.538604,46.5864475],[24.5383585,46.5865128],[24.5378752,46.586652],[24.5371643,46.586043],[24.536696,46.5863694],[24.5364747,46.5865548],[24.5360979,46.5869403],[24.535384,46.587731],[24.5353074,46.5877165],[24.5346902,46.5888327],[24.5349585,46.5889081],[24.5348464,46.5891461],[24.5344718,46.5897898],[24.5341407,46.5904332],[24.5337496,46.5904851],[24.533527,46.5904136],[24.5333634,46.5906952],[24.5337032,46.59075],[24.5342052,46.5907841],[24.5343524,46.5907826],[24.5351355,46.59058],[24.5351546,46.5908345],[24.53526,46.5908414],[24.5352424,46.591117],[24.5352034,46.5913258],[24.5350951,46.5915541],[24.5349691,46.5917844],[24.5341907,46.5927009],[24.5339722,46.592924],[24.5336348,46.5932155],[24.5333163,46.5934815],[24.5329101,46.5938696],[24.5325616,46.5942502],[24.532332,46.5945776],[24.5320811,46.5949863],[24.5318523,46.5954203],[24.5318253,46.5954898],[24.5317584,46.5956616],[24.5316601,46.595649],[24.5313541,46.5969951],[24.5308306,46.5982633],[24.5296733,46.5981568],[24.5280568,46.5986505],[24.5275544,46.5986484],[24.526921,46.5988021],[24.5263864,46.5987776],[24.5260452,46.5988878],[24.5254619,46.5988742],[24.5244713,46.5991045],[24.5236778,46.5990343],[24.522721,46.5991084],[24.5219571,46.599362],[24.521173,46.6000731],[24.5199123,46.600582],[24.5178826,46.600807],[24.5163139,46.6011404],[24.5159562,46.6011601],[24.5157173,46.6010002],[24.5138412,46.6013322],[24.5128201,46.601382],[24.512268,46.6016655],[24.5116346,46.6022499],[24.5094379,46.6049772],[24.5089377,46.605773],[24.5085401,46.6060467],[24.5036605,46.6075549],[24.5020745,46.6079222],[24.4999939,46.6081246],[24.4966108,46.6081164],[24.4945121,46.608505],[24.4935482,46.6083167],[24.4927639,46.6082895],[24.492647,46.6081474],[24.491773,46.6064535],[24.4910002,46.6046985],[24.4910383,46.6042201],[24.4906919,46.6027509],[24.4907257,46.6017429],[24.4913026,46.600642],[24.4927199,46.5990753],[24.493044,46.5984858],[24.4929406,46.596596],[24.492517,46.5944258],[24.4921772,46.5936368],[24.4921913,46.5932902],[24.4898796,46.5901676],[24.4907935,46.5888203],[24.4918794,46.5863257],[24.492426,46.5857583],[24.4922807,46.585219],[24.4925289,46.5844017],[24.4929833,46.5840444],[24.4942566,46.5834856],[24.4944235,46.5837547],[24.494744,46.5838827],[24.4951579,46.5838529],[24.4959409,46.5836663],[24.4964468,46.5836211],[24.4969998,46.5834651],[24.4975521,46.5833726],[24.4978971,46.5833424],[24.4984238,46.5831719],[24.4984969,46.5831753],[24.4985889,46.5831252],[24.4999754,46.5838262],[24.5013776,46.5844339],[24.5013932,46.5847399],[24.5014183,46.5849956],[24.5014703,46.5853218],[24.501609,46.5856789],[24.5016255,46.5858777],[24.5016715,46.5859833],[24.5017491,46.5860089],[24.5019503,46.5860319],[24.5021877,46.5861117],[24.502411,46.58622],[24.5026613,46.5863945],[24.5030131,46.5864749],[24.5033909,46.5865171],[24.5037983,46.5865283],[24.5037989,46.5864557],[24.5039291,46.5862355],[24.5042816,46.5857386],[24.5043572,46.5854866],[24.5045378,46.5852571],[24.5046778,46.5851043],[24.5049955,46.5849101],[24.5051975,46.584851],[24.5055373,46.5847421],[24.5058084,46.5846329],[24.5060975,46.5845606],[24.5065064,46.5844141],[24.506874,46.5841526],[24.50735,46.5836657],[24.5075809,46.583449],[24.5076588,46.5834367],[24.5077457,46.5834529],[24.5078872,46.5834976],[24.5080284,46.5835771],[24.5083287,46.5837866],[24.5084923,46.5839166],[24.508674,46.5840688],[24.5087563,46.5840849],[24.5088025,46.584041],[24.5088805,46.5840192],[24.5089536,46.5840416],[24.5090813,46.5840958],[24.5093319,46.5842325],[24.5095431,46.5842955],[24.5097121,46.5843373],[24.50989,46.5844106],[24.5101087,46.5845345],[24.510154,46.5845915],[24.5101763,46.5846516],[24.5101301,46.5846955],[24.5100108,46.5847266],[24.5098503,46.5847511],[24.5096527,46.5848354],[24.5093915,46.584869],[24.5090479,46.5848833],[24.5090772,46.5851926],[24.5090754,46.5853871],[24.5088433,46.5857457],[24.5087138,46.5858808],[24.5085619,46.5859811],[24.5088048,46.5859538],[24.5088778,46.585973],[24.5089869,46.5860681],[24.5091463,46.5861539],[24.509361,46.5862085],[24.5097101,46.5863091],[24.5102906,46.5864125],[24.5108752,46.5865696],[24.5116924,46.5868349],[24.5123267,46.5869767],[24.5126654,46.5869876],[24.5131241,46.5868949],[24.513537,46.586802],[24.5139136,46.586668],[24.5140701,46.586574],[24.5141953,46.5864074],[24.5144292,46.5862359],[24.514627,46.5861326],[24.5150082,46.5859955],[24.5152054,46.5859616],[24.5154578,46.5858901],[24.5159832,46.5857335]]]}}]}