{"type":"FeatureCollection","metadata":{"schema_version":1,"contract":"actual-public-geometry-chunk-v1","mode":"ACTUAL","jurisdiction":"MD","tier":"detail","root_entity_id":"osm-r1692123","feature_count":12,"geometry_source":"OpenStreetMap","geometry_precision":"master_coordinate_fidelity"},"features":[{"type":"Feature","properties":{"entity_id":"osm-r12107524","jurisdiction":"MD","display_name":"Întovărășirea pomicolă „ST Flora”","display_type":"non_administrative_or_auxiliary_area","admin_level":9,"tier":"detail","legal_registry":null,"legal_id":null,"legal_type":null,"parent_catalog_id":"osm-r19013514","osm_relation_id":12107524,"legal_identity_status":"outside_current_legal_registry","geometry_source":"OpenStreetMap","geometry_precision":"master_coordinate_fidelity"},"geometry":{"type":"Polygon","coordinates":[[[29.1496293,47.103596],[29.1499606,47.1042361],[29.1501915,47.104853],[29.1505446,47.1060594],[29.1505556,47.107097],[29.1484924,47.1077015],[29.1483837,47.1077333],[29.1484235,47.1076126],[29.1482374,47.1072865],[29.1465263,47.1045586],[29.1496293,47.103596]]]}},{"type":"Feature","properties":{"entity_id":"osm-r12107528","jurisdiction":"MD","display_name":"Întovărășirea pomicolă „Poiana Nouă”","display_type":"non_administrative_or_auxiliary_area","admin_level":9,"tier":"detail","legal_registry":null,"legal_id":null,"legal_type":null,"parent_catalog_id":"osm-r19013514","osm_relation_id":12107528,"legal_identity_status":"outside_current_legal_registry","geometry_source":"OpenStreetMap","geometry_precision":"master_coordinate_fidelity"},"geometry":{"type":"Polygon","coordinates":[[[29.1450852,47.1007545],[29.1424628,47.102839],[29.1394211,47.1010795],[29.1394512,47.1010562],[29.1395049,47.1010147],[29.1395105,47.1010181],[29.1396822,47.1008817],[29.1398551,47.1007459],[29.1398992,47.1007113],[29.140029,47.1006094],[29.1402002,47.100475],[29.1403742,47.1003384],[29.1405497,47.1002007],[29.1407251,47.1000629],[29.1408974,47.0999277],[29.14096,47.0998785],[29.1439572,47.1006267],[29.1450852,47.1007545]]]}},{"type":"Feature","properties":{"entity_id":"osm-r12107529","jurisdiction":"MD","display_name":"Întovărășirea pomicolă „Irigator”","display_type":"non_administrative_or_auxiliary_area","admin_level":9,"tier":"detail","legal_registry":null,"legal_id":null,"legal_type":null,"parent_catalog_id":"osm-r19013514","osm_relation_id":12107529,"legal_identity_status":"outside_current_legal_registry","geometry_source":"OpenStreetMap","geometry_precision":"master_coordinate_fidelity"},"geometry":{"type":"Polygon","coordinates":[[[29.1450852,47.1007545],[29.1473431,47.1011202],[29.1482241,47.1014869],[29.148625,47.1017722],[29.1496293,47.103596],[29.1465263,47.1045586],[29.1459854,47.1037325],[29.1457209,47.1033984],[29.1455123,47.1032766],[29.1452146,47.1032269],[29.1430571,47.1032007],[29.1424628,47.102839],[29.1450852,47.1007545]]]}},{"type":"Feature","properties":{"entity_id":"osm-r18966848","jurisdiction":"MD","display_name":"Marcăuți","display_type":"independent_village","admin_level":9,"tier":"detail","legal_registry":"CUATM","legal_id":"3837","legal_type":"independent_village","parent_catalog_id":"osm-r19090943","osm_relation_id":18966848,"legal_identity_status":"reconciled","geometry_source":"OpenStreetMap","geometry_precision":"master_coordinate_fidelity"},"geometry":{"type":"Polygon","coordinates":[[[29.0519761,47.3549389],[29.048143,47.3551975],[29.0483656,47.3545778],[29.0510934,47.3543882],[29.0514031,47.3512853],[29.0525838,47.3514479],[29.0527005,47.3513744],[29.0530318,47.3513049],[29.053381,47.3512105],[29.0537999,47.3512472],[29.0538624,47.3514779],[29.0546638,47.3515427],[29.0549616,47.3515143],[29.0559902,47.3515866],[29.0561299,47.3508367],[29.0562833,47.3507612],[29.0566251,47.3507042],[29.0568491,47.3506265],[29.0570072,47.3505136],[29.0571575,47.3501973],[29.0579928,47.3502903],[29.0577855,47.3508584],[29.0586219,47.3510419],[29.0593979,47.3514572],[29.059605,47.3515478],[29.0598015,47.3518146],[29.0599885,47.3518741],[29.0602314,47.3518716],[29.0608089,47.3516806],[29.0618071,47.3512737],[29.062288,47.3512308],[29.062475,47.3512868],[29.0629046,47.3514474],[29.0631975,47.3516351],[29.063227,47.3519047],[29.0634891,47.3517964],[29.0635959,47.3518446],[29.0636662,47.3520462],[29.0635695,47.3522823],[29.0637279,47.3527195],[29.063839,47.3528687],[29.063865,47.35298],[29.063821,47.3533331],[29.0637344,47.3533807],[29.0636744,47.3536327],[29.0637557,47.3539203],[29.063862,47.3541898],[29.0639072,47.354226],[29.0639981,47.354227],[29.0640767,47.3544372],[29.0640518,47.3545746],[29.0640407,47.3548467],[29.0640698,47.3550152],[29.0642304,47.3550887],[29.0642982,47.3552169],[29.0643165,47.3554697],[29.0643206,47.3555685],[29.0643703,47.3556606],[29.0644781,47.3558606],[29.0643878,47.3558753],[29.0644855,47.3561187],[29.0647363,47.3560815],[29.0649046,47.3563141],[29.0649771,47.356446],[29.0651586,47.3566486],[29.065443,47.3568841],[29.0654969,47.3569579],[29.0655575,47.3570805],[29.0656813,47.3572881],[29.0656873,47.3574015],[29.0655979,47.3575828],[29.0655172,47.3577717],[29.0654097,47.3579157],[29.0652503,47.3580839],[29.065152,47.3582286],[29.0650508,47.3584262],[29.0645733,47.3588314],[29.0643374,47.3590006],[29.0641378,47.3591455],[29.0636285,47.3590989],[29.0631426,47.3590316],[29.0620307,47.3583734],[29.06054,47.3596295],[29.0590788,47.3590639],[29.0588334,47.3588894],[29.0585619,47.3586164],[29.0576133,47.3593096],[29.0565097,47.3586824],[29.055898,47.3583362],[29.0558305,47.358218],[29.055162,47.3576682],[29.0542775,47.3569882],[29.0540014,47.3568205],[29.0539806,47.3567211],[29.0540065,47.3565939],[29.0532693,47.3564044],[29.052964,47.3563564],[29.0526469,47.3561991],[29.0516479,47.3560893],[29.0519761,47.3549389]]]}},{"type":"Feature","properties":{"entity_id":"osm-r18966931","jurisdiction":"MD","display_name":"Holercani","display_type":"independent_village","admin_level":9,"tier":"detail","legal_registry":"CUATM","legal_id":"3835","legal_type":"independent_village","parent_catalog_id":"osm-r19090911","osm_relation_id":18966931,"legal_identity_status":"reconciled","geometry_source":"OpenStreetMap","geometry_precision":"master_coordinate_fidelity"},"geometry":{"type":"Polygon","coordinates":[[[29.0656732,47.3033668],[29.0660998,47.3034259],[29.0661172,47.3033706],[29.0661903,47.3031383],[29.0662012,47.3031036],[29.067398,47.3032423],[29.0674216,47.3031642],[29.0676115,47.3031897],[29.0676568,47.3031983],[29.0678963,47.3032438],[29.0681675,47.3032989],[29.0684164,47.3033501],[29.0686301,47.3033945],[29.0687142,47.3033905],[29.068829,47.3033851],[29.0690766,47.3033969],[29.0693899,47.3033619],[29.0696792,47.3033574],[29.0700184,47.3033521],[29.0707408,47.3033408],[29.0709471,47.3033431],[29.0711237,47.303059],[29.0713277,47.3027304],[29.0714099,47.3026074],[29.0714492,47.3024077],[29.0715276,47.3023132],[29.0717903,47.3023],[29.0719802,47.3020761],[29.0720422,47.302003],[29.0728282,47.3023212],[29.07277,47.3023946],[29.0727583,47.3024095],[29.072602,47.302607],[29.0726698,47.3026294],[29.0732709,47.3028641],[29.0733141,47.3028815],[29.0739374,47.3031467],[29.0741421,47.3029709],[29.0743177,47.3028682],[29.0744569,47.3027868],[29.0744913,47.3027667],[29.0745709,47.3027202],[29.0746863,47.3026562],[29.0747754,47.3027084],[29.0751118,47.3028456],[29.0753432,47.30294],[29.0755412,47.3030207],[29.0759519,47.3031883],[29.0763983,47.3033704],[29.0765799,47.3031771],[29.076665,47.3031984],[29.0773005,47.3034296],[29.0775927,47.3036807],[29.0783245,47.3040923],[29.0782183,47.3042655],[29.0780543,47.3044486],[29.0780543,47.3044598],[29.0778761,47.3046711],[29.078153,47.304784],[29.0780216,47.3049473],[29.0776879,47.3048179],[29.0775824,47.3049001],[29.0774399,47.3051319],[29.0773187,47.305329],[29.0772154,47.3052988],[29.0771193,47.3055162],[29.0771512,47.3055346],[29.0772583,47.3055598],[29.0771116,47.3058694],[29.0770609,47.305899],[29.0770538,47.3059141],[29.0770337,47.3059567],[29.0769447,47.306149],[29.0760698,47.3059446],[29.0758769,47.3062989],[29.0759844,47.3063201],[29.0759466,47.3064416],[29.0761054,47.3064995],[29.0762385,47.3065253],[29.0762813,47.3065638],[29.0762835,47.3066066],[29.0762088,47.3067942],[29.0761723,47.3068792],[29.0761573,47.3069137],[29.0763519,47.3069329],[29.0763433,47.3071844],[29.0762342,47.3071459],[29.076198,47.3071355],[29.0760021,47.3070942],[29.0758786,47.3073053],[29.0761532,47.3073673],[29.0758974,47.3077947],[29.0758587,47.3078341],[29.0754542,47.3077793],[29.0752772,47.3081743],[29.0750463,47.3081545],[29.0750554,47.308225],[29.0750646,47.308349],[29.0752611,47.3084635],[29.0755455,47.3085969],[29.0755587,47.3086851],[29.0755421,47.308765],[29.0755272,47.3087995],[29.0752574,47.3094266],[29.0753221,47.3094424],[29.0755699,47.3094648],[29.0758503,47.3094893],[29.076144,47.3095203],[29.0759021,47.3100823],[29.0758787,47.3104042],[29.0755475,47.3107481],[29.0759321,47.310846],[29.0759585,47.3109007],[29.0759006,47.3110196],[29.0758308,47.3110996],[29.0757223,47.311323],[29.0755989,47.3115283],[29.0755223,47.311753],[29.0753911,47.3120145],[29.0754281,47.3120251],[29.0753039,47.3122732],[29.0751132,47.312215],[29.075031,47.3123217],[29.0751884,47.3123387],[29.0750587,47.3125679],[29.0749765,47.3127596],[29.0747077,47.3127422],[29.0745165,47.3127],[29.074174,47.3127143],[29.0741014,47.3128041],[29.0739759,47.3127852],[29.0740211,47.3126969],[29.0737492,47.3126435],[29.0735543,47.3131773],[29.0735276,47.3132376],[29.073138,47.3141801],[29.0727914,47.3148423],[29.0725374,47.3154711],[29.0724806,47.3155877],[29.0729049,47.315725],[29.0728548,47.316266],[29.0722322,47.3161275],[29.0721259,47.3163837],[29.0720041,47.3163594],[29.0719235,47.3165355],[29.0718411,47.3167606],[29.0715996,47.3173334],[29.0712803,47.3178139],[29.0710761,47.3183179],[29.0710152,47.3183147],[29.0708811,47.318236],[29.0707087,47.3183548],[29.07063,47.3183267],[29.070378,47.3188185],[29.0709455,47.3189275],[29.0709862,47.3188433],[29.0709961,47.3188172],[29.071013,47.318773],[29.0712376,47.3183679],[29.07154,47.3181854],[29.0716673,47.3181386],[29.0717487,47.3181497],[29.0717792,47.3180817],[29.0720193,47.3181311],[29.0732855,47.3182432],[29.0732562,47.3184001],[29.0732041,47.3185829],[29.0728769,47.3189624],[29.0729694,47.3190699],[29.0728801,47.3193169],[29.0728364,47.319337],[29.0727759,47.3194513],[29.0727096,47.3196535],[29.0727378,47.3196589],[29.0727043,47.3197539],[29.0726817,47.319818],[29.0726406,47.3199329],[29.0723607,47.3200397],[29.072252,47.3201083],[29.0721022,47.3203519],[29.0720715,47.3203444],[29.072012,47.3203263],[29.0718691,47.3202909],[29.0715099,47.3202013],[29.071234,47.3201231],[29.0710419,47.3200679],[29.0710166,47.3201014],[29.070801,47.3203792],[29.0707541,47.3204567],[29.0703121,47.3211604],[29.0702533,47.3212265],[29.0699795,47.3211393],[29.0698495,47.3211068],[29.0696369,47.3210537],[29.0691406,47.3213769],[29.0687884,47.3213032],[29.0686459,47.3213888],[29.0682432,47.3218482],[29.0678232,47.3221965],[29.0677692,47.3222772],[29.0677767,47.3223619],[29.0678183,47.3224168],[29.0679282,47.3225604],[29.0679917,47.3227109],[29.0680328,47.3228935],[29.0680398,47.323062],[29.068247,47.3231808],[29.0684405,47.323333],[29.0685087,47.3232727],[29.0685416,47.3232906],[29.0686675,47.323337],[29.0691526,47.3236921],[29.0687781,47.3239393],[29.0684405,47.3237012],[29.0683307,47.323602],[29.0682689,47.3234848],[29.067702,47.3235176],[29.0672554,47.3234352],[29.0672563,47.323603],[29.0672567,47.3236644],[29.0668341,47.3236995],[29.0668379,47.3236241],[29.06685,47.3233865],[29.0668231,47.323063],[29.066645,47.3230694],[29.0666345,47.3229418],[29.0667275,47.3229342],[29.0666904,47.3227446],[29.0666826,47.3226811],[29.06702,47.3226368],[29.0671597,47.3224647],[29.0672216,47.3223993],[29.0675053,47.3222875],[29.0679162,47.3219414],[29.0678239,47.3219449],[29.0676851,47.3218761],[29.0677201,47.3218382],[29.0674911,47.3216899],[29.0674551,47.3216234],[29.0673636,47.321385],[29.0673883,47.3213536],[29.0675122,47.3212411],[29.0677151,47.3210568],[29.0678627,47.3209228],[29.0681194,47.3205382],[29.0684869,47.320613],[29.068664,47.32009],[29.0687957,47.3197013],[29.068549,47.3196438],[29.0662073,47.3190981],[29.0660096,47.3190809],[29.065121,47.3188956],[29.064784,47.3188299],[29.0646377,47.3187641],[29.0645685,47.3187434],[29.0645153,47.3187274],[29.0644595,47.3187106],[29.0644109,47.3186964],[29.0643501,47.318682],[29.0643278,47.3186767],[29.0642448,47.318657],[29.0641415,47.3186388],[29.0640817,47.3186282],[29.063985,47.3186112],[29.0638994,47.3185914],[29.0638504,47.3185801],[29.0637888,47.3185659],[29.0636631,47.3185369],[29.0636136,47.3185254],[29.0635204,47.3185039],[29.0634518,47.318488],[29.0634018,47.3184765],[29.0633515,47.3184655],[29.0633136,47.3184573],[29.0632694,47.3184477],[29.0632187,47.3184366],[29.0631584,47.3184235],[29.0630823,47.318407],[29.063019,47.3183932],[29.0629429,47.3183766],[29.0629176,47.3183711],[29.062892,47.3183655],[29.0628162,47.318349],[29.062753,47.3183353],[29.0626835,47.3183202],[29.0626583,47.3183147],[29.062633,47.3183092],[29.0625819,47.3182998],[29.0625181,47.3182883],[29.0622061,47.3191672],[29.062163,47.3191973],[29.0618035,47.320177],[29.0617191,47.3204037],[29.0616076,47.3204886],[29.0602805,47.3202476],[29.0602205,47.3202247],[29.0578136,47.3198804],[29.0578469,47.3197702],[29.0579126,47.3196282],[29.0579779,47.3194872],[29.0580427,47.3193473],[29.0581071,47.3192084],[29.0581533,47.3191086],[29.0581852,47.3190398],[29.0582487,47.3189029],[29.0583116,47.3187671],[29.0583741,47.3186321],[29.0584052,47.318565],[29.0584671,47.3184313],[29.0585287,47.3182986],[29.0585592,47.3182325],[29.0586202,47.3181009],[29.0586808,47.3179702],[29.0587409,47.3178403],[29.0587841,47.317747],[29.0588437,47.3176185],[29.0589029,47.3174907],[29.0589618,47.3173637],[29.0590203,47.3172374],[29.0590785,47.3171119],[29.0591364,47.3169871],[29.0591938,47.3168629],[29.059251,47.3167395],[29.0592921,47.3166507],[29.0593487,47.3165284],[29.059405,47.3164068],[29.059461,47.3162858],[29.0595245,47.3161488],[29.0595522,47.3160889],[29.0595799,47.3160292],[29.059635,47.3159102],[29.0596899,47.3157919],[29.0597172,47.3157329],[29.0597248,47.3157165],[29.059752,47.3156578],[29.0597792,47.3155991],[29.0598334,47.3154823],[29.0598872,47.315366],[29.0599096,47.3153178],[29.0599631,47.3152024],[29.0599897,47.3151448],[29.0600428,47.3150303],[29.0600691,47.3149732],[29.0600926,47.3149226],[29.0601452,47.314809],[29.0601976,47.314696],[29.0602497,47.3145835],[29.0603016,47.3144715],[29.0603532,47.31436],[29.0604047,47.3142491],[29.0604559,47.3141386],[29.0604814,47.3140836],[29.0605323,47.3139739],[29.0605577,47.3139192],[29.0605681,47.3138974],[29.0605877,47.3138545],[29.0606105,47.3138052],[29.0606464,47.3137278],[29.0606809,47.3136534],[29.0607359,47.313535],[29.0607852,47.313429],[29.0608342,47.3133234],[29.0608831,47.3132182],[29.0609075,47.3131658],[29.0609318,47.3131134],[29.0609669,47.313038],[29.0610152,47.3129342],[29.0610634,47.3128306],[29.0611113,47.3127275],[29.061159,47.3126247],[29.0612065,47.3125224],[29.0612539,47.3124205],[29.0613011,47.3123189],[29.0613481,47.3122178],[29.0613949,47.312117],[29.0614415,47.3120167],[29.061488,47.3119166],[29.0615343,47.3118169],[29.0615804,47.3117177],[29.0616264,47.3116188],[29.0616721,47.3115203],[29.0617177,47.3114221],[29.0617721,47.3113219],[29.0618124,47.3112475],[29.0599463,47.3108537],[29.0600465,47.3106265],[29.0601078,47.3105008],[29.0601413,47.3104324],[29.0602265,47.310258],[29.0603105,47.3100859],[29.0603934,47.3099161],[29.0604752,47.3097486],[29.0605157,47.3096656],[29.060527,47.3096425],[29.0605382,47.3096196],[29.0606183,47.3094557],[29.060658,47.3093744],[29.060669,47.3093519],[29.0607083,47.3092713],[29.0607864,47.3091115],[29.0608635,47.3089536],[29.0609398,47.3087973],[29.0609944,47.3086854],[29.0610692,47.3085321],[29.0611433,47.3083804],[29.0612167,47.3082302],[29.0612894,47.3080815],[29.0613254,47.3080077],[29.061397,47.3078613],[29.0614324,47.3077886],[29.0614678,47.3077162],[29.0615039,47.3076444],[29.0615398,47.3075729],[29.0615883,47.3074737],[29.061598,47.307454],[29.0616249,47.3073989],[29.0616595,47.3073283],[29.0616939,47.3072579],[29.0617281,47.3071881],[29.0617753,47.3070917],[29.0618091,47.3070224],[29.0618588,47.3069236],[29.0619257,47.3067875],[29.0619218,47.3067866],[29.0619618,47.3067204],[29.0620008,47.3066558],[29.0620679,47.3065224],[29.0621343,47.3063902],[29.0591985,47.3057603],[29.0592129,47.3057125],[29.0593181,47.3054053],[29.0594159,47.3051155],[29.0595093,47.3049701],[29.0596635,47.3050175],[29.0598291,47.3050684],[29.0600569,47.3051123],[29.0602073,47.3051444],[29.0605214,47.3052114],[29.06068,47.3052453],[29.0609805,47.3053094],[29.0611286,47.3053415],[29.0612936,47.3053787],[29.0613483,47.305391],[29.0615971,47.3054471],[29.0618717,47.3054954],[29.0620323,47.3055247],[29.062257,47.3055656],[29.0627904,47.3056626],[29.0634875,47.3057895],[29.0637774,47.3058422],[29.0640164,47.3058857],[29.0643183,47.3059407],[29.0644665,47.3059676],[29.064601,47.3059318],[29.0646605,47.3056687],[29.0646945,47.3055254],[29.0647434,47.3053925],[29.0648531,47.305405],[29.064965,47.3051245],[29.0651985,47.3051698],[29.0652147,47.3051369],[29.0649818,47.3050965],[29.0650501,47.3048768],[29.065144,47.304674],[29.0652436,47.3044588],[29.0652958,47.3043297],[29.0653379,47.3042342],[29.0654404,47.3040256],[29.06554,47.303814],[29.0656263,47.3036015],[29.0656328,47.3035816],[29.0655949,47.3035763],[29.0656732,47.3033668]]]}},{"type":"Feature","properties":{"entity_id":"osm-r18966969","jurisdiction":"MD","display_name":"Ustia","display_type":"independent_village","admin_level":9,"tier":"detail","legal_registry":"CUATM","legal_id":"3844","legal_type":"independent_village","parent_catalog_id":"osm-r19090912","osm_relation_id":18966969,"legal_identity_status":"reconciled","geometry_source":"OpenStreetMap","geometry_precision":"master_coordinate_fidelity"},"geometry":{"type":"Polygon","coordinates":[[[29.1153699,47.2653233],[29.1152671,47.2653284],[29.1143301,47.2647797],[29.1142933,47.2647543],[29.1136963,47.2643652],[29.1136035,47.2642762],[29.1134682,47.2641238],[29.1133532,47.2640164],[29.1128947,47.2637295],[29.1128777,47.2636865],[29.1124844,47.2633242],[29.1124267,47.263275],[29.1127458,47.2631846],[29.1137769,47.2629707],[29.1138626,47.2627385],[29.1138447,47.2626949],[29.1138002,47.2626097],[29.1137699,47.2625517],[29.1137046,47.2624265],[29.1136336,47.2622904],[29.1135883,47.2622155],[29.1135414,47.2621334],[29.1134929,47.2620595],[29.1134373,47.2619809],[29.1134152,47.2619418],[29.1133339,47.2618345],[29.113294,47.2617819],[29.113237,47.2617036],[29.1131899,47.2616388],[29.1131547,47.2615903],[29.1131334,47.2615538],[29.113094,47.2614863],[29.1130684,47.2614306],[29.1130454,47.2613467],[29.1130356,47.2612882],[29.113018,47.2611856],[29.1130057,47.2611009],[29.1129722,47.2609993],[29.1129381,47.2608891],[29.112888,47.2607266],[29.112865,47.260667],[29.1128398,47.2605665],[29.1127949,47.260387],[29.1127736,47.2603017],[29.1127547,47.260226],[29.1127032,47.2600286],[29.1126786,47.259885],[29.1126674,47.2598221],[29.1126513,47.2597556],[29.1126179,47.2596596],[29.1125786,47.259555],[29.1125571,47.2594831],[29.1125317,47.2593665],[29.1125013,47.2592272],[29.1124842,47.2591431],[29.1124607,47.2587365],[29.1124452,47.2584677],[29.1124235,47.258345],[29.1123998,47.2582117],[29.1123699,47.2580549],[29.1123058,47.2578147],[29.1122205,47.2576117],[29.1121531,47.257552],[29.1117931,47.2570356],[29.1115547,47.2566917],[29.1114355,47.2564598],[29.1114254,47.2562356],[29.1115096,47.2561112],[29.1115526,47.2560439],[29.1116138,47.2559529],[29.1116644,47.2558415],[29.1117162,47.2557312],[29.1117977,47.2555674],[29.1118584,47.2554487],[29.1119042,47.2553778],[29.111986,47.2552497],[29.112091,47.255104],[29.1122029,47.255089],[29.1123374,47.2549503],[29.1124148,47.2548329],[29.1123337,47.2548005],[29.1114766,47.2541401],[29.1116221,47.2540385],[29.1117848,47.2539716],[29.1117224,47.2539233],[29.1113315,47.2537445],[29.1112846,47.2537231],[29.1111532,47.2536368],[29.1110912,47.2536151],[29.1108682,47.2535372],[29.1106763,47.253544],[29.1104515,47.2536491],[29.1103808,47.2536405],[29.1103901,47.2535654],[29.1104027,47.2534799],[29.1104299,47.2532955],[29.1104441,47.2532043],[29.1104614,47.2530041],[29.1104758,47.2528231],[29.1104907,47.2526357],[29.1104937,47.2525471],[29.1104958,47.2524573],[29.110498,47.2523667],[29.1105001,47.2522751],[29.1105063,47.2521096],[29.110506,47.2520173],[29.1106463,47.2520178],[29.11088,47.2518637],[29.1113379,47.2514679],[29.1114252,47.251386],[29.1118806,47.2510974],[29.1123964,47.250741],[29.1125281,47.2506379],[29.1124512,47.2504625],[29.1122811,47.2502536],[29.1124059,47.250199],[29.1127103,47.2504342],[29.112894,47.250305],[29.112917,47.2502994],[29.1134175,47.2506247],[29.1135646,47.2507216],[29.1136856,47.2508012],[29.1139242,47.2509729],[29.1141716,47.2511552],[29.1143462,47.2513178],[29.1145536,47.2514813],[29.1146393,47.2515583],[29.1149086,47.2513977],[29.1152427,47.2512032],[29.115315,47.2511594],[29.1156005,47.250983],[29.1156059,47.2509852],[29.1159785,47.2507558],[29.1160027,47.2507514],[29.1161424,47.2507],[29.1163604,47.2505645],[29.1166018,47.2503892],[29.116645,47.2503606],[29.1162511,47.2500109],[29.1160696,47.2498177],[29.1169063,47.2492532],[29.1174363,47.2488881],[29.117961,47.2485242],[29.1185826,47.2481134],[29.1181088,47.2477066],[29.1176595,47.2473137],[29.1177403,47.2472509],[29.1175177,47.2470032],[29.1174756,47.2469759],[29.1174437,47.2469518],[29.1174126,47.2469299],[29.1173446,47.2468512],[29.1172776,47.2467737],[29.1172058,47.2466907],[29.1173982,47.2465466],[29.1182288,47.2459004],[29.1183924,47.2457731],[29.1182328,47.2456736],[29.1173178,47.2451387],[29.1175274,47.2449466],[29.117616,47.2449063],[29.1176403,47.2448952],[29.1177421,47.2448771],[29.1178003,47.244868],[29.1178391,47.2448372],[29.1179396,47.2448636],[29.118003,47.2448803],[29.118032,47.2448973],[29.1181082,47.2449419],[29.1182693,47.2450362],[29.1183472,47.2450819],[29.1184249,47.2451273],[29.1185031,47.2451731],[29.1185819,47.2452193],[29.1186621,47.2452653],[29.1187447,47.2453107],[29.1188282,47.2453567],[29.1189125,47.245403],[29.1189923,47.2454469],[29.119035,47.2454771],[29.1191262,47.2455415],[29.1192024,47.2455953],[29.1192482,47.2456277],[29.1193324,47.2456871],[29.119417,47.2457468],[29.1194633,47.2457795],[29.1195162,47.2458083],[29.1197222,47.2459129],[29.1198178,47.2459615],[29.1199142,47.2460104],[29.1199739,47.2460403],[29.120024,47.2460654],[29.1201257,47.2461162],[29.1201866,47.2461477],[29.1202398,47.2461699],[29.1202967,47.246208],[29.1203984,47.2462637],[29.1204601,47.2462975],[29.1205224,47.2463316],[29.1205852,47.246366],[29.1206486,47.2464007],[29.120702,47.2464299],[29.1208099,47.246489],[29.1209085,47.246543],[29.12102,47.246604],[29.1211334,47.2466661],[29.1212024,47.2467039],[29.1212215,47.2467143],[29.1214078,47.2468483],[29.1215096,47.2469215],[29.1216115,47.2469948],[29.1216728,47.2470388],[29.121775,47.2471123],[29.1218735,47.2471882],[29.1219303,47.2472348],[29.1219869,47.2472813],[29.1220802,47.2473557],[29.122174,47.2474347],[29.1222666,47.2475107],[29.1223586,47.2475862],[29.1224136,47.2476313],[29.1224693,47.2476757],[29.122562,47.2477492],[29.1226174,47.2477932],[29.1226459,47.2478158],[29.1227416,47.2479101],[29.1227868,47.2479546],[29.1228235,47.2479852],[29.1229086,47.248056],[29.1229925,47.2481257],[29.1230676,47.2481878],[29.1231513,47.2482442],[29.1232351,47.2483006],[29.1233192,47.2483573],[29.1234128,47.2484203],[29.1234597,47.2484519],[29.1235443,47.2485089],[29.12358,47.2485221],[29.1236485,47.2485585],[29.1237065,47.2485894],[29.1238252,47.2486526],[29.1240208,47.2487577],[29.1240896,47.2488011],[29.1242737,47.2489171],[29.1243406,47.2489559],[29.1244126,47.249005],[29.1245964,47.2491262],[29.1247362,47.2492184],[29.1248066,47.2492648],[29.1249368,47.2493507],[29.1250085,47.2493979],[29.1250545,47.2494283],[29.125114,47.2494558],[29.1252312,47.24951],[29.1253154,47.249549],[29.1253357,47.2495584],[29.1252938,47.2496209],[29.1253206,47.2496334],[29.1253755,47.2496919],[29.1254787,47.2498018],[29.125589,47.2499192],[29.1256516,47.2500717],[29.1256991,47.2501871],[29.1257309,47.2502645],[29.1263347,47.2503168],[29.127323,47.2504989],[29.1276523,47.2505959],[29.127707,47.2505311],[29.1279987,47.2505897],[29.1281449,47.2506368],[29.1283351,47.2506854],[29.1281991,47.250957],[29.1281338,47.2512634],[29.1281903,47.2514946],[29.128326,47.2517182],[29.1286088,47.2520189],[29.1289311,47.2523658],[29.129395,47.252705],[29.1298533,47.2529865],[29.1303456,47.2532217],[29.1307983,47.2533836],[29.1312567,47.2534608],[29.1318283,47.2535342],[29.1323491,47.2534726],[29.1330454,47.2532569],[29.1336908,47.2529449],[29.1342456,47.2527639],[29.1356325,47.252452],[29.1358134,47.2528413],[29.135983,47.2532498],[29.1361186,47.2536468],[29.1360844,47.2540244],[29.1360049,47.2545447],[29.135682,47.2550302],[29.1350647,47.2556968],[29.1345323,47.2562825],[29.1340792,47.2567796],[29.1334675,47.2574732],[29.1327908,47.2581397],[29.1325416,47.2583978],[29.1322216,47.2587542],[29.1318591,47.2591568],[29.1313834,47.2596711],[29.1309813,47.2601007],[29.1303371,47.2606612],[29.1301558,47.2608799],[29.1299009,47.2611765],[29.1296545,47.2614491],[29.1293982,47.2617458],[29.129064,47.2621387],[29.1287723,47.2624585],[29.1285259,47.2627552],[29.1283135,47.2630229],[29.1280019,47.2633658],[29.127866,47.2635469],[29.1276507,47.2638127],[29.1273391,47.2641758],[29.1267448,47.2640099],[29.1267163,47.2640487],[29.1266447,47.2641437],[29.1265731,47.2642278],[29.126481,47.2643272],[29.1252932,47.2656162],[29.1244568,47.2664693],[29.1238509,47.2670555],[29.1235483,47.267337],[29.1232327,47.2675664],[29.1230195,47.2677319],[29.1230083,47.267868],[29.1230025,47.267938],[29.122732,47.2683672],[29.1225038,47.2687292],[29.1220754,47.2695107],[29.121333,47.2693323],[29.1212735,47.2693181],[29.1212159,47.2693042],[29.1205676,47.2691185],[29.1202282,47.2691247],[29.1193142,47.2696151],[29.1191703,47.2694086],[29.1190069,47.2692863],[29.1178621,47.2687643],[29.1169566,47.2684642],[29.1167039,47.2684214],[29.1166546,47.2683773],[29.1170024,47.267979],[29.1174695,47.2674708],[29.1175482,47.2673913],[29.1176017,47.2673445],[29.1176454,47.2672884],[29.1176877,47.267234],[29.1177241,47.2671872],[29.1177763,47.2671208],[29.1177912,47.2670966],[29.1178103,47.2670653],[29.1178896,47.2669717],[29.117927,47.2669274],[29.1179607,47.2668897],[29.1180248,47.2668209],[29.1179335,47.2667828],[29.117305,47.2664309],[29.1172539,47.2664086],[29.1163212,47.2658827],[29.1162697,47.2658574],[29.1153699,47.2653233]]]}},{"type":"Feature","properties":{"entity_id":"osm-r18967120","jurisdiction":"MD","display_name":"Pîrîta","display_type":"independent_village","admin_level":9,"tier":"detail","legal_registry":"CUATM","legal_id":"3842","legal_type":"independent_village","parent_catalog_id":"osm-r19013514","osm_relation_id":18967120,"legal_identity_status":"reconciled","geometry_source":"OpenStreetMap","geometry_precision":"master_coordinate_fidelity"},"geometry":{"type":"Polygon","coordinates":[[[29.1242962,47.1204574],[29.1242313,47.1205006],[29.1241232,47.1205719],[29.12407,47.120607],[29.1234583,47.1210106],[29.1206965,47.1226487],[29.1206583,47.1226714],[29.120055,47.1230292],[29.1177813,47.1243883],[29.1175926,47.1245011],[29.1175112,47.1245498],[29.1174022,47.1246149],[29.1167102,47.1240482],[29.1166722,47.1240171],[29.115842,47.1233373],[29.1157987,47.1233017],[29.1149682,47.1226217],[29.1149319,47.122592],[29.1141079,47.1219171],[29.1140648,47.1218818],[29.1133135,47.1212666],[29.1132714,47.1212321],[29.112749,47.1208043],[29.1121578,47.1203202],[29.1116577,47.1199106],[29.1115772,47.1198447],[29.1113577,47.1197382],[29.1113579,47.1197039],[29.1113602,47.1191781],[29.1112416,47.1190898],[29.1109591,47.1188796],[29.1108169,47.1187738],[29.1108201,47.1187641],[29.1108203,47.1187521],[29.1108225,47.1186345],[29.1108247,47.1185138],[29.1108269,47.1183895],[29.1108292,47.1182614],[29.1108316,47.1181291],[29.1108342,47.1179922],[29.1108367,47.11785],[29.1108395,47.1177021],[29.1108423,47.1175476],[29.1108452,47.1173855],[29.1108483,47.1172146],[29.1108517,47.1170334],[29.1108553,47.1168395],[29.1108591,47.1166304],[29.110863,47.116419],[29.1108583,47.1163966],[29.1107855,47.1160534],[29.1106908,47.1156054],[29.1103497,47.1153968],[29.1093713,47.1150638],[29.1092847,47.1150343],[29.1083665,47.1147218],[29.107531,47.1144912],[29.1068941,47.114285],[29.1053196,47.1137751],[29.1052676,47.1137582],[29.1051718,47.1137272],[29.1052336,47.113648],[29.1057062,47.1130427],[29.1059707,47.1127057],[29.1057961,47.1126437],[29.1058498,47.1125014],[29.1063089,47.1120067],[29.1065408,47.1117704],[29.1069382,47.1119431],[29.1073169,47.1121057],[29.1075687,47.111867],[29.1073461,47.1117701],[29.1076692,47.1114727],[29.1079767,47.1112766],[29.1077821,47.1111478],[29.1077303,47.1111135],[29.1087793,47.11096],[29.1093627,47.1107177],[29.1097595,47.1106612],[29.1104195,47.11052],[29.110805,47.1104772],[29.1112761,47.110309],[29.1120904,47.1099987],[29.112058,47.1099214],[29.1122502,47.1096302],[29.112297,47.1094755],[29.1123022,47.1093591],[29.1122828,47.1092764],[29.1122728,47.1092334],[29.1125287,47.1092668],[29.1125948,47.1088227],[29.1126846,47.1085353],[29.1129607,47.108316],[29.1130035,47.1081935],[29.1130533,47.1080702],[29.1131089,47.1079334],[29.1132018,47.1076766],[29.1132724,47.1074814],[29.1132645,47.1070966],[29.1132565,47.1070368],[29.1132523,47.1070054],[29.1130076,47.1070217],[29.1129886,47.1068613],[29.1129055,47.1066091],[29.1128351,47.1064688],[29.1127003,47.1062002],[29.1126118,47.1059977],[29.1125556,47.1058896],[29.1124085,47.1056408],[29.1123413,47.1055301],[29.1123274,47.1055078],[29.11223,47.1053828],[29.1121285,47.1052753],[29.1120182,47.1051655],[29.1118647,47.1050357],[29.1118599,47.1050254],[29.1116767,47.1048331],[29.1117621,47.1048086],[29.1119174,47.104764],[29.1116643,47.1045119],[29.1115131,47.1043245],[29.1113338,47.1041469],[29.1111963,47.1039919],[29.1110563,47.103841],[29.1109072,47.1036825],[29.110753,47.1035186],[29.1106879,47.1034468],[29.1106658,47.1034224],[29.1105476,47.1032633],[29.1104924,47.1031889],[29.1104196,47.1031065],[29.1101662,47.1028583],[29.1099858,47.1026612],[29.1097263,47.1023777],[29.1096777,47.1023239],[29.1096293,47.1022703],[29.1094952,47.1021041],[29.1093376,47.1019534],[29.1092165,47.1018289],[29.1090901,47.1016473],[29.1090534,47.1016291],[29.1089061,47.1014267],[29.1088179,47.1012586],[29.1088342,47.1012508],[29.1086446,47.1009576],[29.1086212,47.1009403],[29.1082771,47.100383],[29.1083068,47.1003534],[29.1083121,47.1002846],[29.108296,47.1002382],[29.1082698,47.100163],[29.1087459,47.0998438],[29.1091679,47.0996169],[29.109336,47.0995494],[29.109495,47.0994856],[29.109567,47.0995006],[29.1098049,47.0993756],[29.110031,47.0992648],[29.1100692,47.0992893],[29.1103995,47.0990995],[29.1107137,47.0989191],[29.11098,47.098755],[29.1111312,47.098656],[29.1111957,47.0986014],[29.1112237,47.0985776],[29.111839,47.0981638],[29.1120922,47.0979848],[29.1120977,47.0979706],[29.1123594,47.0977824],[29.1123692,47.0977854],[29.1125678,47.097611],[29.1126527,47.0975288],[29.112617,47.0975055],[29.1127378,47.0970019],[29.1130026,47.0963279],[29.1134775,47.0957734],[29.1137805,47.0954976],[29.1139294,47.095362],[29.1141149,47.0951801],[29.1142373,47.0950722],[29.1143615,47.0949626],[29.1143835,47.0949381],[29.1147502,47.0943895],[29.1149843,47.094059],[29.1150992,47.0938969],[29.1153472,47.0935137],[29.1154052,47.0934446],[29.1156772,47.0930265],[29.1159188,47.0926746],[29.116022,47.0927005],[29.116019,47.0926512],[29.1162594,47.0924311],[29.1165296,47.0922147],[29.1172009,47.0917011],[29.1173825,47.0916145],[29.1174395,47.0915873],[29.1175851,47.0915178],[29.1176613,47.0914815],[29.1181069,47.0914493],[29.1185364,47.0914183],[29.1201464,47.0916216],[29.1202207,47.091631],[29.1211803,47.0916912],[29.1224017,47.0917875],[29.1235313,47.0919307],[29.1241447,47.0921154],[29.1261274,47.092597],[29.1271077,47.092854],[29.127892,47.0930545],[29.1293422,47.0934402],[29.1294778,47.0934663],[29.1296699,47.0934747],[29.1297437,47.0936189],[29.1298208,47.0936421],[29.1299265,47.0938027],[29.1299426,47.0938017],[29.1300173,47.0939362],[29.1305815,47.0936101],[29.1306097,47.0936098],[29.1306635,47.0936451],[29.1307214,47.0937264],[29.1308017,47.0938579],[29.1309375,47.0940615],[29.1310786,47.0942507],[29.1311475,47.094381],[29.1309712,47.0945308],[29.1312504,47.0946578],[29.1313132,47.0947157],[29.1314166,47.0948899],[29.1317492,47.0955425],[29.1320912,47.0960167],[29.1322308,47.0961604],[29.1323519,47.0963129],[29.1327747,47.0966419],[29.1328067,47.0966594],[29.1329638,47.0967431],[29.1331132,47.096823],[29.1331563,47.096846],[29.1334005,47.0969766],[29.1336633,47.097102],[29.1344808,47.0974922],[29.1345504,47.0975255],[29.1357981,47.0981209],[29.1358547,47.0981388],[29.1374003,47.0988894],[29.1377097,47.0990356],[29.1377687,47.0990503],[29.1378206,47.0990632],[29.1386685,47.0992746],[29.1387227,47.0992903],[29.1391606,47.0994169],[29.1394929,47.0995129],[29.1402609,47.0997187],[29.1402979,47.0997284],[29.1403315,47.0997373],[29.1406191,47.0998131],[29.14096,47.0998785],[29.1408974,47.0999277],[29.1407251,47.1000629],[29.1405497,47.1002007],[29.1403742,47.1003384],[29.1402002,47.100475],[29.140029,47.1006094],[29.1398992,47.1007113],[29.1398551,47.1007459],[29.1396822,47.1008817],[29.1395105,47.1010181],[29.1395049,47.1010147],[29.1394512,47.1010562],[29.1394211,47.1010795],[29.1389757,47.1008104],[29.1388948,47.1008349],[29.1386132,47.1006684],[29.1381392,47.1003445],[29.1375466,47.099986],[29.1370785,47.0996781],[29.1366719,47.0994522],[29.1359382,47.09903],[29.1354964,47.0987974],[29.1350472,47.0986808],[29.1344729,47.098645],[29.1342715,47.098655],[29.133054,47.0987153],[29.132251,47.0988001],[29.1321361,47.0988164],[29.1316638,47.0988633],[29.1314682,47.0989431],[29.1311057,47.099207],[29.1306202,47.0995375],[29.1299167,47.0999958],[29.1293998,47.1003245],[29.1284445,47.100925],[29.1288768,47.1012444],[29.128369,47.1015671],[29.1292264,47.102264],[29.1293135,47.102209],[29.1296281,47.1024881],[29.1296751,47.1025336],[29.1306114,47.1024048],[29.1310678,47.1024106],[29.1329749,47.1028036],[29.1329394,47.102853],[29.1324556,47.1035276],[29.1326109,47.1036447],[29.1326837,47.1039653],[29.1327707,47.103977],[29.1323498,47.1044744],[29.1319407,47.1043168],[29.1319201,47.1043483],[29.1314642,47.1041042],[29.1311006,47.1040096],[29.1303068,47.1037783],[29.1295413,47.1035552],[29.1290107,47.1038713],[29.1291041,47.1039414],[29.1290068,47.1040091],[29.1289017,47.1039358],[29.1287391,47.1040367],[29.1283081,47.104304],[29.1280421,47.104469],[29.1277353,47.1046593],[29.1279138,47.1047993],[29.1277912,47.1048731],[29.1277696,47.1048865],[29.1272692,47.1051965],[29.1268247,47.1054708],[29.1264621,47.1051845],[29.125882,47.1047288],[29.1255257,47.1044477],[29.1233667,47.1054937],[29.1232944,47.1055287],[29.1214709,47.1064149],[29.1200588,47.1070826],[29.118847,47.1077096],[29.1183614,47.1080523],[29.1171678,47.1088599],[29.1168932,47.1090701],[29.116029,47.1096844],[29.1150546,47.1103348],[29.1143799,47.1107985],[29.1136083,47.1113465],[29.112991,47.1117771],[29.1122679,47.112286],[29.1121111,47.1123964],[29.1122407,47.1124882],[29.1124186,47.1125401],[29.1125037,47.1127134],[29.1125402,47.1127002],[29.1126716,47.1127992],[29.1126638,47.1128069],[29.1127263,47.1128323],[29.1127152,47.1128456],[29.1129285,47.112988],[29.1129474,47.1129876],[29.1130296,47.1130372],[29.1131335,47.1131301],[29.1133334,47.1132763],[29.1134022,47.1133283],[29.1134555,47.1133802],[29.113466,47.1133802],[29.1135244,47.1134244],[29.1137551,47.1135949],[29.1137597,47.1135918],[29.113793,47.1136147],[29.1137894,47.1136171],[29.1137991,47.1136239],[29.1138582,47.1136731],[29.1140293,47.1138319],[29.1141931,47.1139686],[29.1143278,47.1140562],[29.1146916,47.1143194],[29.1147082,47.1143606],[29.1148122,47.114433],[29.1149209,47.1145064],[29.1150981,47.1146439],[29.1151283,47.1146953],[29.1152928,47.1148216],[29.1153082,47.1148053],[29.115431,47.1149005],[29.1154598,47.1149381],[29.115475,47.1149388],[29.1155299,47.1149644],[29.1155765,47.1149937],[29.115605,47.1149745],[29.115681,47.115028],[29.1156551,47.1150643],[29.1156752,47.115076],[29.1157072,47.1150545],[29.1157646,47.1150887],[29.1157372,47.1151139],[29.1157917,47.115157],[29.11585,47.115193],[29.1160265,47.1153207],[29.116233,47.1154549],[29.1164702,47.1155861],[29.1165656,47.1156392],[29.1167633,47.1157833],[29.1168014,47.1157852],[29.1169652,47.1158969],[29.1171677,47.1160244],[29.1174351,47.1161733],[29.1177099,47.1163209],[29.118026,47.1164729],[29.1184587,47.1166811],[29.1187602,47.1168261],[29.1189952,47.1169516],[29.1194387,47.117145],[29.1196155,47.1172206],[29.1202295,47.1174833],[29.1202964,47.1175115],[29.1209795,47.1178001],[29.1210567,47.1178356],[29.1220594,47.1182973],[29.1224415,47.1179891],[29.1235954,47.1184781],[29.1237956,47.1185616],[29.123842,47.1185923],[29.1240089,47.118703],[29.1241582,47.118802],[29.1243329,47.1189178],[29.1243754,47.1189436],[29.1242313,47.1190245],[29.1237677,47.1193184],[29.1232205,47.1196231],[29.123386,47.1197524],[29.1235151,47.1198532],[29.1236389,47.1199499],[29.1237594,47.1200441],[29.1238771,47.120136],[29.1239929,47.1202251],[29.1242308,47.1204073],[29.1242962,47.1204574]]]}},{"type":"Feature","properties":{"entity_id":"osm-r18967180","jurisdiction":"MD","display_name":"Coșnița","display_type":"commune","admin_level":9,"tier":"detail","legal_registry":"CUATM","legal_id":"3818","legal_type":"commune","parent_catalog_id":"osm-r19013515","osm_relation_id":18967180,"legal_identity_status":"reconciled","geometry_source":"OpenStreetMap","geometry_precision":"master_coordinate_fidelity"},"geometry":{"type":"Polygon","coordinates":[[[29.152022,47.1513691],[29.1520864,47.1513613],[29.1523174,47.1515396],[29.1527808,47.1519128],[29.1528321,47.1518732],[29.1532622,47.1522051],[29.1532472,47.1522156],[29.1535743,47.1524753],[29.1538389,47.152681],[29.153961,47.1529651],[29.1538422,47.1530239],[29.1536897,47.1531384],[29.1535576,47.1532509],[29.1534694,47.153326],[29.153359,47.15342],[29.1532853,47.1534828],[29.1531744,47.1535772],[29.1531003,47.1536402],[29.1530261,47.1537034],[29.1529531,47.1537676],[29.15288,47.153832],[29.1528434,47.1538644],[29.1528067,47.1538967],[29.1527699,47.1539291],[29.1527331,47.1539616],[29.1526962,47.1539941],[29.1526593,47.1540267],[29.1526223,47.1540593],[29.1525853,47.1540919],[29.1525482,47.1541247],[29.152511,47.1541575],[29.1524738,47.1541903],[29.1524361,47.154223],[29.1523983,47.1542555],[29.1523603,47.1542881],[29.1523224,47.1543208],[29.1522844,47.1543535],[29.1522464,47.1543861],[29.1522084,47.1544189],[29.1521703,47.1544516],[29.1521322,47.1544844],[29.152094,47.1545172],[29.1520176,47.154583],[29.1519793,47.1546159],[29.1519411,47.1546488],[29.1518644,47.1547148],[29.151826,47.1547478],[29.1517875,47.1547808],[29.1517491,47.1548139],[29.1517106,47.154847],[29.1516721,47.1548801],[29.1516336,47.1549133],[29.1515951,47.1549464],[29.1515566,47.1549795],[29.151518,47.1550127],[29.1514795,47.1550458],[29.151441,47.1550789],[29.1513644,47.1551456],[29.151327,47.1551797],[29.1512894,47.1552139],[29.1512517,47.1552482],[29.1512139,47.1552827],[29.1511759,47.1553172],[29.1510611,47.1554217],[29.1510226,47.1554567],[29.1509839,47.155492],[29.150945,47.1555273],[29.1509464,47.155573],[29.1509777,47.1556064],[29.151918,47.1561602],[29.151951,47.1561836],[29.15288,47.1567438],[29.1529102,47.1567626],[29.1539763,47.1573863],[29.1540023,47.1574039],[29.1548937,47.1579325],[29.1549319,47.1579594],[29.1549712,47.1579819],[29.1546559,47.1582435],[29.1538103,47.1589245],[29.1529748,47.1595974],[29.152815,47.1595067],[29.1526049,47.1593903],[29.1525174,47.1593419],[29.1516153,47.1599901],[29.1507529,47.1606846],[29.1507785,47.1607026],[29.149022,47.1620328],[29.148778,47.1618763],[29.1482182,47.1615383],[29.1480313,47.1613945],[29.1474753,47.1618484],[29.1470478,47.1621881],[29.14704,47.1622225],[29.14642,47.1626542],[29.1463361,47.1626923],[29.1459192,47.1624256],[29.1457076,47.162188],[29.1457002,47.1618788],[29.1456045,47.1618072],[29.1453665,47.1617971],[29.1452407,47.1617313],[29.1451514,47.1616157],[29.1449808,47.1615247],[29.1447811,47.1613816],[29.1442491,47.1610004],[29.1430847,47.1602395],[29.1429589,47.1601153],[29.142764,47.1599228],[29.1425989,47.1597598],[29.1427968,47.1596389],[29.1427545,47.1596101],[29.1424285,47.159388],[29.1418386,47.1589863],[29.1414107,47.1586846],[29.1410713,47.1584453],[29.1409593,47.1583663],[29.1399291,47.1577523],[29.1398637,47.1578012],[29.1397375,47.1578957],[29.139678,47.1579581],[29.1395058,47.1578199],[29.1392759,47.1577478],[29.1388233,47.1576499],[29.1387514,47.157589],[29.1381427,47.1571909],[29.1383097,47.1569676],[29.1378491,47.1566088],[29.1380131,47.1564989],[29.1378493,47.1564314],[29.1376963,47.1563022],[29.1376382,47.1562777],[29.1375369,47.1562205],[29.1375056,47.1561233],[29.1373701,47.1560886],[29.1372687,47.155946],[29.1368032,47.1556322],[29.1362728,47.155286],[29.1356319,47.1549487],[29.13534,47.1548012],[29.1346928,47.1543442],[29.1342845,47.1542003],[29.1341905,47.1541487],[29.1340802,47.1540648],[29.1338085,47.1538669],[29.1325864,47.1531211],[29.1321572,47.1528664],[29.1322869,47.1527787],[29.1324609,47.1526821],[29.1323729,47.1526543],[29.1323165,47.1526227],[29.1322181,47.152558],[29.1321568,47.1525621],[29.1319202,47.1524685],[29.1317093,47.1524251],[29.1315016,47.1523859],[29.1313054,47.152333],[29.1311935,47.1522938],[29.1310142,47.1522013],[29.130832,47.1521052],[29.1304514,47.1518469],[29.1300948,47.1516944],[29.1299659,47.1516772],[29.1293651,47.1515459],[29.1287496,47.1514218],[29.1284452,47.1513288],[29.1283984,47.1513773],[29.128113,47.1511737],[29.1277045,47.1509892],[29.1271295,47.1508377],[29.1258594,47.1509406],[29.1256219,47.1509222],[29.1251788,47.1507339],[29.1251223,47.1505894],[29.1247391,47.1506428],[29.1237075,47.1507143],[29.1227775,47.1506402],[29.1226115,47.1505125],[29.124583,47.1490996],[29.1249347,47.1488863],[29.1254153,47.1486044],[29.1254754,47.1485693],[29.1254031,47.1485003],[29.1253676,47.1484512],[29.1249299,47.1480032],[29.124689,47.1477346],[29.1242856,47.1473233],[29.1242274,47.1472803],[29.1238906,47.1469075],[29.1237579,47.1469927],[29.1237376,47.1469721],[29.1236854,47.1469072],[29.1235838,47.1467667],[29.1233748,47.1465458],[29.1233191,47.1464008],[29.1230335,47.1461179],[29.1226165,47.145789],[29.1225985,47.1457619],[29.1225944,47.1457557],[29.1222591,47.1455318],[29.1223,47.1455014],[29.1223674,47.145417],[29.122481,47.1453618],[29.1224393,47.1452429],[29.1223357,47.1451171],[29.1223232,47.1450837],[29.1223255,47.1449931],[29.1223263,47.1449627],[29.1222644,47.1447312],[29.122224,47.1446308],[29.1221608,47.1445372],[29.1220066,47.1443093],[29.1219541,47.1442324],[29.1218704,47.1441097],[29.1217753,47.1439703],[29.1215883,47.1437228],[29.1215511,47.1436315],[29.1215696,47.1435479],[29.1214646,47.1433975],[29.1213978,47.1433018],[29.1213015,47.143164],[29.1212529,47.1430942],[29.1212094,47.1430322],[29.1211668,47.1429713],[29.1210509,47.1428031],[29.12094,47.1428541],[29.1207629,47.1428586],[29.1206636,47.1427887],[29.120562,47.1426974],[29.1204423,47.1425898],[29.1203493,47.1424465],[29.1202883,47.1423525],[29.1202119,47.142258],[29.1201358,47.1421638],[29.1200879,47.1421291],[29.1200481,47.1420401],[29.1201875,47.1419565],[29.1202765,47.1418509],[29.1202962,47.1418275],[29.1201548,47.1417147],[29.1201026,47.1415702],[29.1199396,47.1411189],[29.119909,47.1410343],[29.1199103,47.1409972],[29.1198861,47.1408862],[29.1198273,47.1406166],[29.1198298,47.1405029],[29.1198466,47.1397445],[29.1198999,47.1397081],[29.1199965,47.1396533],[29.1199506,47.1396242],[29.1200451,47.1395618],[29.1200395,47.1394647],[29.1200259,47.1392265],[29.1199549,47.1391006],[29.1194768,47.138524],[29.1194531,47.1384904],[29.119221,47.1382545],[29.1190673,47.1381214],[29.1190277,47.1380872],[29.1183293,47.1373017],[29.1179839,47.1369568],[29.1179246,47.1368975],[29.1176265,47.1365998],[29.1173725,47.1363063],[29.117097,47.1359153],[29.1171945,47.1358804],[29.1174596,47.1357855],[29.1180255,47.1355655],[29.1180809,47.1355327],[29.1179039,47.1352961],[29.1177485,47.1350667],[29.1175936,47.1348381],[29.1174458,47.1346251],[29.1172768,47.1343824],[29.1172281,47.1343984],[29.1171124,47.1342382],[29.1169959,47.1340768],[29.1169376,47.1339962],[29.1167628,47.1337541],[29.1161677,47.1339543],[29.116055,47.1337916],[29.1159385,47.1336302],[29.115822,47.1334688],[29.1157221,47.1333306],[29.1155889,47.1331461],[29.1154723,47.1329847],[29.1152393,47.132662],[29.1151227,47.1325006],[29.1150062,47.1323392],[29.1148896,47.1321779],[29.1146566,47.1318551],[29.11454,47.1316938],[29.1144235,47.1315324],[29.1143074,47.1313709],[29.1141614,47.1311693],[29.1141376,47.1311266],[29.1143794,47.131065],[29.1146982,47.1309257],[29.1151133,47.1307443],[29.1153146,47.1306941],[29.1154995,47.1306481],[29.1155878,47.1306261],[29.1157249,47.1305919],[29.1159216,47.1308913],[29.1219231,47.1281394],[29.1219752,47.1281797],[29.1228051,47.1288224],[29.1228449,47.1288532],[29.1236698,47.129492],[29.123718,47.1295293],[29.1245956,47.1302089],[29.1246275,47.1302336],[29.1255277,47.130946],[29.1255641,47.1309691],[29.1262808,47.1315226],[29.1263247,47.1315395],[29.1273672,47.1323522],[29.1274639,47.1323992],[29.1275565,47.1324443],[29.1283534,47.1330471],[29.1284934,47.1331607],[29.1285863,47.1332361],[29.1286519,47.1332893],[29.1287535,47.1333717],[29.1287838,47.1334222],[29.1287913,47.1334279],[29.1289352,47.1335389],[29.1290667,47.1336403],[29.1291091,47.133673],[29.129195,47.1337132],[29.1292845,47.1337817],[29.1294704,47.1339241],[29.1297489,47.1341374],[29.1304489,47.1346852],[29.1308597,47.1350067],[29.131247,47.1352915],[29.1312992,47.13534],[29.1314256,47.1354573],[29.1316087,47.1355888],[29.1320567,47.1359386],[29.1322927,47.1361135],[29.1325237,47.1362976],[29.1325711,47.1363292],[29.1326358,47.1363507],[29.1331067,47.1367208],[29.1341831,47.1375709],[29.1342539,47.1376236],[29.1343862,47.1377284],[29.1347308,47.1379775],[29.1348658,47.1380803],[29.1349669,47.138138],[29.1350509,47.1382123],[29.1352289,47.1383237],[29.1353546,47.1384401],[29.1354534,47.1385427],[29.1356173,47.138643],[29.1357226,47.1387338],[29.1357982,47.1388047],[29.1359203,47.1388671],[29.136055,47.1389916],[29.1361426,47.1390317],[29.1362325,47.1391158],[29.1363715,47.1392089],[29.1364573,47.1392882],[29.1365252,47.1393627],[29.1367554,47.139505],[29.1368199,47.1395663],[29.1369259,47.1396419],[29.137023,47.1397323],[29.1371166,47.1398038],[29.137181,47.1398717],[29.1374498,47.140047],[29.1375546,47.1401321],[29.137603,47.1401978],[29.1378214,47.1403588],[29.1378846,47.1404088],[29.1380666,47.1405318],[29.1381337,47.1405833],[29.1382702,47.1406988],[29.1383204,47.1407278],[29.1384204,47.1408075],[29.1384914,47.140869],[29.1387304,47.1410512],[29.1387587,47.141066],[29.1387947,47.1410876],[29.138831,47.1411161],[29.1389981,47.1412605],[29.1392681,47.1414554],[29.1393472,47.1415225],[29.1395208,47.1416503],[29.13958,47.1416808],[29.1403071,47.1422583],[29.1404991,47.1424162],[29.1405994,47.1424875],[29.1408845,47.14271],[29.141049,47.1428429],[29.141209,47.1429753],[29.1412853,47.1430155],[29.1414178,47.143107],[29.1415688,47.1432368],[29.1416527,47.1432949],[29.1417451,47.1433652],[29.1418627,47.1434664],[29.1422697,47.1437819],[29.1423371,47.1438245],[29.142722,47.144142],[29.1428494,47.1442307],[29.142984,47.144352],[29.1430917,47.1444248],[29.1431957,47.144507],[29.1432534,47.1445441],[29.1433262,47.1446024],[29.1434779,47.1447367],[29.1435533,47.1447869],[29.1436225,47.1448367],[29.1437645,47.1449552],[29.1439584,47.1450989],[29.1440046,47.1451205],[29.1441072,47.1451983],[29.1441733,47.1452531],[29.1442316,47.1453123],[29.1443435,47.1453998],[29.1448343,47.1457857],[29.145012,47.1459364],[29.1459202,47.1466501],[29.147821,47.148119],[29.1478245,47.1481286],[29.1498667,47.1496959],[29.152022,47.1513691]]]}},{"type":"Feature","properties":{"entity_id":"osm-r18967296","jurisdiction":"MD","display_name":"Oxentea","display_type":"independent_village","admin_level":9,"tier":"detail","legal_registry":"CUATM","legal_id":"3841","legal_type":"independent_village","parent_catalog_id":"osm-r19090941","osm_relation_id":18967296,"legal_identity_status":"reconciled","geometry_source":"OpenStreetMap","geometry_precision":"master_coordinate_fidelity"},"geometry":{"type":"Polygon","coordinates":[[[29.1086463,47.3880349],[29.1092284,47.3881188],[29.1092846,47.3879387],[29.1087202,47.3876113],[29.1100062,47.3867187],[29.110471,47.3867874],[29.1107739,47.3864927],[29.1113399,47.3862315],[29.1113529,47.3860756],[29.1113143,47.3859696],[29.1113425,47.3859164],[29.1103153,47.3853182],[29.1110363,47.3848463],[29.1114264,47.3845862],[29.1119773,47.3840736],[29.1130756,47.3831694],[29.1128811,47.382994],[29.1132251,47.3826196],[29.114088,47.3821591],[29.1137447,47.3815455],[29.1140701,47.381351],[29.1145608,47.3804979],[29.1159284,47.3792563],[29.1162441,47.3792161],[29.1168896,47.3793975],[29.1175088,47.3787668],[29.1177918,47.3789098],[29.118528,47.3782703],[29.1191524,47.3785464],[29.1195267,47.3787589],[29.1199521,47.3784348],[29.1201176,47.3785451],[29.1204115,47.3783749],[29.1199686,47.3781463],[29.1202806,47.377947],[29.1211169,47.3784664],[29.1218609,47.3780572],[29.1215103,47.3778458],[29.1216352,47.3777092],[29.12171,47.3776432],[29.1217895,47.3776078],[29.1222985,47.37705],[29.1233479,47.3776769],[29.124311,47.3769082],[29.1244884,47.3768969],[29.1268692,47.3748954],[29.1263505,47.3746883],[29.1283744,47.3734326],[29.1295093,47.3739472],[29.1300541,47.3742158],[29.1319905,47.3730477],[29.1342995,47.3748131],[29.1326466,47.3760178],[29.1323917,47.3762],[29.1314623,47.3768906],[29.1303649,47.3776386],[29.1318667,47.3785104],[29.1312504,47.3791108],[29.1308535,47.3794618],[29.1306979,47.3795095],[29.1305301,47.3794227],[29.129868,47.3799933],[29.128445,47.3807661],[29.126165,47.382588],[29.1246002,47.3836261],[29.123988,47.3840759],[29.1239271,47.3841567],[29.1236903,47.3843181],[29.1237483,47.3843631],[29.1234405,47.3845527],[29.1231379,47.3846955],[29.1230244,47.3846174],[29.122896,47.3846485],[29.122137,47.3848277],[29.1221892,47.3848751],[29.1219074,47.3849962],[29.1211919,47.3852374],[29.1206956,47.3853171],[29.1204862,47.3853971],[29.1201331,47.3854439],[29.1198993,47.3854788],[29.1196472,47.3855472],[29.1194063,47.3855773],[29.1189611,47.3855738],[29.1187866,47.3855815],[29.1187408,47.3856057],[29.1185674,47.3857794],[29.1186148,47.3858559],[29.1187863,47.3859399],[29.1188314,47.386015],[29.1188315,47.3860834],[29.1181621,47.3864416],[29.11789,47.3865586],[29.1176833,47.3866523],[29.1174031,47.3867752],[29.1168509,47.386828],[29.1165681,47.3868775],[29.1162846,47.3870463],[29.1158639,47.3869455],[29.1151352,47.3870662],[29.1148974,47.3872013],[29.1145621,47.3875224],[29.1143169,47.3877321],[29.1141173,47.3877846],[29.1138916,47.3877957],[29.1137129,47.3877919],[29.1131563,47.3877802],[29.1130048,47.3877494],[29.1128427,47.3877193],[29.1127628,47.387871],[29.1126384,47.3882059],[29.1125933,47.3882452],[29.1125891,47.3882842],[29.112176,47.3884021],[29.1119167,47.3884578],[29.1117095,47.3885577],[29.1115433,47.3885667],[29.1114172,47.3885961],[29.1113064,47.388635],[29.1111403,47.3887363],[29.1110013,47.3888525],[29.1108165,47.3889618],[29.1107441,47.3890012],[29.1106954,47.3890345],[29.1104518,47.3891536],[29.1104164,47.3891628],[29.1100298,47.3893509],[29.109933,47.3893834],[29.1098853,47.3894059],[29.1098186,47.3894103],[29.1097754,47.3894233],[29.1096497,47.3894492],[29.1095801,47.3894846],[29.1095455,47.3894808],[29.1095105,47.3894497],[29.1092946,47.3895732],[29.1093132,47.38959],[29.1092772,47.3896117],[29.1093044,47.3896307],[29.1090804,47.3897715],[29.1088365,47.3899366],[29.1086471,47.3900491],[29.10839,47.390155],[29.1082248,47.3901635],[29.1080647,47.3902145],[29.1078549,47.3900919],[29.1072452,47.3897373],[29.1070938,47.3898034],[29.1067182,47.3895389],[29.1077644,47.3888391],[29.1074722,47.388712],[29.1079437,47.38841],[29.1080665,47.3884824],[29.1086463,47.3880349]]]}},{"type":"Feature","properties":{"entity_id":"osm-r18967558","jurisdiction":"MD","display_name":"Doroțcaia","display_type":"independent_village","admin_level":9,"tier":"detail","legal_registry":"CUATM","legal_id":"3828","legal_type":"independent_village","parent_catalog_id":"osm-r19013513","osm_relation_id":18967558,"legal_identity_status":"reconciled","geometry_source":"OpenStreetMap","geometry_precision":"master_coordinate_fidelity"},"geometry":{"type":"Polygon","coordinates":[[[29.1854418,47.1614723],[29.1862815,47.1617456],[29.1875116,47.162223],[29.1888099,47.1626404],[29.189793,47.1629345],[29.1926321,47.1635715],[29.1932508,47.1636914],[29.1941112,47.1637824],[29.196086,47.1639438],[29.1974362,47.1639669],[29.2006975,47.1642175],[29.2038017,47.1641662],[29.2048492,47.1640041],[29.2048345,47.1644392],[29.2057306,47.1651352],[29.2065691,47.1659176],[29.2068812,47.1662737],[29.2055826,47.1670563],[29.2069461,47.1680926],[29.2089259,47.1689642],[29.2090969,47.1688697],[29.2096343,47.1686229],[29.2148957,47.1699808],[29.2151975,47.1702971],[29.214918,47.1710225],[29.2152884,47.1710621],[29.2168908,47.1711225],[29.2192385,47.1710334],[29.2232001,47.170364],[29.2240954,47.17021],[29.2250039,47.1700246],[29.2260449,47.1699298],[29.2281634,47.1699062],[29.2288622,47.1700081],[29.229466,47.1701783],[29.2297588,47.1702198],[29.2300365,47.1701799],[29.2306426,47.170147],[29.231022,47.1702088],[29.2313069,47.1702731],[29.2314808,47.1702928],[29.2325163,47.1705314],[29.2326787,47.1706355],[29.232676,47.1712103],[29.2326865,47.1712339],[29.2329655,47.1712453],[29.2335941,47.1711451],[29.2336264,47.1711973],[29.2333156,47.17148],[29.2330617,47.1716248],[29.2326902,47.1718869],[29.2320496,47.172053],[29.2312138,47.1720827],[29.2309207,47.1723154],[29.2311795,47.1725906],[29.2312502,47.1727026],[29.2308992,47.1729322],[29.2304137,47.1726005],[29.2300122,47.1723738],[29.229854,47.1724015],[29.229542,47.1725612],[29.2288798,47.1727463],[29.2274854,47.173225],[29.2270263,47.1734239],[29.2266655,47.1735351],[29.2264392,47.1734623],[29.2262927,47.1733476],[29.2239988,47.1738386],[29.2237874,47.1738898],[29.2226405,47.174188],[29.2222724,47.1742708],[29.2217312,47.1743124],[29.2208109,47.1745113],[29.2197539,47.1748054],[29.2194786,47.174879],[29.2186904,47.1750392],[29.2179737,47.1751725],[29.2174259,47.17515],[29.2170159,47.1750889],[29.2163438,47.175252],[29.2143646,47.1758898],[29.2144359,47.1759233],[29.2148496,47.1761181],[29.2152575,47.1763782],[29.2173752,47.1777065],[29.218442,47.17915],[29.2144737,47.1804804],[29.2086724,47.1825054],[29.2077861,47.1829113],[29.207064,47.1837514],[29.2010923,47.1801611],[29.1996203,47.1792567],[29.1948708,47.1762419],[29.1930459,47.1751256],[29.1902907,47.1734339],[29.1888162,47.1725293],[29.1890836,47.1722665],[29.1892274,47.1721062],[29.188676,47.1720834],[29.1884521,47.1719976],[29.1860605,47.1705984],[29.183311,47.1688896],[29.1841508,47.1679453],[29.1854367,47.1665488],[29.1861325,47.1657633],[29.1869631,47.164886],[29.1877226,47.1640498],[29.1848407,47.1628343],[29.1846339,47.1620221],[29.1842319,47.1616402],[29.1854418,47.1614723]]]}},{"type":"Feature","properties":{"entity_id":"osm-r18968121","jurisdiction":"MD","display_name":"Pohrebea","display_type":"component_locality","admin_level":9,"tier":"detail","legal_registry":"CUATM","legal_id":"3819","legal_type":null,"parent_catalog_id":"osm-r19013515","osm_relation_id":18968121,"legal_identity_status":"reconciled","geometry_source":"OpenStreetMap","geometry_precision":"master_coordinate_fidelity"},"geometry":{"type":"Polygon","coordinates":[[[29.1719781,47.1910932],[29.1706974,47.1893352],[29.1696197,47.1881157],[29.1692499,47.1877712],[29.1672336,47.1857237],[29.1658347,47.1846361],[29.1642376,47.1834949],[29.1631623,47.1828866],[29.1626321,47.1825416],[29.1627008,47.1824989],[29.1629955,47.1826711],[29.1630723,47.1826812],[29.1637935,47.1827133],[29.1641649,47.1826839],[29.1643359,47.1826716],[29.1645756,47.1826603],[29.1643382,47.182507],[29.1640127,47.1820272],[29.1638696,47.1820539],[29.1634906,47.181649],[29.1628618,47.1808655],[29.1623275,47.1801894],[29.1620204,47.1797796],[29.1619407,47.1797788],[29.1616789,47.179539],[29.1617647,47.179471],[29.1614253,47.1790816],[29.1609772,47.1785919],[29.160942,47.1785629],[29.1608256,47.1784706],[29.1607799,47.1784343],[29.1604761,47.1779047],[29.1603298,47.1777883],[29.1603528,47.1776874],[29.1600327,47.1772653],[29.1598345,47.1769958],[29.1592864,47.1762431],[29.1590647,47.1759418],[29.1587571,47.1755251],[29.1581583,47.1746829],[29.1578474,47.1742515],[29.1575396,47.1737733],[29.1575086,47.173672],[29.157426,47.1733905],[29.1573249,47.1732134],[29.1572956,47.1731785],[29.1568858,47.1727723],[29.1567728,47.1727322],[29.1565048,47.1723974],[29.1564306,47.1723025],[29.1561981,47.1719822],[29.1560815,47.1718253],[29.15554,47.1711149],[29.155452,47.171016],[29.1559543,47.1708185],[29.1581109,47.1703026],[29.1585909,47.1706843],[29.1591549,47.1704747],[29.1596651,47.1708617],[29.1597887,47.1709177],[29.1599861,47.1711657],[29.1600906,47.1712181],[29.1601481,47.171331],[29.1601252,47.1713353],[29.1602236,47.1714816],[29.16027,47.1715634],[29.1602882,47.171605],[29.1605329,47.1718382],[29.1606246,47.1719786],[29.1610477,47.1727433],[29.1612065,47.1730342],[29.1613456,47.1735131],[29.1614119,47.173619],[29.1614067,47.1736564],[29.1616445,47.1740913],[29.1618234,47.1740846],[29.1619825,47.1741522],[29.1620374,47.174635],[29.1621393,47.1750802],[29.1623354,47.1750524],[29.1624479,47.1753011],[29.1625213,47.1754217],[29.1625064,47.1754554],[29.1624914,47.1754637],[29.1625435,47.1755288],[29.1625922,47.1756893],[29.1625519,47.1757816],[29.1627431,47.1758139],[29.1627771,47.1758178],[29.1628005,47.1758309],[29.1629099,47.1759765],[29.162931,47.1760148],[29.1629906,47.1760407],[29.163291,47.1759444],[29.1633706,47.1759773],[29.1634961,47.1760439],[29.1635347,47.1760717],[29.1635715,47.1761115],[29.1636591,47.1762647],[29.163503,47.1764198],[29.1635378,47.1765969],[29.1636603,47.1767061],[29.1638596,47.1766855],[29.1642505,47.1762923],[29.1647553,47.1759682],[29.1651715,47.1757014],[29.1654258,47.1755112],[29.1656099,47.175584],[29.165693,47.1756918],[29.1657364,47.1757304],[29.1658048,47.1757836],[29.1660262,47.1759346],[29.1665157,47.1762254],[29.1666067,47.176276],[29.1667842,47.1763677],[29.1668249,47.1763947],[29.1669596,47.1764838],[29.1670601,47.1765322],[29.1672575,47.1766604],[29.1674152,47.1767435],[29.1675769,47.1768358],[29.1677994,47.1769756],[29.1680418,47.177112],[29.168249,47.1772294],[29.1685394,47.1774233],[29.1686931,47.1775241],[29.168777,47.1775676],[29.1692588,47.1778262],[29.1695113,47.1779511],[29.1698824,47.1781824],[29.1699068,47.1781977],[29.1700018,47.1782401],[29.1702244,47.1783519],[29.1703823,47.1785522],[29.172192,47.1798163],[29.1727802,47.1801634],[29.1731144,47.1803999],[29.1738266,47.18126],[29.171757,47.1827214],[29.1761094,47.1873449],[29.1758871,47.1875314],[29.1755984,47.1877998],[29.1752085,47.1882088],[29.1745594,47.1880292],[29.1745799,47.1880963],[29.1747285,47.1883009],[29.1752415,47.1891054],[29.1748133,47.1894386],[29.1743299,47.1896701],[29.1744148,47.1897293],[29.1745513,47.1898423],[29.1747135,47.1900952],[29.1749109,47.1905822],[29.174185,47.1907978],[29.174161,47.1908267],[29.1740586,47.1909139],[29.1741085,47.190976],[29.1741817,47.1909949],[29.1736891,47.1911967],[29.1736169,47.1911288],[29.1734467,47.1910036],[29.1733126,47.1908823],[29.1726006,47.1909093],[29.1719781,47.1910932]]]}},{"type":"Feature","properties":{"entity_id":"osm-r20701973","jurisdiction":"MD","display_name":"Molovata","display_type":"independent_village","admin_level":9,"tier":"detail","legal_registry":"CUATM","legal_id":"3838","legal_type":"independent_village","parent_catalog_id":"osm-r19090942","osm_relation_id":20701973,"legal_identity_status":"reconciled","geometry_source":"OpenStreetMap","geometry_precision":"master_coordinate_fidelity"},"geometry":{"type":"Polygon","coordinates":[[[29.1025964,47.3632851],[29.1027535,47.3630514],[29.1028187,47.3628462],[29.1012292,47.3631396],[29.1009029,47.3631337],[29.1001382,47.3629808],[29.1000349,47.362986],[29.099648,47.3631889],[29.0991588,47.3627854],[29.0986603,47.3636665],[29.0984982,47.3636225],[29.0983338,47.3635668],[29.0984378,47.3633969],[29.0985321,47.3632403],[29.0986184,47.3631065],[29.0985646,47.3630871],[29.0984973,47.3631774],[29.0983724,47.3631347],[29.0982426,47.3631066],[29.0982246,47.3630989],[29.098166,47.3629381],[29.0982029,47.3628556],[29.0982542,47.3627761],[29.0983023,47.3627017],[29.098369,47.3625611],[29.0983965,47.3624388],[29.0983944,47.3623787],[29.0983846,47.3623477],[29.0983263,47.362319],[29.098334,47.3622627],[29.0984008,47.3621525],[29.0986244,47.3620838],[29.0987097,47.3620573],[29.0987816,47.3620534],[29.0988575,47.3620593],[29.0989337,47.3620806],[29.0990301,47.3621303],[29.0991045,47.3621858],[29.0991976,47.3622061],[29.0993371,47.3622045],[29.0994806,47.3621806],[29.0996266,47.36213],[29.0997677,47.3620533],[29.0999203,47.3619473],[29.1000747,47.3618391],[29.1002247,47.3617373],[29.1003089,47.3616727],[29.1004185,47.3615954],[29.1004908,47.3615741],[29.1007195,47.3614697],[29.1007349,47.3614564],[29.10074,47.3614435],[29.1007481,47.3614258],[29.1008843,47.3613659],[29.1009258,47.3613521],[29.1009585,47.3613542],[29.1010136,47.3613466],[29.1010798,47.3613029],[29.1011517,47.3611995],[29.1012147,47.3611026],[29.1012528,47.36103],[29.1012976,47.3609837],[29.1013101,47.3609731],[29.1013318,47.3609535],[29.1013437,47.3609372],[29.1013563,47.3609383],[29.1013686,47.3609391],[29.1013819,47.3609251],[29.1014174,47.3608485],[29.1014683,47.3607681],[29.101593,47.3605961],[29.1016859,47.3604724],[29.1018016,47.3602474],[29.1019859,47.3599269],[29.102222,47.3596282],[29.1023924,47.3593665],[29.1026108,47.3590612],[29.1027334,47.3588683],[29.1028281,47.3587312],[29.1030424,47.3584976],[29.1033006,47.3581841],[29.1035541,47.3580035],[29.1036566,47.3579148],[29.1037897,47.3578347],[29.1039236,47.3577588],[29.1040665,47.357636],[29.1042064,47.3575883],[29.1042564,47.3575631],[29.1043353,47.3574754],[29.1043539,47.3574459],[29.1043726,47.3574303],[29.1044036,47.3574328],[29.1044277,47.3574372],[29.104514,47.3574419],[29.1045679,47.3574376],[29.1046044,47.3574165],[29.1046403,47.3573736],[29.1046845,47.3573516],[29.1047459,47.3573003],[29.1048459,47.3571866],[29.1048802,47.3571288],[29.1049052,47.3570357],[29.1049231,47.3569235],[29.1049349,47.3567529],[29.1049265,47.3566039],[29.104904,47.3564325],[29.1048797,47.3563016],[29.1048514,47.3562091],[29.1048037,47.3561254],[29.1047478,47.3560627],[29.1047163,47.3559886],[29.1047249,47.3559384],[29.1047631,47.3558782],[29.104826,47.3557938],[29.1049205,47.3556849],[29.1049584,47.3556189],[29.1049771,47.3555556],[29.1050002,47.3554192],[29.1050609,47.3552857],[29.1051001,47.3551957],[29.1051571,47.3550762],[29.1051784,47.3549757],[29.105252,47.3548259],[29.1053887,47.3546616],[29.1054834,47.3545225],[29.1055643,47.3543786],[29.1056258,47.3542308],[29.1056458,47.3541427],[29.1056411,47.3540538],[29.1056015,47.3539102],[29.1055458,47.3537713],[29.1054587,47.3537041],[29.10532,47.3536456],[29.105111,47.3535734],[29.1050635,47.3535595],[29.1050555,47.3535363],[29.1050704,47.3534931],[29.1050877,47.3534671],[29.1051515,47.353463],[29.1051799,47.3534719],[29.1051922,47.3534808],[29.1053163,47.3535082],[29.105505,47.3535397],[29.1056872,47.3535742],[29.1058775,47.3536084],[29.1059516,47.3536144],[29.1060314,47.353584],[29.1062411,47.3534243],[29.1063626,47.353279],[29.1065274,47.3530824],[29.1065976,47.3529773],[29.1066444,47.3529041],[29.1066655,47.3528272],[29.1067173,47.3527523],[29.1067551,47.3526938],[29.1067754,47.3526605],[29.1068505,47.3526271],[29.1069001,47.3525941],[29.1069581,47.3525131],[29.1070393,47.3524207],[29.1070984,47.3523577],[29.1071282,47.3522823],[29.1071698,47.3522428],[29.1072573,47.3521815],[29.1073561,47.3520959],[29.1073903,47.3520572],[29.107412,47.3519908],[29.1074503,47.3519097],[29.1074809,47.3518688],[29.107531,47.3518138],[29.1075528,47.3517313],[29.1075531,47.3516438],[29.1075432,47.3515219],[29.1075056,47.3513719],[29.1074717,47.3512461],[29.1074183,47.3511045],[29.1073694,47.351016],[29.1073475,47.3509893],[29.1072754,47.350964],[29.1071292,47.3509377],[29.1071151,47.3509275],[29.1071194,47.3509044],[29.1071372,47.3508675],[29.1071586,47.3508474],[29.1072064,47.3508408],[29.107278,47.3508475],[29.1074123,47.3508514],[29.1074381,47.3508482],[29.1074478,47.3508388],[29.1074656,47.3508087],[29.1075389,47.3507117],[29.1075698,47.3506538],[29.1076231,47.3505161],[29.1076058,47.3503546],[29.1075835,47.350229],[29.1075891,47.3501679],[29.1076314,47.3501264],[29.1076683,47.3500842],[29.1077006,47.3499447],[29.1076963,47.3498608],[29.1076619,47.3498122],[29.1076312,47.3497762],[29.1075993,47.3497629],[29.1075775,47.3497599],[29.1076571,47.3495409],[29.1077695,47.3492339],[29.1078625,47.3489822],[29.1080086,47.3490154],[29.108108,47.3490332],[29.1081317,47.3490288],[29.1081531,47.349014],[29.1081715,47.3489479],[29.1082276,47.3488001],[29.1082648,47.3486748],[29.1082875,47.3485569],[29.1083193,47.3484887],[29.1083542,47.3484379],[29.108385,47.348368],[29.1084064,47.3482998],[29.1084226,47.3481884],[29.1084331,47.348089],[29.1083991,47.3479741],[29.1083584,47.3478531],[29.1083239,47.3477454],[29.1083067,47.3476565],[29.1083203,47.347604],[29.1083536,47.3475588],[29.1084196,47.3475159],[29.1085011,47.3474695],[29.1086046,47.3474196],[29.1086807,47.347373],[29.1087343,47.3473092],[29.1088104,47.3472099],[29.1089491,47.3470535],[29.1091116,47.3468286],[29.1092139,47.3467489],[29.1094181,47.3466065],[29.1095206,47.3465353],[29.1095692,47.3464825],[29.1095871,47.3464256],[29.1095957,47.3463954],[29.1095987,47.3463616],[29.109631,47.3463008],[29.1096901,47.3462242],[29.1097701,47.3461501],[29.1098461,47.3460944],[29.1099397,47.346049],[29.1100072,47.3460371],[29.1101736,47.3458994],[29.1103694,47.3456992],[29.1103584,47.3456726],[29.1103887,47.3456161],[29.1104062,47.3455571],[29.1104074,47.3455088],[29.1104358,47.3454442],[29.1104966,47.3453822],[29.110603,47.3453099],[29.1106538,47.3452569],[29.1106931,47.3451747],[29.1107885,47.3449755],[29.1108878,47.3448321],[29.1110788,47.3446272],[29.111398,47.3443606],[29.1116925,47.344142],[29.1119962,47.3438643],[29.112322,47.3436014],[29.1126709,47.3433099],[29.1129509,47.3430439],[29.1130799,47.3429554],[29.1134647,47.3425792],[29.1134764,47.3424977],[29.1135882,47.3423258],[29.1135769,47.3423151],[29.1135817,47.3423018],[29.113675,47.3422198],[29.1137142,47.3421624],[29.1137257,47.3420356],[29.1137239,47.3419347],[29.1137083,47.341826],[29.1137146,47.3417513],[29.1137548,47.3416774],[29.1138078,47.3416457],[29.1138874,47.3416131],[29.113938,47.3415838],[29.1140399,47.3415066],[29.1140682,47.3414558],[29.1141017,47.3413755],[29.1141119,47.3412678],[29.1141463,47.341137],[29.1141564,47.3410072],[29.1142309,47.340859],[29.1143108,47.3407407],[29.1144148,47.3406534],[29.1145025,47.3405267],[29.1145248,47.3404689],[29.1145603,47.340439],[29.1146471,47.340408],[29.1147517,47.3403471],[29.1148236,47.3402824],[29.1148876,47.3402434],[29.1149248,47.3401854],[29.1149729,47.3400757],[29.1150295,47.3399222],[29.115084,47.3398508],[29.1152218,47.3397155],[29.1152892,47.3395953],[29.1154179,47.3394248],[29.115556,47.3392195],[29.1158809,47.3393742],[29.1165396,47.3386833],[29.1177758,47.3378875],[29.1183262,47.3382617],[29.1173108,47.3388369],[29.1178595,47.3392585],[29.1179217,47.3393065],[29.1183418,47.3396303],[29.1184044,47.3395928],[29.1184232,47.3397794],[29.1185194,47.3398578],[29.1192848,47.3393993],[29.1193765,47.3394579],[29.1194578,47.3394132],[29.1200522,47.3390861],[29.1200997,47.3390599],[29.1202198,47.3390772],[29.1206239,47.338883],[29.1208505,47.3390944],[29.1211485,47.3393569],[29.1213521,47.3395341],[29.1214647,47.3396298],[29.1215651,47.3395806],[29.1216682,47.3396614],[29.1218933,47.3395415],[29.1219454,47.3395138],[29.1223858,47.3392793],[29.123377,47.3387516],[29.1224441,47.3379352],[29.1215062,47.3371101],[29.1211403,47.3368671],[29.1210271,47.3367555],[29.1218276,47.3364005],[29.1216917,47.3362787],[29.1212203,47.3365231],[29.1212963,47.3365906],[29.1210555,47.3367143],[29.1207964,47.3364827],[29.1210752,47.3363381],[29.120995,47.3362666],[29.1211317,47.3361957],[29.121212,47.3362672],[29.1213908,47.3361745],[29.121431,47.3362102],[29.121594,47.3361257],[29.1216306,47.3361582],[29.1218349,47.3360516],[29.1207699,47.3350873],[29.1204954,47.3348621],[29.1222918,47.3334342],[29.1253099,47.3318646],[29.1296388,47.3357003],[29.1282729,47.3364322],[29.1272971,47.336955],[29.1271637,47.3370232],[29.1244247,47.3384224],[29.1242568,47.3384761],[29.1241759,47.338486],[29.1238717,47.3386322],[29.1228977,47.3391337],[29.1223571,47.3394292],[29.1223893,47.3394974],[29.1224479,47.3395778],[29.1226432,47.3397745],[29.1228341,47.3399305],[29.123031,47.3398184],[29.1246604,47.3413605],[29.1247869,47.3415926],[29.1253979,47.341236],[29.1262077,47.3414832],[29.1262437,47.3415431],[29.1262468,47.3416121],[29.1260992,47.3419007],[29.1261256,47.3420223],[29.1261886,47.3421515],[29.1261981,47.3422169],[29.1262087,47.342289],[29.1262206,47.3424135],[29.1262083,47.3424879],[29.1261671,47.3426638],[29.1261531,47.3426927],[29.1260611,47.3428827],[29.1259598,47.3432525],[29.1259383,47.3433312],[29.1259024,47.3434353],[29.1258536,47.3435511],[29.1258061,47.3436572],[29.1257762,47.343724],[29.125731,47.3438276],[29.1257126,47.3438819],[29.1256885,47.3439531],[29.125637,47.3441047],[29.1256256,47.3441385],[29.1256142,47.3441719],[29.1255918,47.3442381],[29.125578,47.3442787],[29.1255405,47.3443893],[29.1254299,47.3447825],[29.1254228,47.3448833],[29.1254126,47.3450286],[29.1254098,47.3450683],[29.1254094,47.3450695],[29.1253807,47.3451578],[29.1253563,47.3452327],[29.12534,47.3452825],[29.1253332,47.3453021],[29.125325,47.3453192],[29.1253142,47.3453436],[29.1252814,47.3454168],[29.125265,47.3454535],[29.1252486,47.3454902],[29.1252322,47.3455268],[29.1251939,47.3456123],[29.1251558,47.3456976],[29.1251178,47.3457823],[29.125096,47.3458285],[29.1250717,47.3458784],[29.1250541,47.3459146],[29.1250246,47.3459754],[29.1249772,47.3460727],[29.1249478,47.3461332],[29.124901,47.3462296],[29.1247305,47.3465801],[29.1245907,47.3468678],[29.1245545,47.346858],[29.1234964,47.3465702],[29.1230452,47.3464448],[29.1229488,47.3464148],[29.1222156,47.3462123],[29.1220791,47.3463443],[29.1216622,47.3468519],[29.1210275,47.3478796],[29.1204947,47.3488074],[29.1201008,47.3494639],[29.1200648,47.3495508],[29.119982,47.3498511],[29.1199585,47.350099],[29.1198845,47.3503613],[29.1198499,47.3504102],[29.1198048,47.3504741],[29.1197433,47.3505611],[29.1197224,47.3505814],[29.1196963,47.3506067],[29.1196241,47.3506766],[29.1195946,47.3507052],[29.1195771,47.3507428],[29.1195737,47.3507468],[29.1195407,47.350785],[29.1194337,47.3509088],[29.1193551,47.3509999],[29.1193173,47.3510436],[29.1192954,47.351069],[29.1192679,47.3511008],[29.1192349,47.3511389],[29.119213,47.3511644],[29.1191698,47.3512143],[29.1191478,47.3512398],[29.1191101,47.3512835],[29.1184899,47.3523022],[29.1176301,47.353722],[29.1175559,47.3538516],[29.1170333,47.3547388],[29.1170562,47.3547623],[29.1170677,47.3548424],[29.1168279,47.3548302],[29.1163728,47.3547829],[29.1163459,47.3549548],[29.1162644,47.3554755],[29.1161795,47.3560718],[29.1160673,47.3568204],[29.1155673,47.3601475],[29.115418,47.3609056],[29.1152654,47.3613896],[29.1145149,47.3632691],[29.1144696,47.3632616],[29.1141412,47.3632076],[29.1133015,47.3630747],[29.1131992,47.3631046],[29.112645,47.3631538],[29.1123728,47.3632684],[29.1119486,47.3633634],[29.1118652,47.363373],[29.1116109,47.3633849],[29.1115865,47.3632103],[29.1115132,47.363216],[29.1114916,47.3631171],[29.1114756,47.3630385],[29.1114667,47.3629946],[29.1114046,47.3629995],[29.1112978,47.3633826],[29.1109266,47.3634065],[29.1107705,47.3630988],[29.1107611,47.3630501],[29.1107544,47.3630155],[29.1107399,47.3629398],[29.11073,47.3628883],[29.1107254,47.3628643],[29.1107153,47.362812],[29.1107035,47.3627565],[29.1107018,47.3627397],[29.1106982,47.3627054],[29.1106964,47.3626883],[29.1106946,47.3626711],[29.1106904,47.3626302],[29.1106861,47.3625893],[29.1106808,47.3625383],[29.1106765,47.3624975],[29.1106712,47.3624466],[29.1106642,47.3623787],[29.1106525,47.362267],[29.1106493,47.362236],[29.1106451,47.3621956],[29.1106398,47.3621452],[29.1106346,47.3620949],[29.1106293,47.3620444],[29.1106259,47.362011],[29.1106224,47.3619776],[29.1106189,47.3619443],[29.1106154,47.361911],[29.1106092,47.3618511],[29.1106049,47.36181],[29.1106294,47.3617687],[29.1106729,47.3617232],[29.1107267,47.3616669],[29.1107921,47.3615985],[29.1108398,47.3615485],[29.110889,47.3614971],[29.1109624,47.3614211],[29.1109948,47.3613876],[29.1110297,47.3613515],[29.1110432,47.3613376],[29.1110778,47.3613138],[29.111134,47.3612753],[29.1111759,47.3612466],[29.1121249,47.360596],[29.1123017,47.3604761],[29.1123909,47.3603628],[29.1124588,47.3602765],[29.112456,47.3602247],[29.1124515,47.3601429],[29.1124486,47.3600894],[29.1124452,47.3600268],[29.1124419,47.3599674],[29.112294,47.3599667],[29.1122057,47.3599992],[29.1121055,47.3600246],[29.1118783,47.360205],[29.1117777,47.360285],[29.1116725,47.360391],[29.1114692,47.3605121],[29.1113039,47.3606299],[29.111031,47.360784],[29.1109951,47.3608055],[29.1109654,47.3608233],[29.1108346,47.3609018],[29.110364,47.3612983],[29.1102883,47.3613589],[29.1101414,47.3614764],[29.1099851,47.3616014],[29.1097477,47.3617912],[29.1094253,47.3612343],[29.1091929,47.3608323],[29.1090657,47.3609099],[29.1090069,47.3609336],[29.108775,47.3611749],[29.1084044,47.361395],[29.1081907,47.3614808],[29.1078115,47.3615467],[29.1076582,47.3615967],[29.1070097,47.3615331],[29.106649,47.3613439],[29.1060222,47.3616472],[29.1059264,47.3617158],[29.1054435,47.361859],[29.1049028,47.3619055],[29.1051024,47.3622028],[29.1052168,47.3624277],[29.1054091,47.3628256],[29.1054563,47.3630572],[29.1054814,47.3632921],[29.105586,47.3632946],[29.1056214,47.363165],[29.1056666,47.3627262],[29.1057105,47.3626049],[29.1058355,47.3625027],[29.106037,47.3624668],[29.1062304,47.3625023],[29.1064215,47.3625748],[29.1067478,47.3628442],[29.1063036,47.3634782],[29.1062089,47.3640372],[29.106192,47.3645462],[29.106134,47.3645534],[29.1059305,47.3645784],[29.1059247,47.3645791],[29.1058208,47.3645918],[29.1056659,47.3646108],[29.1055689,47.3646231],[29.1054395,47.3646394],[29.1051941,47.3646502],[29.1051669,47.3646514],[29.1051348,47.3646528],[29.1048168,47.3646478],[29.104627,47.3646448],[29.1047019,47.3645991],[29.1050192,47.3641888],[29.1049483,47.364168],[29.1048945,47.3641531],[29.1047356,47.364109],[29.1046472,47.364089],[29.1045702,47.3640716],[29.1044335,47.3640514],[29.1042796,47.3640287],[29.1040612,47.364008],[29.1040159,47.3640037],[29.1037617,47.3639945],[29.1036625,47.3639909],[29.1035132,47.3639834],[29.1032626,47.3639691],[29.1031282,47.3639615],[29.1029409,47.3639361],[29.102768,47.363895],[29.1025729,47.3638289],[29.102334,47.3637273],[29.1022297,47.3636825],[29.1023874,47.3634862],[29.1025964,47.3632851]]]}}]}