{"type":"FeatureCollection","metadata":{"schema_version":1,"contract":"actual-public-geometry-chunk-v1","mode":"ACTUAL","jurisdiction":"MD","tier":"detail","root_entity_id":"osm-r58983","feature_count":4,"geometry_source":"OpenStreetMap","geometry_precision":"master_coordinate_fidelity"},"features":[{"type":"Feature","properties":{"entity_id":"osm-r18967193","jurisdiction":"MD","display_name":"Elizaveta","display_type":"independent_village","admin_level":9,"tier":"detail","legal_registry":"CUATM","legal_id":"0301","legal_type":"independent_village","parent_catalog_id":"osm-r10628644","osm_relation_id":18967193,"legal_identity_status":"reconciled","geometry_source":"OpenStreetMap","canonical_geometry_role":null,"geometry_scope":null,"geometry_precision":"master_coordinate_fidelity"},"geometry":{"type":"Polygon","coordinates":[[[27.9908499,47.7891342],[27.9909916,47.7883734],[27.9909921,47.7880344],[27.9909223,47.7877426],[27.9907419,47.7869581],[27.9906076,47.7866585],[27.9905555,47.7862525],[27.9905396,47.7860393],[27.9904988,47.7853656],[27.9926674,47.7857796],[27.9934198,47.7859492],[27.9944833,47.7862238],[27.9946643,47.786252],[27.995897,47.7865967],[27.9977846,47.787046],[27.9987495,47.7875358],[28.0000512,47.7879737],[28.0009432,47.7881599],[28.001602,47.7883097],[28.0022323,47.7885283],[28.0024276,47.7882692],[28.0026344,47.7883568],[28.003364,47.7887049],[28.0044986,47.7892499],[28.0045884,47.7891605],[28.0046558,47.7890935],[28.0046708,47.7890786],[28.0047157,47.7890339],[28.0048654,47.7888849],[28.005105,47.7886465],[28.0052023,47.7885497],[28.0055074,47.7882461],[28.0056019,47.7881562],[28.0057948,47.7879728],[28.0059858,47.7877912],[28.0061288,47.7877245],[28.005827,47.7874766],[28.0059617,47.7873545],[28.0059844,47.7873306],[28.0062008,47.7871029],[28.0066216,47.7872715],[28.0068631,47.7870677],[28.0069893,47.7869612],[28.007044,47.786915],[28.007105,47.7868635],[28.0071368,47.786837],[28.0071665,47.7868123],[28.0072259,47.7867628],[28.0072641,47.7867309],[28.007298,47.7867026],[28.0073574,47.7866531],[28.0074253,47.7865965],[28.0076034,47.786448],[28.0087116,47.7854569],[28.0092719,47.784964],[28.0094345,47.7849144],[28.0096155,47.7848541],[28.0097778,47.7848001],[28.009859,47.7847731],[28.0099942,47.7847281],[28.0100348,47.7847146],[28.0104271,47.784584],[28.0109004,47.7844264],[28.0112786,47.7843006],[28.0111601,47.7840773],[28.010918,47.7838633],[28.0105812,47.783697],[28.0105079,47.7836186],[28.0107471,47.7834005],[28.0108169,47.7833353],[28.0111201,47.7830523],[28.0109839,47.7829892],[28.0109768,47.7829953],[28.0108421,47.7829334],[28.0108469,47.7829277],[28.0106791,47.7828529],[28.0096503,47.7823918],[28.0095841,47.7823642],[28.0093467,47.7825717],[28.0091756,47.7827484],[28.0090466,47.7828817],[28.0090137,47.7828918],[28.0085085,47.7825715],[28.0084181,47.7824795],[28.0079314,47.7821694],[28.0071404,47.7816585],[28.0067066,47.7814647],[28.0062394,47.781256],[28.0061392,47.7811755],[28.0057893,47.7813761],[28.0055636,47.78133],[28.0053334,47.7812829],[28.005111,47.7812374],[28.0049294,47.7812002],[28.0047271,47.7811588],[28.0045226,47.781117],[28.0043087,47.7810733],[28.0040853,47.7810276],[28.0041164,47.7807679],[28.0040103,47.7807593],[28.0035012,47.7808731],[28.0034252,47.7809548],[28.0029125,47.7810634],[28.0024873,47.7811534],[28.0020402,47.7812633],[28.0021972,47.7808057],[28.002003,47.780814],[28.0019027,47.7811984],[28.0017218,47.7811847],[28.0013739,47.7811878],[28.0011231,47.7811986],[28.0008531,47.7812102],[28.0005831,47.7812218],[28.0003822,47.7812093],[27.9999802,47.7813447],[27.9992756,47.7814126],[27.9994928,47.7804271],[27.9994937,47.7803479],[28.0001687,47.7803826],[28.0022168,47.7804321],[28.0029277,47.7803717],[28.0036783,47.7802382],[28.0038778,47.7799042],[28.0038831,47.7798937],[28.0039811,47.7797265],[28.0040751,47.7795662],[28.0041676,47.7794083],[28.0042599,47.7792524],[28.0043178,47.7790959],[28.0043218,47.7790746],[28.0045088,47.7791037],[28.0046651,47.779128],[28.0050557,47.7791889],[28.0052461,47.7792057],[28.0055555,47.7792595],[28.0056727,47.7792798],[28.005907,47.7793205],[28.0061248,47.7793583],[28.0065805,47.7794375],[28.0067731,47.7794709],[28.0070343,47.7795198],[28.007422,47.7795925],[28.0074904,47.7795996],[28.0077782,47.779619],[28.0080153,47.779635],[28.0081785,47.7796678],[28.0085836,47.7797492],[28.0088432,47.7798009],[28.0090589,47.7795183],[28.0094274,47.7791062],[28.0102306,47.7782349],[28.0108168,47.7776475],[28.0115729,47.7769221],[28.0113974,47.7768277],[28.0109448,47.7765951],[28.0105194,47.7764688],[28.0106353,47.7763498],[28.0110239,47.77598],[28.0111979,47.7758145],[28.0114293,47.7755943],[28.0111494,47.7752071],[28.0110895,47.7751241],[28.0110362,47.7750503],[28.0109162,47.7748844],[28.0108296,47.7747645],[28.0107417,47.7746429],[28.0108275,47.7746094],[28.0110389,47.7744629],[28.0110788,47.7744518],[28.0113153,47.7744547],[28.0113874,47.774473],[28.0113654,47.7744999],[28.0116179,47.7747682],[28.0115901,47.7747851],[28.0117914,47.7750135],[28.011999,47.7752048],[28.012284,47.7753276],[28.012594,47.7754724],[28.0127045,47.7755305],[28.0126224,47.7755975],[28.0130673,47.7757276],[28.0136175,47.7759562],[28.0139628,47.7761217],[28.0141441,47.7762794],[28.0144307,47.7765908],[28.0145186,47.7764816],[28.0145953,47.7764848],[28.0148988,47.7765893],[28.0151348,47.7766773],[28.0151836,47.7766141],[28.0154799,47.7766756],[28.0158105,47.7767574],[28.0158249,47.7767408],[28.0162655,47.7768672],[28.0165301,47.7769051],[28.016799,47.776965],[28.0167974,47.7769766],[28.0173463,47.7771],[28.017391,47.7771187],[28.0176895,47.7771288],[28.0182759,47.7771877],[28.0183407,47.7771977],[28.0185313,47.777226],[28.0187833,47.7772687],[28.0192939,47.7774068],[28.0193424,47.7774891],[28.0193143,47.777561],[28.019184,47.7778943],[28.0195778,47.7779997],[28.0195293,47.7781907],[28.0200216,47.7783552],[28.0203063,47.7784793],[28.0207761,47.7786779],[28.0207423,47.7787187],[28.0208188,47.7787241],[28.0209079,47.7787544],[28.0211962,47.7788786],[28.0213214,47.7789364],[28.0215701,47.7790432],[28.0217586,47.7791823],[28.0218003,47.7792035],[28.0217985,47.7792384],[28.0221494,47.7793407],[28.0224543,47.7793922],[28.0225613,47.7794211],[28.0226536,47.7792917],[28.0226491,47.7792866],[28.0228638,47.7792276],[28.0228615,47.7792218],[28.0232993,47.7791323],[28.0235625,47.77908],[28.0235752,47.7790703],[28.0238265,47.7790065],[28.0238909,47.7790437],[28.0240871,47.7789698],[28.0244699,47.7788331],[28.0244158,47.7787681],[28.0247212,47.7786563],[28.0247294,47.7786266],[28.0247545,47.7786054],[28.0248131,47.7785831],[28.0248547,47.7785606],[28.025209,47.7785422],[28.0252795,47.7785171],[28.0255744,47.7784501],[28.0255814,47.7784466],[28.0256811,47.7784129],[28.0259759,47.7781654],[28.0264747,47.7777351],[28.0268132,47.7774638],[28.026877,47.7774355],[28.0269504,47.777411],[28.0271715,47.7773064],[28.0273224,47.7773592],[28.027435,47.7773868],[28.0276098,47.7774596],[28.0278012,47.7775334],[28.0282779,47.7777398],[28.0285003,47.7778422],[28.0286693,47.7781235],[28.0287336,47.778468],[28.0287338,47.7787489],[28.0286224,47.7789972],[28.0282824,47.7794349],[28.027837,47.7800026],[28.028375,47.780921],[28.0284861,47.7811654],[28.0284392,47.7812285],[28.0283337,47.7812601],[28.0279355,47.7813666],[28.0280816,47.7817056],[28.0301431,47.7814725],[28.0309978,47.7817838],[28.0319287,47.7821265],[28.0326019,47.7823983],[28.0323615,47.7828951],[28.0321387,47.7833091],[28.0320272,47.7836402],[28.0319568,47.7838531],[28.0318512,47.7839951],[28.0316813,47.7841173],[28.0314119,47.7842199],[28.0310897,47.7842988],[28.0312009,47.7844249],[28.0310777,47.7846615],[28.0309664,47.7847679],[28.0306902,47.7850252],[28.0304538,47.7852179],[28.0304347,47.7852502],[28.0304399,47.7853126],[28.0309883,47.7855592],[28.0314005,47.7857439],[28.0318514,47.7859532],[28.0317941,47.7860083],[28.0317139,47.7860854],[28.031535,47.7862576],[28.0314511,47.7863383],[28.0313677,47.7864186],[28.0312307,47.7865503],[28.0309121,47.7868568],[28.0308826,47.7868859],[28.0308184,47.786949],[28.030708,47.7870578],[28.0304494,47.7873123],[28.0303019,47.7874576],[28.0302954,47.7874735],[28.0301796,47.7875749],[28.0300806,47.7875367],[28.0298097,47.7874365],[28.0295955,47.7873572],[28.0294657,47.7873092],[28.028952,47.7878054],[28.0287412,47.7877305],[28.0285222,47.7876454],[28.0283758,47.7875868],[28.0282965,47.7875551],[28.028213,47.7875248],[28.0281188,47.7874906],[28.0280718,47.7874736],[28.0280576,47.7874684],[28.0279651,47.7874359],[28.0278156,47.7873834],[28.0278004,47.787376],[28.0276048,47.7872815],[28.0273658,47.787196],[28.0271857,47.7871313],[28.0271333,47.7871111],[28.0270411,47.7872035],[28.0267823,47.7871068],[28.0268564,47.787012],[28.0267978,47.7869904],[28.0266162,47.7869233],[28.0265811,47.7869103],[28.0265713,47.7869067],[28.0260104,47.7867124],[28.0255594,47.786677],[28.0253135,47.7866179],[28.0248567,47.7866141],[28.024599,47.7866417],[28.0243354,47.7867206],[28.0228074,47.7860468],[28.0208038,47.7867921],[28.020574,47.7868456],[28.0199977,47.7865083],[28.0193426,47.786125],[28.0190945,47.7860523],[28.0181102,47.7874405],[28.0176864,47.7872698],[28.0190349,47.7858538],[28.0189179,47.7857852],[28.0187907,47.7857106],[28.01875,47.7856867],[28.0186992,47.7856569],[28.0186687,47.7856389],[28.0185211,47.7855524],[28.018338,47.785445],[28.0181396,47.7853286],[28.0180792,47.7852931],[28.0179733,47.785231],[28.0179076,47.7851925],[28.017837,47.785151],[28.0177209,47.7850829],[28.0175392,47.7849763],[28.017495,47.7849504],[28.0173677,47.7848757],[28.0172163,47.7847868],[28.0165233,47.7843803],[28.016371,47.7844193],[28.0161267,47.7845063],[28.0160564,47.78453],[28.0159451,47.7845576],[28.0157343,47.7845773],[28.0156464,47.7846562],[28.0156272,47.7848072],[28.0155875,47.7849045],[28.0154761,47.7850346],[28.0152652,47.7851568],[28.0151655,47.7853185],[28.0150599,47.7854959],[28.014939,47.7855669],[28.0142367,47.7852832],[28.0140409,47.7854484],[28.0139902,47.7854911],[28.0138536,47.7856181],[28.0136273,47.7858283],[28.0135805,47.7858718],[28.0135347,47.7859144],[28.0132519,47.7861771],[28.013196,47.786229],[28.0131479,47.7862741],[28.0130474,47.7863681],[28.0128699,47.7865344],[28.0127984,47.7866014],[28.0127008,47.7866928],[28.0126059,47.7867817],[28.012462,47.7869165],[28.0124109,47.7869644],[28.0122864,47.7870809],[28.0126979,47.7872109],[28.012626,47.787293],[28.0124364,47.7875],[28.0124178,47.7874916],[28.0122662,47.7876459],[28.0122571,47.7876556],[28.0121219,47.7877965],[28.0120596,47.7878527],[28.0119691,47.7879342],[28.0119487,47.787955],[28.0118589,47.7880462],[28.0118201,47.7880857],[28.0117048,47.7881923],[28.011647,47.7882459],[28.0116286,47.7882661],[28.01151,47.7883964],[28.0114125,47.7884884],[28.0113427,47.7885552],[28.0112848,47.7886198],[28.0111998,47.7887073],[28.011273,47.7887361],[28.0112384,47.7887712],[28.0111242,47.7888875],[28.011035,47.7889658],[28.0110783,47.7890218],[28.011063,47.789045],[28.0109824,47.7891289],[28.0125783,47.7898625],[28.0126833,47.7898994],[28.0126128,47.7901083],[28.0124189,47.7907115],[28.0122015,47.7913816],[28.0120253,47.7917838],[28.011949,47.7919533],[28.0118491,47.7922095],[28.0116553,47.7926944],[28.011579,47.7928403],[28.0114793,47.7929822],[28.0112389,47.7932463],[28.0110277,47.7934789],[28.0108928,47.793676],[28.0098152,47.7935105],[28.0079764,47.7931913],[28.0055169,47.7927656],[28.0034146,47.7923635],[28.0028701,47.7922058],[28.0017107,47.7920087],[28.0008264,47.7918707],[27.9999773,47.7917366],[27.999263,47.7915356],[27.9984843,47.7913503],[27.9966635,47.7908101],[27.9949305,47.7903014],[27.9930395,47.7897691],[27.9908499,47.7891342]]]}},{"type":"Feature","properties":{"entity_id":"osm-r18967626","jurisdiction":"MD","display_name":"Bălți","display_type":"level_2_municipality","admin_level":9,"tier":"detail","legal_registry":"CUATM","legal_id":"0300","legal_type":"level_2_municipality","parent_catalog_id":"osm-r12207955","osm_relation_id":18967626,"legal_identity_status":"reconciled","geometry_source":"OpenStreetMap","canonical_geometry_role":null,"geometry_scope":null,"geometry_precision":"master_coordinate_fidelity"},"geometry":{"type":"Polygon","coordinates":[[[27.8492991,47.7310512],[27.8495505,47.7311456],[27.8501687,47.7304959],[27.8511889,47.7299217],[27.8521797,47.7298433],[27.8524531,47.7298986],[27.8534422,47.7301469],[27.8575579,47.7314251],[27.8580364,47.7315864],[27.8638192,47.733599],[27.8656807,47.7342329],[27.8672601,47.7347428],[27.8676441,47.7347462],[27.8679105,47.7348086],[27.8687137,47.7336939],[27.8676729,47.7333368],[27.866113,47.7329964],[27.8656333,47.7329204],[27.8647602,47.7325961],[27.8650461,47.7321901],[27.8654155,47.7320534],[27.8653038,47.7315756],[27.8689318,47.7304481],[27.8723319,47.730437],[27.8730675,47.7306141],[27.8739581,47.7304812],[27.875772,47.7305139],[27.8780674,47.7286947],[27.8796377,47.72928],[27.8891813,47.7341738],[27.8916177,47.7358833],[27.8921158,47.7355128],[27.8926611,47.7352624],[27.8946379,47.7338818],[27.8956781,47.7334567],[27.8954023,47.733149],[27.8980361,47.731266],[27.8990735,47.7305353],[27.8999637,47.7301082],[27.9035266,47.7342128],[27.9037948,47.7346451],[27.9038972,47.7349784],[27.9042449,47.7350403],[27.9048328,47.7349257],[27.9059194,47.7352478],[27.9075023,47.7357355],[27.9081801,47.7356477],[27.9103938,47.7360392],[27.914041,47.7365482],[27.9202115,47.7376007],[27.9235072,47.7380507],[27.9309891,47.7392383],[27.9348735,47.7397693],[27.9379027,47.7403954],[27.9385046,47.7404112],[27.9390686,47.7404705],[27.9398024,47.7405596],[27.9413444,47.7409292],[27.9424597,47.7396609],[27.9445696,47.7376894],[27.945344,47.7378997],[27.9491207,47.7399647],[27.950905,47.7408966],[27.9516523,47.7412294],[27.9519572,47.7414233],[27.9535531,47.742438],[27.9544338,47.7430812],[27.9560059,47.7420045],[27.9565049,47.7422566],[27.9547129,47.7435598],[27.9555192,47.7451346],[27.9573388,47.7483336],[27.9589504,47.7512344],[27.9597954,47.752775],[27.9602242,47.7536418],[27.9602983,47.7538564],[27.9605305,47.7545978],[27.9598202,47.7552091],[27.959139,47.7558449],[27.9596319,47.7562172],[27.9588968,47.7567597],[27.9596381,47.7576689],[27.9625119,47.7567026],[27.9622442,47.7573403],[27.9620578,47.758221],[27.9600557,47.7581811],[27.9607686,47.7590253],[27.9513912,47.7653449],[27.9518274,47.7654925],[27.9531121,47.7646106],[27.9551307,47.7653149],[27.9556988,47.7653554],[27.9583875,47.765647],[27.9632065,47.7661447],[27.9659697,47.7668211],[27.9654829,47.7676405],[27.9657915,47.7677409],[27.9663561,47.7678069],[27.9666667,47.767822],[27.9671017,47.7678217],[27.9671761,47.7678245],[27.9671636,47.7683564],[27.9688958,47.767981],[27.9700738,47.7677257],[27.9702641,47.767592],[27.9713942,47.7676656],[27.9702777,47.7684479],[27.9691102,47.769633],[27.9685054,47.7707567],[27.9661739,47.7746308],[27.9621319,47.7813457],[27.9612555,47.7813065],[27.9633426,47.7817595],[27.965594,47.7822409],[27.9717999,47.7835951],[27.9736247,47.7840803],[27.9785622,47.7855316],[27.9804161,47.7860624],[27.9815123,47.7863839],[27.9835402,47.7869736],[27.9833451,47.7871791],[27.9831993,47.7873353],[27.9821517,47.7884577],[27.9812884,47.7881951],[27.9799205,47.7876941],[27.9778788,47.7870001],[27.9771776,47.7867927],[27.9768469,47.7870452],[27.9751771,47.7864843],[27.9731988,47.7858662],[27.9735088,47.7855367],[27.9703422,47.7845639],[27.9676226,47.7839662],[27.9661605,47.7837291],[27.9660058,47.7836579],[27.9656964,47.783623],[27.9654237,47.7836205],[27.9645694,47.7837962],[27.9632546,47.7844546],[27.9628046,47.7849427],[27.9617363,47.7860428],[27.9605406,47.7860426],[27.9565465,47.7859699],[27.9514854,47.7858422],[27.9514595,47.7867759],[27.9513509,47.7873504],[27.9501171,47.7873552],[27.9500992,47.7879509],[27.9457497,47.7879042],[27.9442501,47.7881334],[27.9435499,47.7881571],[27.9429292,47.788084],[27.9434636,47.7889143],[27.9436557,47.7893426],[27.9442492,47.7895206],[27.9443946,47.7901653],[27.9441713,47.790792],[27.9435749,47.7912695],[27.9432221,47.7915894],[27.9405207,47.7922722],[27.9396359,47.7925214],[27.9365169,47.7932892],[27.933892,47.7940222],[27.9332934,47.7940981],[27.9323001,47.794292],[27.9299296,47.7949204],[27.9250594,47.7961789],[27.9241772,47.7961009],[27.9228776,47.7967417],[27.9227354,47.7968118],[27.9218528,47.7971145],[27.9213724,47.7968715],[27.9198826,47.7975147],[27.9190197,47.7971253],[27.9180559,47.7977922],[27.9174297,47.7982893],[27.9162823,47.7990435],[27.9155401,47.7992408],[27.9126466,47.7998781],[27.9112563,47.8001919],[27.9106356,47.8004347],[27.9102452,47.8005462],[27.9098873,47.8006286],[27.9096244,47.8006525],[27.9090489,47.8006051],[27.9082163,47.8003872],[27.9067155,47.7999031],[27.9010819,47.7984606],[27.9004598,47.7982578],[27.9003621,47.7982073],[27.9000168,47.7980291],[27.899838,47.7978514],[27.8994537,47.7974802],[27.8992259,47.7973477],[27.8991083,47.7971161],[27.8990538,47.7970089],[27.8988074,47.7967835],[27.8986374,47.7965746],[27.8980293,47.7960215],[27.8979523,47.7959051],[27.8978026,47.7956787],[27.8975424,47.7954451],[27.8964795,47.7944305],[27.8954921,47.7938],[27.8942118,47.7929757],[27.8936643,47.7926205],[27.893142,47.7922908],[27.8929013,47.792137],[27.8928612,47.7921395],[27.8924651,47.7918952],[27.8884444,47.789385],[27.8882225,47.7892001],[27.8866719,47.7882415],[27.8866589,47.7877395],[27.8866358,47.7873166],[27.8866499,47.7870715],[27.8866009,47.7869011],[27.8864239,47.7866887],[27.8865848,47.7864525],[27.8859894,47.7861338],[27.8865496,47.7856377],[27.8875798,47.7843436],[27.8881246,47.7837362],[27.8881982,47.7836466],[27.8887787,47.7830288],[27.8881235,47.7827226],[27.8879435,47.7826324],[27.8869355,47.7821638],[27.8861964,47.7818251],[27.8853232,47.782309],[27.8850668,47.7820946],[27.884879,47.7818908],[27.8845716,47.7815339],[27.8843684,47.7812734],[27.8843261,47.7811447],[27.8843636,47.7811235],[27.8842428,47.7809506],[27.8843596,47.780892],[27.8843196,47.7807518],[27.8842684,47.7807729],[27.8841343,47.7806506],[27.8840696,47.7805315],[27.8841219,47.7805102],[27.8840957,47.7804806],[27.8839495,47.7802944],[27.884263,47.7801446],[27.8842806,47.7800744],[27.8838114,47.7796732],[27.8834123,47.7792276],[27.8828495,47.7785948],[27.8831793,47.7784049],[27.8844132,47.7775789],[27.885828,47.7766061],[27.8870847,47.775774],[27.8872595,47.7756547],[27.8881033,47.7749179],[27.8887549,47.7743143],[27.889892,47.7732978],[27.891737,47.7716086],[27.8923001,47.7711273],[27.893914,47.7696855],[27.8939737,47.7696308],[27.8943251,47.7698506],[27.8949999,47.7694605],[27.8944464,47.7690624],[27.8944165,47.7690816],[27.8943484,47.7690333],[27.8943777,47.7690142],[27.8942726,47.7689347],[27.8943127,47.7689105],[27.894195,47.768821],[27.8940795,47.7687388],[27.8941829,47.7686716],[27.8941495,47.7686466],[27.8942383,47.7685922],[27.8941949,47.76856],[27.8945373,47.7683321],[27.8944362,47.76824],[27.893058,47.7672545],[27.8928991,47.767121],[27.8918104,47.7663252],[27.8915488,47.7661382],[27.8912576,47.7662472],[27.8905635,47.7664688],[27.8905177,47.766473],[27.8885065,47.7671104],[27.8883046,47.7669278],[27.8876849,47.766341],[27.8869546,47.765757],[27.8868688,47.7656909],[27.8871536,47.7653723],[27.8872074,47.765154],[27.8872419,47.7649263],[27.8873503,47.7648166],[27.8876963,47.7645849],[27.8884646,47.7640183],[27.8883999,47.7638778],[27.887886,47.7634907],[27.8850623,47.7613505],[27.8842269,47.7607516],[27.8790326,47.7570834],[27.8786235,47.7574571],[27.8785111,47.7575277],[27.8781573,47.7577797],[27.8780766,47.7578546],[27.8778815,47.7580719],[27.8768018,47.7591652],[27.8756814,47.7586248],[27.8768705,47.7575563],[27.877387,47.7571663],[27.8747824,47.7556312],[27.8747371,47.7554174],[27.874672,47.755406],[27.8699867,47.7552189],[27.8678236,47.7551236],[27.8653245,47.755025],[27.8644671,47.7549906],[27.8635212,47.7549515],[27.8629709,47.755016],[27.8621564,47.755217],[27.8618479,47.7552447],[27.8613225,47.755386],[27.8608081,47.755633],[27.8596133,47.7564094],[27.858396,47.757391],[27.8574386,47.7580328],[27.8564287,47.7584355],[27.8547215,47.7593217],[27.8528697,47.7594621],[27.8523905,47.7598035],[27.8517744,47.7603966],[27.8511706,47.7608947],[27.8504311,47.7613546],[27.8495098,47.7620624],[27.8488697,47.762496],[27.8486011,47.7626548],[27.8475448,47.7635622],[27.8472,47.7640387],[27.8469511,47.7644882],[27.8452378,47.7632447],[27.8458027,47.7624781],[27.8461715,47.7615787],[27.8463215,47.7613025],[27.8466836,47.7604405],[27.8471296,47.7600362],[27.8477178,47.7593604],[27.8478439,47.7589349],[27.8477602,47.7586875],[27.8475211,47.7584703],[27.8470252,47.7582218],[27.8464891,47.7581975],[27.8455961,47.7583722],[27.8439892,47.7585902],[27.8414389,47.7588067],[27.8383523,47.7599835],[27.8375389,47.7592212],[27.8375422,47.757978],[27.8383511,47.7575251],[27.8456067,47.7557709],[27.8496786,47.7546512],[27.8495982,47.754352],[27.8495105,47.7539801],[27.8500059,47.7538765],[27.851099,47.7534064],[27.8515792,47.7531475],[27.8520456,47.752796],[27.8565181,47.7489041],[27.8574182,47.748239],[27.8580331,47.7478074],[27.858805,47.7473756],[27.8597099,47.7469387],[27.8624484,47.7458114],[27.8663981,47.744176],[27.8671368,47.7439254],[27.86919,47.7434886],[27.8698568,47.7432449],[27.871231,47.7425407],[27.8698638,47.7419756],[27.8686625,47.741298],[27.8676919,47.7408661],[27.8666009,47.7402392],[27.8663858,47.7402231],[27.8654046,47.7398176],[27.8650296,47.7396867],[27.8644375,47.7394483],[27.8644428,47.7393889],[27.8645626,47.7391751],[27.8645014,47.7390724],[27.864254,47.7389962],[27.8639329,47.7389087],[27.8635257,47.7388586],[27.8632094,47.7388148],[27.862226,47.7384337],[27.8616897,47.7382674],[27.8603409,47.7379292],[27.8597769,47.7378119],[27.8590034,47.7376074],[27.8565773,47.7369729],[27.8525225,47.7358902],[27.8524767,47.7357995],[27.8525833,47.7356154],[27.8515741,47.735397],[27.8504392,47.7351237],[27.8497013,47.7349674],[27.8492191,47.734877],[27.8487118,47.7347643],[27.8477813,47.7345571],[27.8469713,47.7343727],[27.8455957,47.7338479],[27.8447831,47.733553],[27.8449919,47.7331924],[27.8454057,47.7324805],[27.8464884,47.7327926],[27.8467032,47.7326287],[27.8468118,47.7326645],[27.847566,47.7324662],[27.8480008,47.7323005],[27.8485811,47.7319999],[27.8491966,47.7314117],[27.8491215,47.7313879],[27.8492991,47.7310512]]]}},{"type":"Feature","properties":{"entity_id":"osm-r18967705","jurisdiction":"MD","display_name":"întovărășirea pomicolă La Odaie","display_type":"non_administrative_or_auxiliary_area","admin_level":9,"tier":"detail","legal_registry":null,"legal_id":null,"legal_type":null,"parent_catalog_id":"osm-r10628645","osm_relation_id":18967705,"legal_identity_status":"outside_current_legal_registry","geometry_source":"OpenStreetMap","canonical_geometry_role":null,"geometry_scope":null,"geometry_precision":"master_coordinate_fidelity"},"geometry":{"type":"Polygon","coordinates":[[[27.8388755,47.7753124],[27.8388689,47.7753081],[27.8387205,47.7747361],[27.8388488,47.7746763],[27.8388422,47.7746184],[27.838861,47.7745193],[27.838945,47.7744053],[27.8390288,47.7743084],[27.8390899,47.7742513],[27.8387127,47.7740328],[27.840754,47.7720984],[27.8409309,47.7716355],[27.8414218,47.7715907],[27.8415116,47.7715375],[27.8422493,47.7704419],[27.8425224,47.7699215],[27.8427992,47.7696481],[27.8433246,47.7690495],[27.8429856,47.7688858],[27.8432909,47.7683717],[27.8439144,47.7670155],[27.8440831,47.7667984],[27.8444785,47.7668482],[27.8446965,47.7664135],[27.8448884,47.7660344],[27.8452688,47.7655994],[27.8453363,47.7654409],[27.845339,47.7652841],[27.8453477,47.7649976],[27.8453865,47.7648253],[27.8453902,47.7647682],[27.845382,47.7646865],[27.8454165,47.7645724],[27.845473,47.7643859],[27.8455901,47.7641895],[27.8457235,47.7640258],[27.8458761,47.7637754],[27.8459048,47.7637288],[27.8469511,47.7644882],[27.8478353,47.7651322],[27.8487161,47.7657847],[27.8498898,47.7665448],[27.8513316,47.7676459],[27.8468025,47.7722888],[27.8462733,47.7725244],[27.844696,47.773099],[27.8444099,47.7731965],[27.8444641,47.7732612],[27.8443228,47.7733099],[27.8442702,47.7732492],[27.8441305,47.7733019],[27.8441533,47.7733294],[27.8440135,47.773382],[27.8439907,47.7733545],[27.8404085,47.7746998],[27.8404461,47.7747464],[27.8403055,47.774798],[27.8403164,47.7748114],[27.8401758,47.7748631],[27.840132,47.7748089],[27.8392754,47.7751521],[27.8393002,47.7751764],[27.8392109,47.7752102],[27.8391872,47.7751872],[27.8388755,47.7753124]]]}},{"type":"Feature","properties":{"entity_id":"osm-r18968062","jurisdiction":"MD","display_name":"Sadovoe","display_type":"independent_village","admin_level":9,"tier":"detail","legal_registry":"CUATM","legal_id":"4839","legal_type":"independent_village","parent_catalog_id":"osm-r10628645","osm_relation_id":18968062,"legal_identity_status":"reconciled","geometry_source":"OpenStreetMap","canonical_geometry_role":null,"geometry_scope":null,"geometry_precision":"master_coordinate_fidelity"},"geometry":{"type":"Polygon","coordinates":[[[27.7880673,47.7812405],[27.7876615,47.7813167],[27.7871354,47.7808484],[27.7860383,47.7798272],[27.784824,47.7786268],[27.7838039,47.7777191],[27.785272,47.7775749],[27.7857276,47.7775277],[27.7862162,47.7774891],[27.7859508,47.7772519],[27.7856565,47.7769875],[27.7859444,47.7767706],[27.7862809,47.7765542],[27.7863396,47.7765172],[27.7862442,47.7764434],[27.7862596,47.7764226],[27.7865541,47.7762518],[27.7867364,47.7764175],[27.7868597,47.7763723],[27.7870286,47.7762659],[27.7871816,47.7760522],[27.7873706,47.7760866],[27.7874965,47.776001],[27.7874951,47.7759832],[27.7876831,47.775853],[27.7877271,47.7758285],[27.7876014,47.7757379],[27.7880155,47.7755264],[27.7879063,47.7754598],[27.7880333,47.7752624],[27.7881558,47.7751634],[27.7883549,47.7750703],[27.7883713,47.7750844],[27.7884124,47.7750716],[27.788467,47.775051],[27.7885058,47.7750758],[27.789111,47.7747455],[27.7891865,47.7746978],[27.7892938,47.774775],[27.7897497,47.7751033],[27.7898949,47.7752157],[27.7902594,47.7756339],[27.7902924,47.7756719],[27.7905564,47.7758935],[27.7907225,47.776027],[27.7909538,47.7758832],[27.7912831,47.7756783],[27.7913118,47.7756997],[27.7916451,47.7759618],[27.7916581,47.7759721],[27.7920287,47.7757401],[27.7925264,47.7761519],[27.792539,47.7761368],[27.7929472,47.7758362],[27.7931194,47.775752],[27.7933994,47.7756153],[27.7936083,47.7755132],[27.7937827,47.7754042],[27.7941765,47.7751566],[27.7945886,47.7748975],[27.7948754,47.7747171],[27.7951982,47.7745141],[27.7953597,47.7744125],[27.7958435,47.7741056],[27.7960573,47.7739665],[27.7962891,47.7738115],[27.7965063,47.7736662],[27.7966231,47.773601],[27.7967262,47.7735396],[27.7969113,47.7736735],[27.7974065,47.7740402],[27.7974459,47.7740591],[27.7978862,47.7743896],[27.7983297,47.7747224],[27.7983663,47.7747514],[27.7988153,47.7750889],[27.7992442,47.7754067],[27.7992711,47.7754275],[27.7997491,47.7757587],[27.800205,47.7760745],[27.8003082,47.7761309],[27.8006006,47.7764117],[27.8006479,47.7764571],[27.8010784,47.7767811],[27.8012427,47.7769047],[27.8013317,47.7769128],[27.8014074,47.7769197],[27.8015378,47.7764412],[27.8020433,47.7764971],[27.8025223,47.7765498],[27.80301,47.7766036],[27.8034983,47.7766575],[27.8035548,47.7766641],[27.8040763,47.7767243],[27.8043828,47.7767593],[27.8047714,47.7768041],[27.8051832,47.7768515],[27.8055679,47.7768958],[27.8059643,47.7769331],[27.8061881,47.776954],[27.8063748,47.7769749],[27.8063764,47.7773725],[27.8063763,47.7774359],[27.8063765,47.7776352],[27.8064214,47.7778602],[27.8064158,47.7778907],[27.8064307,47.7778936],[27.8064084,47.7783068],[27.8061925,47.7782825],[27.8058575,47.778238],[27.8053562,47.7781897],[27.8052739,47.7781809],[27.8049899,47.7781506],[27.8048535,47.7781352],[27.8045445,47.7781003],[27.8042109,47.7780638],[27.8040745,47.7780489],[27.8039864,47.7780397],[27.803644,47.7780037],[27.8036191,47.7780016],[27.803085,47.7779565],[27.8029839,47.7779442],[27.8027851,47.7779142],[27.8027738,47.7779125],[27.8024368,47.7778743],[27.8023015,47.777859],[27.8020671,47.7778429],[27.8020651,47.7778279],[27.8019312,47.7778115],[27.8019189,47.7778167],[27.8018719,47.7778171],[27.8018624,47.7778339],[27.8018846,47.7778883],[27.8023571,47.7782268],[27.8025683,47.7783781],[27.8026327,47.7784224],[27.8032133,47.7788364],[27.803216,47.7788384],[27.8032569,47.7788677],[27.8023927,47.7794212],[27.8018952,47.7791006],[27.8015422,47.7788124],[27.8015528,47.7786178],[27.8015222,47.7785734],[27.8014903,47.7785841],[27.8014028,47.7786342],[27.8012629,47.7787099],[27.8009604,47.7785172],[27.8001545,47.7790114],[27.7993364,47.7795133],[27.7989682,47.7792209],[27.7987991,47.779316],[27.7987123,47.7792576],[27.7984496,47.7794153],[27.7983672,47.7793467],[27.7983246,47.7793731],[27.7978733,47.7796476],[27.7976785,47.779766],[27.7974192,47.7799237],[27.7972701,47.7800144],[27.7971023,47.7798943],[27.7969795,47.7799753],[27.7968356,47.7801996],[27.7967208,47.780272],[27.7966394,47.7803293],[27.7965335,47.7802528],[27.7964714,47.7802135],[27.7960673,47.7804763],[27.796071,47.7804788],[27.7958302,47.7806359],[27.7958265,47.7806333],[27.7955418,47.7808152],[27.7954225,47.7807276],[27.7952863,47.7806202],[27.7952853,47.7806194],[27.7951507,47.7805133],[27.7951486,47.7805116],[27.7950157,47.7804068],[27.7950125,47.7804043],[27.7950029,47.7803968],[27.7945532,47.7805168],[27.7941035,47.7805766],[27.7940419,47.7805848],[27.7939843,47.7805924],[27.7936323,47.7806393],[27.7931975,47.7806971],[27.79308,47.7807127],[27.7930293,47.7807195],[27.792773,47.7807536],[27.792358,47.7808088],[27.7921706,47.7808337],[27.791952,47.7808628],[27.7915445,47.780917],[27.7913734,47.7809492],[27.7912429,47.780959],[27.7903809,47.7810239],[27.7898278,47.7810655],[27.7897809,47.7810744],[27.7895797,47.7810939],[27.7895198,47.7810997],[27.7887262,47.7811767],[27.7880673,47.7812405]]]}}]}