{"type":"FeatureCollection","metadata":{"schema_version":1,"contract":"actual-public-geometry-chunk-v1","mode":"ACTUAL","jurisdiction":"MD","tier":"detail","root_entity_id":"osm-r1104136","feature_count":10,"geometry_source":"OpenStreetMap","geometry_precision":"master_coordinate_fidelity"},"features":[{"type":"Feature","properties":{"entity_id":"osm-r18966857","jurisdiction":"MD","display_name":"Iordanovca","display_type":"independent_village","admin_level":9,"tier":"detail","legal_registry":"CUATM","legal_id":"1213","legal_type":"independent_village","parent_catalog_id":"osm-r19113737","osm_relation_id":18966857,"legal_identity_status":"reconciled","geometry_source":"OpenStreetMap","geometry_precision":"master_coordinate_fidelity"},"geometry":{"type":"Polygon","coordinates":[[[28.9098603,46.3824329],[28.9104593,46.3826705],[28.9103356,46.3827934],[28.9102775,46.3828404],[28.910399,46.3828957],[28.9103397,46.3829562],[28.9106632,46.3830762],[28.9117579,46.3835023],[28.9118908,46.3835491],[28.9117485,46.3837461],[28.9127409,46.3840736],[28.9128751,46.3841157],[28.9118365,46.3854987],[28.9134633,46.3862248],[28.9134024,46.3866345],[28.9133237,46.3870124],[28.9132368,46.3873886],[28.9124301,46.3908136],[28.9123047,46.3912076],[28.9120813,46.3916566],[28.9117508,46.3923445],[28.9115757,46.3926504],[28.9112964,46.3930099],[28.9105973,46.3939821],[28.9103427,46.3943245],[28.9099401,46.3948736],[28.9095856,46.3952289],[28.9086946,46.3960324],[28.9087703,46.3960741],[28.9085795,46.396253],[28.9083615,46.3964393],[28.9079473,46.3967894],[28.9078858,46.396834],[28.9077202,46.3969802],[28.9074546,46.3972234],[28.9070432,46.3975878],[28.9069875,46.3976132],[28.9068282,46.3977346],[28.9063078,46.398069],[28.9060849,46.3981901],[28.9057604,46.3983549],[28.9050926,46.398636],[28.9045287,46.3988117],[28.9038746,46.3990289],[28.9028261,46.3993504],[28.9024034,46.3995152],[28.9020801,46.3996493],[28.9018116,46.399772],[28.901598,46.3998835],[28.9014197,46.3997763],[28.9012589,46.3996879],[28.9011799,46.3996435],[28.9013326,46.3994028],[28.9014454,46.3991186],[28.901473,46.3988409],[28.9013629,46.3986213],[28.9011893,46.3984594],[28.9008655,46.3980756],[28.900593,46.3979174],[28.9004013,46.3978157],[28.8999758,46.3976301],[28.8996731,46.397526],[28.8992746,46.3974283],[28.8989906,46.3973751],[28.8988142,46.3973541],[28.898653,46.3973533],[28.8985093,46.3973743],[28.898282,46.3969488],[28.8981953,46.3965633],[28.8983156,46.396067],[28.8986977,46.3956137],[28.8990639,46.3952774],[28.8991771,46.3952886],[28.8997925,46.3956116],[28.900311,46.3958604],[28.9003642,46.3958914],[28.9007327,46.395528],[28.9011386,46.3951348],[28.9014896,46.3947625],[28.9020085,46.3942127],[28.9021811,46.3940302],[28.9023455,46.393855],[28.9025641,46.3936176],[28.9029058,46.3932607],[28.9029349,46.3932154],[28.9031378,46.3930103],[28.9031973,46.3929562],[28.9032494,46.3928973],[28.9033205,46.3928242],[28.9034292,46.3928698],[28.9037613,46.3930278],[28.9039242,46.3930688],[28.9046917,46.3934707],[28.904825,46.3933853],[28.9048449,46.393289],[28.9049002,46.3932204],[28.9048556,46.3931801],[28.9049699,46.3930239],[28.9050882,46.3928849],[28.9051209,46.3928973],[28.9051547,46.3928581],[28.9051903,46.3928169],[28.9052339,46.3927448],[28.9052982,46.3926662],[28.905401,46.3925335],[28.9054242,46.3925145],[28.9054773,46.3924963],[28.905515,46.3924925],[28.905539,46.3924642],[28.9053396,46.3923709],[28.9053306,46.3923782],[28.9052862,46.3923586],[28.905425,46.3921762],[28.9054027,46.3921628],[28.9054567,46.3920924],[28.9054632,46.3918923],[28.9054111,46.3916302],[28.9052787,46.3913828],[28.905192,46.3911656],[28.905266,46.3907804],[28.9053113,46.3903991],[28.9053512,46.3902164],[28.9054947,46.390141],[28.906083,46.38992],[28.9061715,46.3899445],[28.9063279,46.3897108],[28.9064495,46.3894979],[28.9064713,46.3894726],[28.9066203,46.3892704],[28.906632,46.3892758],[28.9066437,46.3892667],[28.9066771,46.3892288],[28.9067053,46.3891837],[28.9066949,46.3891792],[28.9067333,46.3891179],[28.9067616,46.389089],[28.9067772,46.3890898],[28.9068373,46.3889798],[28.9068746,46.3889283],[28.9069077,46.3888517],[28.9069666,46.3887534],[28.9070409,46.3886343],[28.9070716,46.3885829],[28.9070846,46.3885864],[28.9071383,46.3884818],[28.90717,46.3884043],[28.9072369,46.3883239],[28.9072173,46.3883177],[28.907303,46.3881608],[28.9074899,46.3878478],[28.9075758,46.3877125],[28.9076151,46.3876052],[28.9076511,46.3875628],[28.9077085,46.3874474],[28.9078593,46.387157],[28.9078723,46.3871596],[28.9079925,46.3869441],[28.9081001,46.3867718],[28.908163,46.386686],[28.9083015,46.3864749],[28.9083692,46.3863459],[28.9085201,46.3860732],[28.908529,46.38606],[28.908662,46.3858165],[28.9086672,46.3858174],[28.908796,46.385546],[28.9088965,46.3853153],[28.9089131,46.3852765],[28.9090274,46.3851312],[28.9090622,46.3850995],[28.9091969,46.3849037],[28.9092371,46.3848927],[28.9092863,46.3848951],[28.9092956,46.3848906],[28.9094226,46.3847074],[28.909451,46.3846884],[28.9094821,46.3846775],[28.9095568,46.3845872],[28.909288,46.3844404],[28.9090191,46.3842999],[28.9083644,46.3839174],[28.9084649,46.3837788],[28.9085809,46.3836694],[28.9086621,46.3835934],[28.9087177,46.3835581],[28.9089166,46.3834214],[28.909023,46.3832581],[28.9091487,46.3830695],[28.9093091,46.3828438],[28.9093534,46.382858],[28.9095155,46.3826569],[28.9096354,46.3825644],[28.9097425,46.382482],[28.9098603,46.3824329]]]}},{"type":"Feature","properties":{"entity_id":"osm-r18966933","jurisdiction":"MD","display_name":"Abaclia","display_type":"independent_village","admin_level":9,"tier":"detail","legal_registry":"CUATM","legal_id":"1210","legal_type":"independent_village","parent_catalog_id":"osm-r19113738","osm_relation_id":18966933,"legal_identity_status":"reconciled","geometry_source":"OpenStreetMap","geometry_precision":"master_coordinate_fidelity"},"geometry":{"type":"MultiPolygon","coordinates":[[[[28.8942347,46.3615671],[28.894176,46.3614309],[28.8949548,46.3610979],[28.8950585,46.3610597],[28.895776,46.3608248],[28.8961683,46.3607314],[28.896445,46.3610179],[28.8960343,46.361171],[28.8955555,46.361342],[28.8949825,46.3614549],[28.8942347,46.3615671]]],[[[28.9025404,46.3588777],[28.9024406,46.358806],[28.9022431,46.3586044],[28.9020209,46.358368],[28.9022838,46.3582449],[28.902362,46.3583318],[28.9024304,46.3583002],[28.9025006,46.3583705],[28.9024802,46.3583807],[28.9024406,46.3584005],[28.9025871,46.3585203],[28.9026346,46.3585],[28.9026586,46.358527],[28.9025807,46.3585681],[28.9027704,46.35875],[28.9027037,46.358797],[28.9025404,46.3588777]]],[[[28.903473,46.3583006],[28.903064,46.3578924],[28.9040018,46.3574241],[28.9043308,46.3577364],[28.9044729,46.3578713],[28.904389,46.3578982],[28.9040206,46.3580932],[28.903473,46.3583006]]],[[[28.8955208,46.3564342],[28.8955868,46.3562346],[28.895619,46.3561854],[28.8963221,46.3563934],[28.8973828,46.3566262],[28.8976955,46.3567116],[28.8984226,46.3570115],[28.8986777,46.3570692],[28.8992672,46.3571303],[28.8996301,46.3572228],[28.8999488,46.3573034],[28.9005857,46.3574669],[28.9007886,46.3574536],[28.9009122,46.3574347],[28.9009548,46.3574475],[28.9011898,46.3573533],[28.9014325,46.3571955],[28.9015778,46.3571044],[28.9016389,46.3570661],[28.9022071,46.3575143],[28.9019778,46.3577332],[28.9016456,46.3579022],[28.9012179,46.3580475],[28.9008284,46.3581426],[28.9004923,46.3581928],[28.900076,46.358214],[28.8997802,46.3582211],[28.8998461,46.3584436],[28.8996536,46.3584518],[28.8994427,46.3584555],[28.8992596,46.3584722],[28.8992497,46.3584112],[28.899063,46.3584019],[28.8989908,46.3584242],[28.8989689,46.3585601],[28.8989474,46.3585821],[28.8989414,46.3586042],[28.8985816,46.3585726],[28.8982011,46.3584762],[28.8982762,46.3583009],[28.898319,46.3581607],[28.8983323,46.3580848],[28.8981344,46.3580562],[28.898062,46.3580407],[28.8980654,46.357994],[28.8978993,46.3579514],[28.8977857,46.357924],[28.8975963,46.3579017],[28.8975072,46.3578826],[28.8975293,46.3578403],[28.8973826,46.3577671],[28.8972093,46.3577058],[28.897222,46.357683],[28.8970085,46.3576211],[28.8969582,46.3575992],[28.8969146,46.357643],[28.8968592,46.3576155],[28.8966641,46.3574224],[28.8964885,46.3573322],[28.8964721,46.3573077],[28.8963572,46.3571352],[28.8961974,46.3570591],[28.8959331,46.3573368],[28.8957938,46.3572103],[28.8956102,46.3569862],[28.8954492,46.3566973],[28.8955887,46.3567111],[28.8955208,46.3564342]]],[[[28.8916208,46.3607996],[28.8917579,46.3599916],[28.8919945,46.3595322],[28.8925137,46.3589619],[28.8933231,46.3582965],[28.8935368,46.3581063],[28.8937965,46.3579532],[28.8938728,46.3577895],[28.894033,46.3574462],[28.895217,46.3574092],[28.8954617,46.3577049],[28.8966886,46.3591147],[28.8947907,46.3598594],[28.8936526,46.3602397],[28.8916208,46.3607996]]],[[[28.9538027,46.3475559],[28.9530205,46.3480363],[28.953782,46.3483624],[28.9538572,46.3483659],[28.953881,46.348345],[28.954103,46.348434],[28.9542796,46.3485154],[28.9543489,46.3485654],[28.9543775,46.3485958],[28.9543928,46.3486255],[28.9546542,46.3486058],[28.9548865,46.3483803],[28.95515,46.3485051],[28.954831,46.3488148],[28.9547337,46.3489022],[28.9549301,46.3489851],[28.9553624,46.349181],[28.9551447,46.3494547],[28.9549046,46.3498257],[28.9546911,46.3501326],[28.9544998,46.3503948],[28.9542948,46.350671],[28.9542504,46.3507537],[28.954288,46.3507915],[28.9544999,46.3508553],[28.9546946,46.3509262],[28.9546741,46.3509852],[28.9546434,46.3510608],[28.9545853,46.3511907],[28.9546605,46.3512379],[28.9553115,46.3513018],[28.9553593,46.3511885],[28.9556361,46.3512286],[28.9558872,46.3512712],[28.9558736,46.351335],[28.9558428,46.3514365],[28.956164,46.3515169],[28.9561982,46.3514956],[28.956287,46.3514956],[28.9564374,46.3515004],[28.9566082,46.3514579],[28.9567449,46.3514886],[28.9574249,46.3515265],[28.9576069,46.3516069],[28.9576787,46.351647],[28.9578768,46.3514109],[28.9580203,46.3513873],[28.9585295,46.3515692],[28.9586252,46.3516779],[28.958644,46.3518125],[28.9585279,46.3519849],[28.958416,46.3520841],[28.9583809,46.3521018],[28.958269,46.3521265],[28.95814,46.3521336],[28.9577395,46.3524169],[28.9576395,46.3524748],[28.9574875,46.3525427],[28.9571663,46.3527121],[28.9569591,46.352818],[28.9568067,46.3528283],[28.956638,46.3528236],[28.9565594,46.3527999],[28.956515,46.3527881],[28.9564651,46.3528495],[28.9561063,46.3532911],[28.955884,46.3538668],[28.9560375,46.3539023],[28.9563491,46.3539802],[28.956485,46.3540199],[28.9571137,46.3542147],[28.9568882,46.3544603],[28.9564919,46.3548664],[28.9563279,46.3550364],[28.9559931,46.355374],[28.9560253,46.3553894],[28.9560608,46.3554064],[28.9558832,46.3556087],[28.9558647,46.355629],[28.9557913,46.3557559],[28.9557273,46.3558336],[28.955709,46.3558461],[28.9555943,46.3559935],[28.9554326,46.356202],[28.9553454,46.3561786],[28.955285,46.3563166],[28.9552659,46.3564179],[28.9551621,46.3565498],[28.9551377,46.3565828],[28.9549745,46.3567822],[28.9548302,46.3569367],[28.9543452,46.3567923],[28.954165,46.3567343],[28.9539702,46.3570529],[28.9539121,46.357145],[28.9529612,46.3568918],[28.9527468,46.3572369],[28.9526595,46.3573004],[28.9523948,46.3572392],[28.9523026,46.3573856],[28.952142,46.3575816],[28.9520326,46.3576949],[28.9517524,46.357905],[28.9516191,46.3580325],[28.9515256,46.3580257],[28.9513482,46.3579882],[28.9513199,46.3579826],[28.9511919,46.3579729],[28.9510873,46.3581992],[28.9509015,46.3585638],[28.9507477,46.3586747],[28.9510211,46.3588259],[28.9511647,46.3589133],[28.9513561,46.3590551],[28.9514142,46.3591401],[28.9514074,46.3592346],[28.9513766,46.3593905],[28.9513014,46.3595203],[28.9512673,46.3596006],[28.9511921,46.359714],[28.9511237,46.3598108],[28.951011,46.3598887],[28.9509289,46.359943],[28.9510467,46.3601251],[28.9514219,46.3603436],[28.9514431,46.360365],[28.9514817,46.3604188],[28.9514343,46.36049],[28.9513414,46.3605938],[28.9512697,46.3606454],[28.9512106,46.3606831],[28.9512587,46.3607025],[28.9514544,46.3607496],[28.9513299,46.3610658],[28.9513219,46.3611156],[28.9513229,46.3611462],[28.9513332,46.361163],[28.9513313,46.3612197],[28.9512867,46.3614908],[28.9512891,46.3615275],[28.9512855,46.3615629],[28.9511777,46.3616726],[28.9511273,46.3617049],[28.9510646,46.3617376],[28.9509033,46.3620865],[28.9509067,46.362088],[28.9509219,46.3620987],[28.9509339,46.3621124],[28.9509159,46.3621764],[28.9508974,46.3622241],[28.9508761,46.3622811],[28.9509658,46.3623036],[28.9511015,46.3623418],[28.9513866,46.3624368],[28.9515867,46.3624931],[28.9516323,46.3624668],[28.9515961,46.3624369],[28.9517185,46.3623553],[28.9517571,46.3623856],[28.9518572,46.3623366],[28.9520057,46.3622469],[28.9520697,46.3622489],[28.9521166,46.3622546],[28.9524249,46.3626544],[28.9522645,46.3628157],[28.9522049,46.362869],[28.9520196,46.3630559],[28.9518295,46.3632314],[28.9518985,46.3632788],[28.9521558,46.3633621],[28.9522482,46.3634042],[28.9523489,46.3634727],[28.9523947,46.3635144],[28.9524021,46.3635454],[28.9523957,46.3635744],[28.9523651,46.3636338],[28.952428,46.3636572],[28.9524729,46.3636793],[28.9526449,46.3637815],[28.9527826,46.3639019],[28.9528152,46.3639426],[28.9528671,46.3640549],[28.9528625,46.3641012],[28.9527905,46.3643137],[28.9527649,46.3643555],[28.9527061,46.3644166],[28.9526646,46.3644504],[28.9526168,46.3644763],[28.9525669,46.364493],[28.9524629,46.36444],[28.9524106,46.3645536],[28.952375,46.3645822],[28.9519045,46.3649188],[28.9518175,46.3649756],[28.9520826,46.3650872],[28.9519373,46.3653017],[28.9516928,46.3655802],[28.9515144,46.3657126],[28.9512897,46.3658221],[28.9511245,46.3658175],[28.9508388,46.3657604],[28.9503884,46.3656488],[28.9500466,46.3654408],[28.94978,46.3654597],[28.9495271,46.3655163],[28.9493528,46.3656131],[28.9491922,46.3657406],[28.9490965,46.365835],[28.9489427,46.3659649],[28.9487786,46.3660853],[28.948594,46.3661939],[28.948348,46.366293],[28.9481429,46.3663402],[28.9479857,46.3663756],[28.9478079,46.3664133],[28.9476507,46.3664204],[28.9474832,46.3664227],[28.9473021,46.366425],[28.9470047,46.3666092],[28.9469671,46.3666328],[28.9466082,46.3664036],[28.9462801,46.3666326],[28.9461167,46.3665158],[28.9459888,46.3664133],[28.946137,46.3662362],[28.9465454,46.3657661],[28.9464929,46.3657317],[28.9463703,46.3656732],[28.9461321,46.3655985],[28.9459312,46.3655313],[28.9460645,46.3653574],[28.9461929,46.3651738],[28.9459623,46.3651423],[28.9459452,46.3650336],[28.945764,46.3650336],[28.9455624,46.365017],[28.9453915,46.364991],[28.9452069,46.364972],[28.9449061,46.3651207],[28.9447968,46.3651561],[28.9446649,46.3651738],[28.9444618,46.3652977],[28.9442806,46.3654158],[28.9440345,46.3656849],[28.9439286,46.3658313],[28.9437987,46.3660061],[28.9436722,46.3661288],[28.9438298,46.3662022],[28.9440493,46.3663111],[28.9441521,46.366352],[28.9440388,46.3665013],[28.9440324,46.3665018],[28.9437892,46.3668198],[28.9435499,46.3667547],[28.943443,46.3668967],[28.9433528,46.3670209],[28.9434449,46.3670482],[28.9434136,46.3671294],[28.9433621,46.3672099],[28.9433261,46.3672032],[28.9432681,46.3673305],[28.9432221,46.3674313],[28.9432911,46.367453],[28.9432384,46.3675282],[28.9431422,46.3675076],[28.9429763,46.3677706],[28.942868,46.3679365],[28.9427917,46.3681017],[28.9426184,46.3684363],[28.9426045,46.3684662],[28.9425537,46.368561],[28.9424544,46.3687216],[28.9423898,46.3688462],[28.9423152,46.3689834],[28.9422366,46.3691741],[28.9422512,46.3691971],[28.9422162,46.369262],[28.9421972,46.3692669],[28.942117,46.3693927],[28.9420657,46.3694047],[28.941973,46.3693911],[28.9419068,46.3693779],[28.9418256,46.3695535],[28.9417752,46.3696573],[28.9417704,46.3696671],[28.9417622,46.3696839],[28.9417426,46.3697275],[28.9416889,46.3698475],[28.941612,46.3700253],[28.9411691,46.37023],[28.9410109,46.3703326],[28.9409691,46.3703462],[28.9408864,46.3703411],[28.9406194,46.3702749],[28.9405434,46.3704675],[28.9403913,46.3706607],[28.9401278,46.3709432],[28.9396956,46.3713505],[28.9390324,46.3716999],[28.9384136,46.3722476],[28.9378838,46.3720467],[28.9373573,46.3725165],[28.9372564,46.3725857],[28.9371419,46.3726439],[28.9370511,46.3726726],[28.9369334,46.372684],[28.9365471,46.3725067],[28.935954,46.3721599],[28.9355825,46.3718975],[28.9352669,46.3721484],[28.935137,46.3721839],[28.9349148,46.3721532],[28.9345898,46.3719479],[28.9342477,46.371733],[28.9339398,46.3715418],[28.9337106,46.3714143],[28.9334472,46.3713011],[28.93303,46.3711288],[28.9326846,46.3709872],[28.9326266,46.3710746],[28.9324423,46.3713322],[28.9322678,46.3716058],[28.9325077,46.3717101],[28.9326821,46.3717762],[28.9325014,46.3720928],[28.932365,46.3724024],[28.9325805,46.3725039],[28.9333809,46.3729028],[28.9336238,46.3730231],[28.9336649,46.3731271],[28.9335899,46.3732263],[28.9335181,46.3732807],[28.9333304,46.3734839],[28.9332075,46.3736115],[28.9331357,46.3736328],[28.9330093,46.37364],[28.9325648,46.3736165],[28.9324076,46.3735882],[28.9320451,46.3735033],[28.9315529,46.3733443],[28.9311799,46.3732084],[28.9311419,46.3732476],[28.9283564,46.376017],[28.9280764,46.3762795],[28.9279036,46.3764316],[28.9276138,46.3766989],[28.9262403,46.3774861],[28.9262171,46.377511],[28.9261934,46.3775523],[28.9261229,46.377618],[28.925468,46.3781885],[28.9250266,46.3785844],[28.9235309,46.3780613],[28.9225291,46.3776493],[28.9203789,46.3796238],[28.9198654,46.3793001],[28.9194942,46.3790782],[28.919829,46.3787804],[28.9211132,46.3776225],[28.9216254,46.3771168],[28.9213961,46.3769742],[28.9212787,46.3769016],[28.9211286,46.3767973],[28.9208518,46.3765668],[28.9205252,46.3763059],[28.9203828,46.3761844],[28.9200924,46.3759532],[28.920027,46.3758931],[28.9198448,46.3757483],[28.9197136,46.3756618],[28.9196555,46.3756139],[28.9195338,46.3755],[28.919511,46.3754642],[28.9194913,46.3754407],[28.9194518,46.3754073],[28.9194211,46.3753901],[28.9190493,46.3750648],[28.9189251,46.3749447],[28.9188637,46.3748764],[28.9188294,46.3748224],[28.9188026,46.3747656],[28.9188015,46.3747152],[28.9188412,46.3746191],[28.9189122,46.3745098],[28.9190021,46.374457],[28.9191046,46.3744216],[28.9192483,46.3743848],[28.9193248,46.3743718],[28.9193889,46.3744517],[28.9194893,46.3746095],[28.9195546,46.3746174],[28.9204228,46.3741439],[28.9204909,46.3740971],[28.9206174,46.3740376],[28.9207449,46.3739684],[28.9207878,46.3739381],[28.9209033,46.3738789],[28.9209569,46.3738594],[28.9210511,46.3738144],[28.921236,46.3737335],[28.9212953,46.3737921],[28.9214032,46.3737789],[28.92143,46.373759],[28.9216397,46.3736878],[28.9218001,46.3736249],[28.9220401,46.3735391],[28.9220838,46.3735267],[28.9220728,46.3735023],[28.922181,46.3734652],[28.9222135,46.373491],[28.922264,46.3735594],[28.9225109,46.3735126],[28.9227241,46.3734553],[28.9229766,46.3733752],[28.9230579,46.3733785],[28.9232517,46.3734804],[28.9233893,46.3735616],[28.9234,46.3735329],[28.9235131,46.3734259],[28.9235981,46.3733525],[28.9235154,46.3732999],[28.9235569,46.3732603],[28.9236084,46.373235],[28.9237011,46.3732112],[28.9238122,46.3730668],[28.9238808,46.3729773],[28.9239678,46.3729804],[28.923979,46.3729712],[28.9239683,46.3728782],[28.9239695,46.3728445],[28.9239841,46.3727877],[28.9240751,46.3726591],[28.9241391,46.372545],[28.9241904,46.372496],[28.924197,46.3724313],[28.9241671,46.3724161],[28.9241348,46.3723842],[28.9240854,46.372282],[28.924047,46.3721399],[28.9240148,46.3720614],[28.9239729,46.3719089],[28.9239712,46.3718521],[28.9242003,46.3718502],[28.9242593,46.3717337],[28.9245033,46.3717875],[28.9245243,46.3717658],[28.9245288,46.3717271],[28.924559,46.3716269],[28.9246006,46.3715495],[28.9246246,46.3715179],[28.924707,46.3714336],[28.9246809,46.3714109],[28.9246691,46.3713795],[28.9248162,46.3710701],[28.9248523,46.3710807],[28.9248946,46.3710605],[28.9249568,46.3709473],[28.9248226,46.3708566],[28.924826,46.3708462],[28.9245907,46.3707799],[28.9248151,46.3702338],[28.9249832,46.3701101],[28.9248643,46.369942],[28.9248883,46.3698855],[28.9249139,46.3698387],[28.9249121,46.3698342],[28.9247996,46.3697954],[28.9249073,46.369679],[28.9249749,46.3695715],[28.92504,46.3695875],[28.9250888,46.3694845],[28.9251307,46.3694911],[28.925209,46.3693103],[28.925254,46.3692233],[28.9253418,46.3690271],[28.9254188,46.36887],[28.9254431,46.3688388],[28.9255494,46.3688511],[28.9258177,46.368851],[28.9258325,46.3686172],[28.9258331,46.3684391],[28.925833,46.3683754],[28.9258402,46.3683148],[28.9258596,46.3681634],[28.9259156,46.3678438],[28.9260879,46.3675629],[28.9260354,46.3675461],[28.9260801,46.367479],[28.9260797,46.3674467],[28.926104,46.3674072],[28.9261231,46.3673935],[28.926185,46.367415],[28.9263218,46.3672243],[28.9263297,46.3671644],[28.9266082,46.3669168],[28.9265644,46.3668947],[28.9266421,46.3668115],[28.9267218,46.3667406],[28.9267364,46.3667442],[28.926852,46.366615],[28.9260891,46.3666828],[28.9260264,46.3666716],[28.9258946,46.3668366],[28.9258116,46.3668678],[28.9257807,46.3668755],[28.925637,46.3668168],[28.925348,46.3671359],[28.9252942,46.3671477],[28.9251737,46.367228],[28.9251732,46.3672473],[28.9250652,46.3673825],[28.9250443,46.3674005],[28.9249646,46.3675132],[28.9248333,46.3676333],[28.9246997,46.3677126],[28.9245973,46.3677602],[28.924399,46.3677065],[28.9242799,46.3677731],[28.9239199,46.3682486],[28.9238938,46.368257],[28.9238289,46.3683696],[28.9235543,46.3687531],[28.9234866,46.3688395],[28.9234485,46.3688833],[28.923383,46.3688604],[28.9232558,46.3688142],[28.9231424,46.368773],[28.9230303,46.3687323],[28.9229182,46.3686916],[28.9228061,46.3686509],[28.9226941,46.3686102],[28.9225822,46.3685694],[28.9224723,46.3685262],[28.9223625,46.368483],[28.9222528,46.3684399],[28.9221434,46.3683969],[28.9220341,46.3683539],[28.921925,46.368311],[28.921816,46.3682682],[28.9217071,46.3682254],[28.9214898,46.36814],[28.9213813,46.3680973],[28.921273,46.3680548],[28.9211647,46.3680122],[28.9210566,46.3679697],[28.9209486,46.3679272],[28.9208494,46.3678882],[28.9207416,46.3678459],[28.920634,46.3678036],[28.9205264,46.3677613],[28.920419,46.3677191],[28.9203117,46.3676769],[28.9202045,46.3676348],[28.9200975,46.3675927],[28.9199905,46.3675506],[28.9198837,46.3675086],[28.9197768,46.3674666],[28.9196701,46.3674246],[28.9195634,46.3673827],[28.9194567,46.3673408],[28.9193501,46.3672989],[28.9192436,46.367257],[28.9191371,46.3672151],[28.9190307,46.3671733],[28.9189156,46.367128],[28.9188087,46.367086],[28.9187016,46.3670439],[28.9185942,46.3670017],[28.9184855,46.3669597],[28.9183746,46.3669181],[28.918262,46.3668758],[28.9181488,46.3668333],[28.9180358,46.3667908],[28.9179227,46.3667484],[28.9178096,46.3667059],[28.9176966,46.3666634],[28.9175837,46.366621],[28.9174708,46.3665786],[28.9173585,46.3665357],[28.9172468,46.366492],[28.9171353,46.3664484],[28.9170238,46.3664048],[28.9169123,46.3663612],[28.9168008,46.3663176],[28.9166906,46.3662723],[28.9165806,46.366227],[28.9164706,46.3661817],[28.9163344,46.3661256],[28.9161451,46.3660476],[28.915869,46.3659339],[28.9157722,46.3658941],[28.9158375,46.3658708],[28.9158727,46.3658484],[28.9164288,46.3656784],[28.9165294,46.3656545],[28.9166279,46.3656374],[28.9167294,46.3656263],[28.9177344,46.3652913],[28.9175552,46.3651002],[28.9174835,46.3649729],[28.9174552,46.3649811],[28.9173752,46.3648053],[28.91728,46.3646142],[28.9171836,46.3644504],[28.9173709,46.3643754],[28.9175719,46.3643079],[28.9176421,46.3643414],[28.9177719,46.3644118],[28.9178256,46.3644528],[28.9179458,46.3644086],[28.9180581,46.364419],[28.9181016,46.3644161],[28.9181423,46.3644078],[28.9181896,46.3643932],[28.9182005,46.3644015],[28.9185516,46.3642494],[28.9188963,46.3640982],[28.9189502,46.3640756],[28.9188901,46.3640283],[28.9190949,46.3638875],[28.9192259,46.3638052],[28.9192379,46.3636898],[28.9193077,46.3636312],[28.9194586,46.363535],[28.9195404,46.3634737],[28.9197221,46.3634401],[28.919854,46.3634566],[28.9199861,46.3634413],[28.920135,46.3633899],[28.9202316,46.363331],[28.9203098,46.3633925],[28.9205099,46.3633073],[28.9206065,46.3632185],[28.9206671,46.3631332],[28.9207709,46.3630932],[28.9208392,46.3631165],[28.9209008,46.3630926],[28.9210192,46.3630591],[28.9210772,46.3630923],[28.9210988,46.3630717],[28.9211232,46.3630397],[28.9212342,46.3630035],[28.9213387,46.3629579],[28.9214082,46.3629139],[28.9214444,46.3628602],[28.9214889,46.362828],[28.9216456,46.3627935],[28.9217811,46.3627745],[28.9218395,46.3627239],[28.9220579,46.3626887],[28.9221834,46.3626617],[28.9223943,46.3625485],[28.9225459,46.3624762],[28.9228604,46.3624333],[28.9231772,46.3623979],[28.9233244,46.3623648],[28.9234798,46.3622259],[28.9237796,46.3623199],[28.9238383,46.3623434],[28.9239326,46.362357],[28.9240561,46.3623996],[28.924212,46.3624741],[28.9242587,46.3625087],[28.9243239,46.3625882],[28.9244041,46.3626996],[28.9244072,46.3627413],[28.9245457,46.3629095],[28.9246157,46.3629253],[28.924681,46.3629496],[28.924731,46.3629419],[28.9248321,46.3630086],[28.9249051,46.3630779],[28.9248365,46.3631302],[28.9249944,46.3631849],[28.9251326,46.3632276],[28.9252362,46.3632482],[28.9253839,46.3632421],[28.9255416,46.3632405],[28.9255724,46.3632554],[28.9255768,46.3632817],[28.925683,46.363327],[28.9258061,46.3633635],[28.9259323,46.3634093],[28.9261332,46.3634807],[28.926317,46.3635672],[28.9267502,46.3638383],[28.9267261,46.363866],[28.9269113,46.3639341],[28.9271137,46.3639296],[28.9271996,46.3639381],[28.9272723,46.363967],[28.9273676,46.3640231],[28.9274333,46.3640854],[28.9274649,46.3641234],[28.9275155,46.3641718],[28.92758,46.3642265],[28.9276913,46.3643091],[28.9279232,46.364472],[28.9281041,46.3642485],[28.9281147,46.3642289],[28.928166,46.3642],[28.9282024,46.3641913],[28.9282769,46.3641846],[28.9279394,46.3638711],[28.9278043,46.3638091],[28.9277548,46.3637972],[28.9274581,46.3636696],[28.9277242,46.3633175],[28.9277923,46.3632903],[28.9274945,46.3630148],[28.9274078,46.3630329],[28.9270807,46.3629227],[28.9268819,46.3628412],[28.9265934,46.3627165],[28.9262231,46.3624479],[28.9259804,46.3623157],[28.9259417,46.3623439],[28.9257139,46.3626281],[28.9255706,46.3626907],[28.9253436,46.362546],[28.9252486,46.3623578],[28.9252404,46.3621661],[28.9252451,46.3621324],[28.925262,46.3621008],[28.9254011,46.3620987],[28.9254874,46.3621045],[28.9255238,46.36205],[28.925493,46.36203],[28.9257385,46.3617933],[28.9258665,46.3616882],[28.9259225,46.361629],[28.925939,46.3615485],[28.9260316,46.3615621],[28.9261804,46.3615022],[28.9262267,46.3614683],[28.9263569,46.3615358],[28.9267325,46.36173],[28.9266959,46.3617878],[28.9271292,46.3619816],[28.9273465,46.3617073],[28.9276263,46.3618118],[28.9277406,46.361863],[28.9278174,46.3619345],[28.9278518,46.3619726],[28.9278432,46.3619921],[28.9278679,46.3620051],[28.9278932,46.3620368],[28.9278692,46.3620584],[28.9279133,46.3620786],[28.9279296,46.3620758],[28.9282664,46.3621723],[28.9289612,46.3611529],[28.9290588,46.3611758],[28.9291466,46.3612104],[28.9291843,46.3612412],[28.9292832,46.3614853],[28.9293901,46.3614983],[28.9293724,46.3616749],[28.9293542,46.3617728],[28.9296624,46.3618787],[28.9301616,46.36166],[28.9302965,46.3617724],[28.9303697,46.3617414],[28.9305926,46.3616102],[28.9309247,46.3614243],[28.9309707,46.3614385],[28.9312886,46.3612341],[28.9305707,46.3609964],[28.9300442,46.360869],[28.9297092,46.3607888],[28.9296886,46.3607322],[28.9299002,46.3604911],[28.9300944,46.3599808],[28.9302577,46.3593476],[28.9303254,46.3587901],[28.9301474,46.3585917],[28.9312099,46.3582842],[28.9312131,46.3583317],[28.9316477,46.3583609],[28.9319471,46.3583842],[28.9319058,46.3584811],[28.9318535,46.3585758],[28.9319099,46.3585913],[28.9319137,46.3586011],[28.9319533,46.358623],[28.932063,46.3586577],[28.9322498,46.3587028],[28.9323956,46.3587417],[28.932392,46.3587853],[28.9327796,46.35887],[28.9330674,46.3589354],[28.9331092,46.3589429],[28.9332362,46.359008],[28.9332638,46.3589865],[28.9332896,46.3588485],[28.9332986,46.3587371],[28.9333195,46.3586696],[28.9333479,46.3586746],[28.9336008,46.3587478],[28.9336927,46.3587604],[28.9337138,46.3586912],[28.9336941,46.3586707],[28.9337019,46.3586375],[28.9336968,46.3585404],[28.9337033,46.3584796],[28.9337134,46.3584595],[28.9337475,46.3583603],[28.9334021,46.3582844],[28.9333884,46.3582592],[28.9333978,46.3582182],[28.9334876,46.358016],[28.9337715,46.3580484],[28.9341175,46.3576381],[28.9341261,46.3575923],[28.9343893,46.3571078],[28.9344162,46.3570974],[28.9347386,46.3571731],[28.9347541,46.3571948],[28.9349936,46.3572636],[28.9350255,46.357282],[28.9360544,46.3561034],[28.9357896,46.3559641],[28.9359606,46.3557814],[28.9361632,46.3555862],[28.9362989,46.3556472],[28.9363718,46.3555767],[28.9364609,46.3556143],[28.9365188,46.3555294],[28.9366837,46.3553318],[28.9367062,46.355339],[28.9368706,46.3551554],[28.9373573,46.354531],[28.9375375,46.3543794],[28.9376655,46.3542654],[28.9377342,46.3541988],[28.9378771,46.3540762],[28.938026,46.3539657],[28.9380845,46.353909],[28.9381435,46.353851],[28.9385786,46.35404],[28.9387525,46.3538784],[28.93892,46.3537296],[28.9390967,46.3535505],[28.9391142,46.3535286],[28.9392016,46.3534465],[28.9392639,46.3533999],[28.9395664,46.3535252],[28.9397462,46.3533549],[28.939865,46.3532381],[28.9399605,46.3531367],[28.9399333,46.3531247],[28.9398375,46.35307],[28.9396408,46.3528701],[28.9395694,46.3527882],[28.9395794,46.3527713],[28.9397177,46.3526367],[28.9402568,46.3528473],[28.9402929,46.3528609],[28.9403072,46.352767],[28.9403385,46.3527084],[28.9403299,46.3527004],[28.9404011,46.352655],[28.9405253,46.3525183],[28.940512,46.3525108],[28.9406558,46.3523607],[28.9406606,46.3523638],[28.9408391,46.3521861],[28.9408712,46.3521851],[28.9409324,46.3522026],[28.9411192,46.3519888],[28.9410931,46.3519258],[28.9410613,46.3518086],[28.9410505,46.3517266],[28.9410586,46.3516744],[28.9411347,46.3515586],[28.9413496,46.3512558],[28.9415777,46.3513417],[28.9416064,46.3513499],[28.9417822,46.3514232],[28.941798,46.3514009],[28.9418198,46.3513846],[28.9418789,46.3514047],[28.9420964,46.3512643],[28.9420675,46.3512102],[28.9420034,46.3510676],[28.9419771,46.3509876],[28.9419807,46.3509262],[28.9421754,46.3506906],[28.9422229,46.3506756],[28.9422623,46.3506054],[28.9423138,46.3506329],[28.9423489,46.3505996],[28.9423805,46.3505697],[28.9423909,46.350575],[28.9424612,46.3505083],[28.9424866,46.3503794],[28.9421053,46.3502366],[28.9420065,46.3501905],[28.9420953,46.3501021],[28.9421971,46.3500075],[28.9423358,46.3500239],[28.9423842,46.3499869],[28.9431451,46.3501362],[28.9433896,46.3498827],[28.943381,46.3498186],[28.9433856,46.3497864],[28.9434065,46.349723],[28.9434614,46.3495909],[28.9435948,46.3494524],[28.9437028,46.3493274],[28.9435524,46.3492558],[28.9434352,46.3491925],[28.9431658,46.3490424],[28.9428572,46.3488596],[28.9424429,46.3487138],[28.9425916,46.3484874],[28.9425978,46.3484697],[28.9426163,46.348442],[28.9430627,46.3485618],[28.9431377,46.3485707],[28.9432324,46.3483492],[28.9432729,46.3482387],[28.9433612,46.3481429],[28.94328,46.3479058],[28.9435381,46.3477901],[28.9437921,46.3476963],[28.9440825,46.3476397],[28.9443935,46.347576],[28.9446507,46.3475165],[28.9462101,46.3474094],[28.9464306,46.3475236],[28.9474754,46.3479877],[28.9477395,46.3481019],[28.9479035,46.3478992],[28.9480541,46.3477183],[28.9482105,46.3475287],[28.9483488,46.347361],[28.9484998,46.3471813],[28.9486766,46.3469778],[28.9487855,46.3468496],[28.9488496,46.3467766],[28.9489289,46.3466824],[28.9489438,46.3466649],[28.9491115,46.3464717],[28.9492715,46.3462865],[28.9492793,46.3462883],[28.9494458,46.3461044],[28.9499434,46.3463218],[28.9501465,46.3464055],[28.9505025,46.3465324],[28.9506418,46.3465784],[28.9506806,46.3465912],[28.9509686,46.3467039],[28.951704,46.347042],[28.9518393,46.3470958],[28.9521189,46.3472123],[28.9524558,46.3473652],[28.952837,46.3475291],[28.9530819,46.3473529],[28.9531594,46.3472968],[28.9533017,46.3471947],[28.9538027,46.3475559]]]]}},{"type":"Feature","properties":{"entity_id":"osm-r18967151","jurisdiction":"MD","display_name":"Carabiber","display_type":"component_locality","admin_level":9,"tier":"detail","legal_registry":"CUATM","legal_id":"1216","legal_type":null,"parent_catalog_id":"osm-r19113742","osm_relation_id":18967151,"legal_identity_status":"reconciled","geometry_source":"OpenStreetMap","geometry_precision":"master_coordinate_fidelity"},"geometry":{"type":"Polygon","coordinates":[[[28.9935335,46.4750946],[28.9934182,46.4750828],[28.9932421,46.4748484],[28.9932629,46.4748414],[28.9930853,46.4746129],[28.9929082,46.4743775],[28.9927548,46.4742022],[28.9925042,46.4739827],[28.9922489,46.4737406],[28.9920459,46.4735621],[28.9918614,46.4733982],[28.9915453,46.4731726],[28.9914522,46.4731528],[28.9913936,46.4731016],[28.9912506,46.4729642],[28.9910279,46.4727503],[28.9907796,46.4725228],[28.9905643,46.4723163],[28.9903298,46.4721154],[28.9901371,46.4719468],[28.9905554,46.4717072],[28.9908831,46.4715233],[28.991028,46.4714572],[28.9911349,46.4714078],[28.9912816,46.4713402],[28.9912806,46.4712598],[28.9912785,46.4710979],[28.9912731,46.4706784],[28.9911715,46.470563],[28.9910573,46.4704173],[28.9907724,46.4700154],[28.9913202,46.4698335],[28.9913752,46.4698205],[28.9918802,46.469566],[28.9919221,46.469562],[28.9921251,46.4695244],[28.9924089,46.4694803],[28.9925576,46.4697273],[28.9926902,46.4698559],[28.9935355,46.470535],[28.9944467,46.4701511],[28.9947374,46.470131],[28.9949108,46.4701942],[28.9950771,46.4703667],[28.9952053,46.4704689],[28.9955661,46.4709939],[28.9955818,46.4710128],[28.9957743,46.471209],[28.9959017,46.4713327],[28.9960128,46.4714637],[28.9961912,46.4716369],[28.9963532,46.4718121],[28.996431,46.4717711],[28.9967835,46.4720913],[28.9971062,46.4723844],[28.9970379,46.4724159],[28.9966026,46.4726169],[28.9964605,46.4726791],[28.9961614,46.4728002],[28.9961437,46.4728236],[28.9967577,46.4733525],[28.997055,46.4736136],[28.9971908,46.4737386],[28.9971182,46.4738227],[28.9970919,46.4738521],[28.997023,46.4738947],[28.996476,46.4740769],[28.9963357,46.4741236],[28.9956591,46.4743816],[28.9946252,46.474673],[28.9945961,46.4746832],[28.9945916,46.4746782],[28.9944082,46.4747482],[28.9944293,46.4747806],[28.9942932,46.474834],[28.9942864,46.4748226],[28.9942782,46.4748255],[28.9941979,46.4748533],[28.9939081,46.4749635],[28.9935335,46.4750946]]]}},{"type":"Feature","properties":{"entity_id":"osm-r18967259","jurisdiction":"MD","display_name":"Basarabeasca","display_type":"town","admin_level":9,"tier":"detail","legal_registry":"CUATM","legal_id":"1201","legal_type":"town","parent_catalog_id":"osm-r19113736","osm_relation_id":18967259,"legal_identity_status":"reconciled","geometry_source":"OpenStreetMap","geometry_precision":"master_coordinate_fidelity"},"geometry":{"type":"Polygon","coordinates":[[[28.9538027,46.3475559],[28.9533017,46.3471947],[28.9531594,46.3472968],[28.9530819,46.3473529],[28.952837,46.3475291],[28.9524558,46.3473652],[28.9521189,46.3472123],[28.9518393,46.3470958],[28.951704,46.347042],[28.9509686,46.3467039],[28.9506806,46.3465912],[28.9506418,46.3465784],[28.9505025,46.3465324],[28.9501465,46.3464055],[28.9499434,46.3463218],[28.9494458,46.3461044],[28.9492793,46.3462883],[28.9492715,46.3462865],[28.9491115,46.3464717],[28.9489438,46.3466649],[28.9489289,46.3466824],[28.9488496,46.3467766],[28.9487855,46.3468496],[28.9486766,46.3469778],[28.9484998,46.3471813],[28.9483488,46.347361],[28.9482105,46.3475287],[28.9480541,46.3477183],[28.9479035,46.3478992],[28.9477395,46.3481019],[28.9474754,46.3479877],[28.9464306,46.3475236],[28.9462101,46.3474094],[28.9446507,46.3475165],[28.9449645,46.347123],[28.9449352,46.3469489],[28.9449151,46.3468611],[28.9449334,46.3467598],[28.9450667,46.3465758],[28.9451678,46.3464837],[28.9453357,46.3464162],[28.9454428,46.346368],[28.9455937,46.3461915],[28.9458096,46.345906],[28.9459503,46.3457972],[28.9464991,46.3454759],[28.9472104,46.3439887],[28.9473645,46.3438041],[28.9478095,46.3433062],[28.9481051,46.3429755],[28.9481618,46.3429121],[28.9482537,46.3428104],[28.9483354,46.342722],[28.9485251,46.3425281],[28.9485455,46.3425383],[28.9491354,46.3418328],[28.9492831,46.34167],[28.9512611,46.3394707],[28.95107,46.3394034],[28.9507649,46.3392959],[28.9496559,46.3389053],[28.9491508,46.3377229],[28.9489704,46.3373006],[28.9484435,46.3353145],[28.9481586,46.3344404],[28.948817,46.3344209],[28.949507,46.3344565],[28.9501207,46.3345267],[28.9510644,46.3346551],[28.9521636,46.3346943],[28.9528354,46.3345026],[28.9533914,46.3342788],[28.9543365,46.3337311],[28.954483,46.3336134],[28.9549739,46.3332186],[28.9536839,46.3317044],[28.9529388,46.3310109],[28.9519438,46.3299172],[28.9521376,46.3298208],[28.9525003,46.3296703],[28.9536395,46.3292066],[28.953876,46.3291049],[28.9547659,46.3287226],[28.9555904,46.3283953],[28.9563827,46.3280604],[28.9564322,46.328042],[28.9572206,46.3277321],[28.9573825,46.3276676],[28.9574379,46.3276653],[28.9574918,46.3276645],[28.9575554,46.3277094],[28.9577298,46.3278835],[28.9579888,46.3280995],[28.9584258,46.3284313],[28.9589153,46.3281373],[28.9596851,46.3276625],[28.9614205,46.3266261],[28.9618085,46.3263864],[28.9620649,46.3262423],[28.9625375,46.3259455],[28.9628935,46.3256666],[28.9629979,46.3255815],[28.9632404,46.3254155],[28.9641341,46.3248221],[28.9646923,46.3243526],[28.9649239,46.3241561],[28.9651491,46.3239538],[28.9655358,46.3235932],[28.9658209,46.3232725],[28.9660115,46.3229828],[28.9661107,46.3228044],[28.966178,46.3225985],[28.9662113,46.3224582],[28.9662418,46.3222511],[28.9662236,46.32212],[28.9661504,46.3217529],[28.9661197,46.3216349],[28.9660775,46.3214252],[28.9660063,46.3209545],[28.9659608,46.32075],[28.9659044,46.3203676],[28.9658951,46.3200191],[28.9659651,46.3195026],[28.9659828,46.3193404],[28.965989,46.319266],[28.9660146,46.3191967],[28.966048,46.3190761],[28.9662776,46.31858],[28.9664496,46.3182496],[28.9665446,46.3180471],[28.9666918,46.31782],[28.9673584,46.3171784],[28.9674054,46.3171354],[28.9676181,46.316947],[28.9680531,46.3165618],[28.9676853,46.3162864],[28.9681901,46.3159921],[28.9685809,46.3157795],[28.9688369,46.3156506],[28.9690503,46.3155373],[28.9696277,46.3152953],[28.9699573,46.3151743],[28.9702442,46.3151167],[28.9703933,46.3150898],[28.9705354,46.3150715],[28.970734,46.3150487],[28.9709574,46.3149973],[28.9710887,46.314926],[28.9712066,46.3148521],[28.9713111,46.3148142],[28.9713896,46.3147968],[28.9714844,46.3148007],[28.9715416,46.3148209],[28.9715818,46.3148484],[28.9716131,46.3148851],[28.9717254,46.3150532],[28.9717507,46.3150677],[28.9719013,46.3150823],[28.9722025,46.3151307],[28.9724881,46.3151672],[28.9728489,46.3152033],[28.9734771,46.3152697],[28.9739021,46.3153356],[28.974284,46.3154174],[28.9748713,46.3155485],[28.9751794,46.3156301],[28.9753735,46.3156813],[28.9755594,46.3157477],[28.9758342,46.3158605],[28.9761016,46.3159869],[28.9763271,46.3161023],[28.976801,46.3163186],[28.9769228,46.3163603],[28.9770188,46.3163623],[28.9797963,46.3142486],[28.9803771,46.3138237],[28.9810646,46.3133157],[28.981612,46.3129186],[28.9818756,46.3127504],[28.9822916,46.3133377],[28.9835965,46.3153984],[28.9853442,46.3183114],[28.9873229,46.3175854],[28.9941955,46.3162819],[28.9953412,46.316017],[28.9959112,46.3160561],[28.9970621,46.3158094],[28.9997702,46.3156547],[29.0019979,46.3158161],[29.0035545,46.3162828],[29.0035388,46.316676],[29.0032957,46.317435],[29.0033346,46.3174812],[29.001329,46.3183774],[28.9971475,46.3204701],[28.997971,46.3226895],[28.9973326,46.3235679],[28.9968923,46.3250159],[28.9969507,46.3276717],[28.9966202,46.3284728],[28.9947302,46.3331773],[28.9933824,46.3365195],[28.9927746,46.3414162],[28.9910503,46.343746],[28.9906034,46.345651],[28.990033,46.3455989],[28.988762,46.3454834],[28.9885433,46.3435175],[28.9872804,46.3429517],[28.9867213,46.3430576],[28.9851432,46.3457406],[28.9837105,46.3482122],[28.9802895,46.354075],[28.9799665,46.3546566],[28.9790081,46.3544103],[28.9753548,46.3535479],[28.9693257,46.3510477],[28.9660077,46.3497334],[28.9646182,46.3491499],[28.9638907,46.3488444],[28.966982,46.3460179],[28.9690222,46.3441458],[28.9699946,46.3431394],[28.9695496,46.3430317],[28.9656943,46.3421727],[28.9630689,46.3415172],[28.9624618,46.3413765],[28.9622839,46.3414532],[28.9621002,46.3415414],[28.9613796,46.3417949],[28.9602368,46.342239],[28.9587881,46.3427895],[28.9585128,46.3428954],[28.9583573,46.3429656],[28.9562982,46.3442358],[28.9556296,46.344613],[28.9556071,46.3446496],[28.9555552,46.3449436],[28.9554758,46.3452453],[28.9558165,46.3456505],[28.955398,46.3466239],[28.9540173,46.3474432],[28.9538027,46.3475559]]]}},{"type":"Feature","properties":{"entity_id":"osm-r18967467","jurisdiction":"MD","display_name":"Sadaclia","display_type":"independent_village","admin_level":9,"tier":"detail","legal_registry":"CUATM","legal_id":"1218","legal_type":"independent_village","parent_catalog_id":"osm-r19113740","osm_relation_id":18967467,"legal_identity_status":"reconciled","geometry_source":"OpenStreetMap","geometry_precision":"master_coordinate_fidelity"},"geometry":{"type":"Polygon","coordinates":[[[28.8976136,46.4320064],[28.8978878,46.4321077],[28.8980988,46.4321923],[28.898249,46.4322491],[28.8983607,46.4322986],[28.8983943,46.4323208],[28.8984964,46.4323624],[28.8984915,46.4323689],[28.8986546,46.432441],[28.8988525,46.4325186],[28.8982964,46.4329629],[28.8976573,46.433453],[28.8978787,46.4335564],[28.8980054,46.4335965],[28.8984681,46.4338454],[28.8991655,46.4341588],[28.8993388,46.434239],[28.899246,46.4343488],[28.8990998,46.4345112],[28.8987866,46.434859],[28.8986304,46.4350327],[28.8984741,46.4352063],[28.8983179,46.4353796],[28.8981621,46.4355527],[28.8980063,46.4357258],[28.8978507,46.4358986],[28.8976953,46.4360712],[28.8975399,46.4362437],[28.8973848,46.4364161],[28.8972298,46.4365883],[28.897075,46.4367602],[28.8969202,46.4369322],[28.8967656,46.4371038],[28.8966111,46.4372753],[28.8964568,46.4374467],[28.8963027,46.4376179],[28.8988913,46.43862],[28.8989384,46.4386375],[28.8985644,46.4390551],[28.898537,46.4390857],[28.8978965,46.4398002],[28.8972348,46.4405383],[28.8972073,46.440569],[28.8965335,46.4413206],[28.8958635,46.442068],[28.8958361,46.4420987],[28.8951698,46.4428419],[28.8944053,46.4436944],[28.8942968,46.4437693],[28.8942241,46.4437802],[28.8941983,46.4438089],[28.8941414,46.4438722],[28.8940907,46.4439285],[28.8940479,46.4439761],[28.8940222,46.4440046],[28.8939702,46.4440624],[28.8939399,46.4440961],[28.8938926,46.4441486],[28.8937946,46.4442575],[28.8937154,46.4443456],[28.8936578,46.4444096],[28.8936201,46.4444514],[28.8935963,46.4444779],[28.8935863,46.4444891],[28.8935701,46.444507],[28.8935066,46.4445775],[28.8934768,46.4446107],[28.893447,46.4446438],[28.8934279,46.444665],[28.8934012,46.4446947],[28.8933775,46.444721],[28.893366,46.4447338],[28.893306,46.4448004],[28.893284,46.4448249],[28.8932498,46.4448629],[28.8932339,46.4448806],[28.8932179,46.4448984],[28.8932019,46.4449161],[28.8931287,46.4449975],[28.8931127,46.4450152],[28.8930878,46.4450429],[28.8930298,46.4451074],[28.8929974,46.4451434],[28.8929696,46.4451743],[28.8929462,46.4452003],[28.8929004,46.4452511],[28.8928936,46.4452587],[28.8928479,46.4453095],[28.8928401,46.4453182],[28.8928333,46.4453253],[28.8928232,46.4453361],[28.8927899,46.4453714],[28.8927736,46.4453887],[28.8927573,46.4454059],[28.8926887,46.4454786],[28.8926187,46.4455528],[28.8925199,46.4456575],[28.8924655,46.4457151],[28.8924159,46.4457677],[28.8923496,46.4458379],[28.8923154,46.4458742],[28.8923054,46.4458848],[28.8922183,46.4459771],[28.8921873,46.44601],[28.8921307,46.44607],[28.8920668,46.4461377],[28.8920464,46.4461593],[28.8919767,46.4462331],[28.891952,46.4462594],[28.8919362,46.4462761],[28.8919204,46.4462928],[28.8918928,46.4463221],[28.8918556,46.4463614],[28.8917565,46.4464665],[28.8916872,46.4465399],[28.8916761,46.4465517],[28.8916701,46.4465588],[28.8916435,46.44659],[28.891596,46.4466459],[28.8915555,46.4466934],[28.8915028,46.4467554],[28.8914843,46.4467771],[28.8914426,46.4468262],[28.8913969,46.44688],[28.8913729,46.4469081],[28.8913489,46.4469363],[28.8913303,46.4469582],[28.8912859,46.4470104],[28.8912565,46.447045],[28.8912156,46.447093],[28.8910977,46.4472316],[28.8910308,46.4473102],[28.8909877,46.4473609],[28.8907615,46.4476268],[28.890693,46.447697],[28.8906269,46.4477647],[28.8903749,46.4480227],[28.89028,46.4481199],[28.8901634,46.4482394],[28.8901389,46.4482644],[28.8901144,46.4482895],[28.8899839,46.4484231],[28.8899159,46.4484927],[28.8898662,46.4485436],[28.8897877,46.4486241],[28.8897536,46.4486621],[28.8897003,46.4487216],[28.8895518,46.4488873],[28.8894599,46.44899],[28.8893591,46.4491025],[28.8892209,46.4492568],[28.8890183,46.4494829],[28.8889055,46.4496098],[28.8888325,46.4496919],[28.8887362,46.4498002],[28.8884896,46.4500777],[28.8883344,46.4502523],[28.8883274,46.4503367],[28.8898165,46.4510613],[28.8897901,46.4511862],[28.8895776,46.4515078],[28.8887689,46.4523707],[28.8880999,46.4520645],[28.8879286,46.4516086],[28.8878539,46.4512239],[28.8872483,46.4509129],[28.8871926,46.4508384],[28.8870648,46.4507819],[28.8868715,46.4509911],[28.8861215,46.4506642],[28.8857763,46.4505076],[28.8849781,46.4501398],[28.8847433,46.4500288],[28.8846276,46.4499741],[28.8843888,46.4501982],[28.8840003,46.4505094],[28.8836762,46.4507577],[28.883379,46.4509898],[28.8830373,46.4512494],[28.8827506,46.4514702],[28.8835361,46.4518029],[28.8840369,46.4520143],[28.8843174,46.452121],[28.8848364,46.4523438],[28.885173,46.4524892],[28.8850774,46.4525731],[28.8841295,46.4533721],[28.882977,46.4543828],[28.8829518,46.4544035],[28.8817689,46.4553968],[28.8805553,46.4564492],[28.8804319,46.4565851],[28.8799485,46.4568036],[28.8795056,46.4569223],[28.8790748,46.4572682],[28.8790428,46.4572969],[28.8784214,46.4578333],[28.8779126,46.4582436],[28.8778904,46.4582609],[28.8778666,46.4582822],[28.8766879,46.4592783],[28.8755253,46.4602837],[28.8755013,46.460305],[28.8747082,46.4610081],[28.873604,46.4619869],[28.8735732,46.4620165],[28.8734889,46.4619878],[28.8730038,46.4618228],[28.8726619,46.4617113],[28.8717403,46.4615338],[28.8708935,46.4613174],[28.8707414,46.4614439],[28.8706199,46.4615502],[28.8704336,46.4617132],[28.870409,46.4617346],[28.8701909,46.4619132],[28.8701433,46.4619521],[28.8700425,46.4620564],[28.8699772,46.4621239],[28.8698424,46.4622632],[28.8697553,46.4623534],[28.8697237,46.462383],[28.869674,46.4624297],[28.869584,46.4625142],[28.8694822,46.4626098],[28.8694359,46.4626533],[28.8693037,46.4627774],[28.8692626,46.462822],[28.8690836,46.4630165],[28.8688878,46.463229],[28.868816,46.4633069],[28.8687396,46.4633961],[28.868672,46.4634751],[28.8684878,46.4636904],[28.8683771,46.4638197],[28.868329,46.4638758],[28.8680769,46.4637788],[28.8677984,46.4636735],[28.867376,46.4635059],[28.8671315,46.4634046],[28.8666851,46.4632273],[28.8666626,46.4632032],[28.8666954,46.4631493],[28.8669567,46.4628341],[28.8671202,46.4626376],[28.867253,46.4624835],[28.8669973,46.4623555],[28.8669198,46.4623529],[28.8660489,46.4619856],[28.8658327,46.4619184],[28.8656455,46.4615629],[28.8655145,46.4613561],[28.8653929,46.4611557],[28.8653117,46.4609141],[28.8652013,46.4607222],[28.8651525,46.4606134],[28.8650446,46.4605398],[28.8649763,46.4605088],[28.8646413,46.4603582],[28.8642525,46.460167],[28.8640031,46.4600542],[28.863529,46.4598309],[28.8633693,46.4597543],[28.863836,46.4591755],[28.8639521,46.4591985],[28.8639676,46.4591656],[28.8640198,46.4591744],[28.8640295,46.4591525],[28.8641192,46.4591626],[28.8644041,46.4592084],[28.8646384,46.4590404],[28.86478,46.4589447],[28.8649076,46.4588651],[28.8649677,46.4588493],[28.8651317,46.4588333],[28.8656123,46.4581725],[28.8654136,46.4581018],[28.8652524,46.4580393],[28.8651276,46.457991],[28.865064,46.4579593],[28.8649796,46.4578908],[28.8648284,46.4577014],[28.8648136,46.4576366],[28.8648226,46.4575988],[28.8647424,46.4575613],[28.8647318,46.45748],[28.8647356,46.4573781],[28.8646351,46.4573585],[28.8646961,46.4571989],[28.8648035,46.4568987],[28.864888,46.4566896],[28.8649082,46.4566241],[28.8649872,46.4563669],[28.8650672,46.4561497],[28.8651642,46.4559198],[28.8651821,46.4558527],[28.865163,46.4557886],[28.8651412,46.4557624],[28.8650778,46.4557169],[28.8648069,46.4555955],[28.8647428,46.4555487],[28.8648752,46.455314],[28.8652563,46.4553318],[28.8652226,46.4553293],[28.8652398,46.4552179],[28.8654926,46.4552091],[28.8654914,46.4549268],[28.8655062,46.454826],[28.8655095,46.4547955],[28.865426,46.4542646],[28.8654307,46.4540604],[28.8654873,46.4540501],[28.8655132,46.4539903],[28.8652122,46.4539286],[28.8651145,46.4538977],[28.8650743,46.4538761],[28.8650428,46.4539628],[28.8650141,46.4539799],[28.864967,46.453983],[28.8645237,46.4538875],[28.8646598,46.4535388],[28.8645146,46.4535018],[28.8640023,46.4534243],[28.8642066,46.4528695],[28.8642913,46.4528086],[28.864293,46.452725],[28.8643231,46.4526248],[28.8643907,46.452481],[28.8644641,46.4524123],[28.8644492,46.4524021],[28.8645619,46.4522046],[28.864067,46.4521036],[28.8643191,46.4518325],[28.8646432,46.4514867],[28.8648585,46.4512596],[28.865384,46.4507123],[28.8655076,46.4505822],[28.8656277,46.4504562],[28.8656978,46.4503786],[28.8654996,46.4501925],[28.8656012,46.4500762],[28.8656756,46.4499909],[28.8660668,46.4498143],[28.8663934,46.449661],[28.8664391,46.4496221],[28.866888,46.4491953],[28.8672434,46.4488397],[28.8684031,46.4476822],[28.8691887,46.4469192],[28.8694365,46.44668],[28.8696656,46.446431],[28.870049,46.4460236],[28.8703717,46.4457165],[28.8706347,46.4454788],[28.8708361,46.4452692],[28.8711525,46.4449534],[28.8713084,46.4447886],[28.8714407,46.4446505],[28.8716742,46.4444051],[28.8721811,46.4438671],[28.8728591,46.4431978],[28.8735844,46.4425026],[28.8740572,46.4420996],[28.8751387,46.4410226],[28.8755366,46.440597],[28.8760235,46.4401165],[28.8762763,46.4398843],[28.8765571,46.439607],[28.8768146,46.4393426],[28.8771798,46.4389847],[28.8773343,46.4387976],[28.8775016,46.4386589],[28.8775339,46.4386181],[28.8775788,46.4385769],[28.8778093,46.4383297],[28.8779198,46.4382163],[28.8781275,46.4380201],[28.8784765,46.4376497],[28.8788369,46.4372788],[28.8790241,46.4371112],[28.8792207,46.4369112],[28.879497,46.4366426],[28.879692,46.4367171],[28.8800106,46.4368473],[28.8802515,46.4369546],[28.8801915,46.4370053],[28.8808555,46.4372956],[28.8812189,46.4374583],[28.8811903,46.4374891],[28.8812718,46.4375172],[28.8813884,46.4375551],[28.8814448,46.4374549],[28.8815394,46.4373348],[28.8816763,46.4371807],[28.8821292,46.4373386],[28.882167,46.437358],[28.8828076,46.4375794],[28.8827419,46.4376759],[28.8828622,46.4376982],[28.8828042,46.4377719],[28.882643,46.4379527],[28.8826551,46.4379591],[28.8825288,46.438167],[28.8824576,46.4383232],[28.8830034,46.4384489],[28.8831252,46.4383989],[28.8843505,46.4385646],[28.8843265,46.4386559],[28.8845916,46.4386779],[28.8847493,46.4384561],[28.8849079,46.438249],[28.8854788,46.4384996],[28.8857185,46.4386128],[28.8858811,46.4386852],[28.885988,46.4385844],[28.8859039,46.4384682],[28.8858554,46.4382428],[28.8860804,46.4381017],[28.8862189,46.4380017],[28.8865329,46.4382016],[28.8866556,46.4380963],[28.8867935,46.4378605],[28.8865186,46.4377483],[28.8864653,46.4377175],[28.8866245,46.4375076],[28.8865365,46.4374644],[28.8866358,46.4373511],[28.8867702,46.4371821],[28.8868676,46.437064],[28.8870131,46.4368755],[28.8870979,46.4367833],[28.8872607,46.4365813],[28.8875492,46.4366725],[28.8876607,46.436683],[28.8876965,46.4367111],[28.8877451,46.4367326],[28.8879411,46.4364807],[28.8880108,46.4363948],[28.8880505,46.4363587],[28.8881135,46.4363459],[28.8884402,46.4364625],[28.8884738,46.4364885],[28.8887178,46.4365629],[28.8888567,46.4363557],[28.8889829,46.4362921],[28.889005,46.4362073],[28.8896502,46.4361277],[28.8899373,46.4360969],[28.8900663,46.4360698],[28.8902354,46.4360806],[28.8903148,46.4361079],[28.8904769,46.4361831],[28.8903856,46.436277],[28.8904044,46.4362864],[28.8904327,46.4362998],[28.8906136,46.4361496],[28.8910714,46.4363713],[28.8909798,46.4364747],[28.8904999,46.436976],[28.890461,46.4370139],[28.8907071,46.4371134],[28.8913896,46.4373953],[28.8914094,46.4374229],[28.8913875,46.4374485],[28.8915414,46.4375272],[28.8920029,46.4377349],[28.8922206,46.4378414],[28.8922177,46.4378577],[28.8922482,46.4378758],[28.8925536,46.4376394],[28.8924479,46.4376313],[28.8923385,46.437613],[28.8922175,46.4375713],[28.8920356,46.43749],[28.8920529,46.4374703],[28.8919672,46.4374297],[28.8920423,46.4372512],[28.8921397,46.4370454],[28.8921629,46.436893],[28.8922236,46.4367422],[28.8923057,46.4365513],[28.8923169,46.4364653],[28.8922464,46.4364323],[28.8923058,46.4362601],[28.8923504,46.4362684],[28.8924805,46.4359509],[28.8926928,46.4360298],[28.8927856,46.4358479],[28.8925352,46.4357713],[28.8925826,46.435635],[28.892804,46.4357044],[28.8928069,46.4356497],[28.8928159,46.4354731],[28.8928041,46.4353539],[28.8927848,46.4352191],[28.8928089,46.4351596],[28.8928756,46.4350774],[28.8927554,46.4350298],[28.892565,46.4349543],[28.8926991,46.4346169],[28.892886,46.4347011],[28.8930917,46.4347938],[28.8932031,46.4344877],[28.8932095,46.4344701],[28.8928069,46.4343366],[28.8927916,46.4343267],[28.8928075,46.4338531],[28.8928378,46.4338043],[28.8929267,46.4337445],[28.8929244,46.4336724],[28.892967,46.4335771],[28.8930194,46.4335035],[28.8933095,46.4332001],[28.8935876,46.4332152],[28.8936497,46.4331596],[28.8938633,46.4329311],[28.8939099,46.4329022],[28.8941296,46.4327443],[28.8942206,46.4327828],[28.8942569,46.4327595],[28.8942755,46.4326854],[28.8943597,46.4325854],[28.8945329,46.4324177],[28.8947575,46.4322113],[28.8949151,46.4320606],[28.8955673,46.4324048],[28.8959689,46.4326115],[28.8962516,46.4327485],[28.8964726,46.4326093],[28.8965087,46.4325719],[28.8965646,46.432514],[28.8965971,46.4324804],[28.8967256,46.4323473],[28.8968119,46.4322579],[28.8968958,46.4321711],[28.896991,46.4320724],[28.8971035,46.431956],[28.8974014,46.4319205],[28.8976136,46.4320064]]]}},{"type":"Feature","properties":{"entity_id":"osm-r18967514","jurisdiction":"MD","display_name":"Iserlia","display_type":"commune","admin_level":9,"tier":"detail","legal_registry":"CUATM","legal_id":"1214","legal_type":"commune","parent_catalog_id":"osm-r19113742","osm_relation_id":18967514,"legal_identity_status":"reconciled","geometry_source":"OpenStreetMap","geometry_precision":"master_coordinate_fidelity"},"geometry":{"type":"MultiPolygon","coordinates":[[[[28.9494792,46.4939359],[28.9494649,46.4937979],[28.9494667,46.4937129],[28.9494978,46.4935498],[28.9495042,46.4933721],[28.9495547,46.4931573],[28.9495712,46.4929262],[28.9495575,46.4929244],[28.9495687,46.4927873],[28.9495796,46.4927852],[28.9495701,46.4926696],[28.9494632,46.4926517],[28.9494866,46.4923977],[28.949507,46.4922005],[28.9495195,46.4920209],[28.9495546,46.4917004],[28.949578,46.4915191],[28.9496018,46.4912884],[28.9496413,46.4910536],[28.9496624,46.4908766],[28.9496763,46.4905499],[28.9497106,46.4905156],[28.9497542,46.4902577],[28.9500862,46.4900706],[28.9502114,46.4894782],[28.9506514,46.4895274],[28.9506873,46.4893448],[28.9507319,46.489144],[28.9508226,46.4888121],[28.9508791,46.4887646],[28.9505529,46.4887043],[28.950203,46.4886473],[28.9498456,46.4886103],[28.9498504,46.4885444],[28.9498748,46.4885479],[28.9499209,46.4884339],[28.9499421,46.4883018],[28.9500317,46.4879848],[28.9501969,46.4875247],[28.9501508,46.4875185],[28.9501236,46.4875067],[28.9500568,46.4873994],[28.9500068,46.487264],[28.9500043,46.487244],[28.9500466,46.4870527],[28.9500932,46.4868615],[28.9500767,46.4868572],[28.9501091,46.4866969],[28.9501383,46.4866525],[28.95014,46.4865117],[28.9501594,46.486442],[28.9500398,46.4863588],[28.9497443,46.4863264],[28.9501476,46.4850241],[28.9501664,46.4850138],[28.9510583,46.485136],[28.9511053,46.4850161],[28.9511797,46.4850102],[28.9511825,46.4849961],[28.9512164,46.4848832],[28.9511979,46.4848728],[28.9512261,46.4848493],[28.9512646,46.4847584],[28.9513015,46.4846513],[28.9509926,46.4846152],[28.9511159,46.4841592],[28.9511918,46.4838185],[28.9514339,46.4838504],[28.9514525,46.4838439],[28.9514673,46.48362],[28.9514967,46.48342],[28.9515029,46.4833135],[28.9515268,46.4832451],[28.9515721,46.4831819],[28.9515775,46.4831674],[28.951506,46.4831612],[28.9514485,46.4831381],[28.9514521,46.4831013],[28.9515188,46.4829422],[28.9515787,46.4829476],[28.9516406,46.4827014],[28.9516987,46.4824547],[28.9517522,46.4821989],[28.951766,46.4821439],[28.9517742,46.4819611],[28.9517866,46.4818539],[28.9518218,46.4817242],[28.9518745,46.4815358],[28.9519826,46.4813294],[28.9521606,46.4811582],[28.9523259,46.4810309],[28.9524722,46.4809256],[28.9523758,46.4806932],[28.9524063,46.4806206],[28.9525186,46.4804479],[28.952636,46.4802096],[28.9526681,46.4801146],[28.9527133,46.4799791],[28.9527625,46.4798554],[28.9528211,46.4797268],[28.9529858,46.4794715],[28.9530703,46.4793724],[28.9532305,46.4792083],[28.9535296,46.4790117],[28.9535859,46.4789815],[28.9537985,46.4787138],[28.953745,46.4786979],[28.9539742,46.4784426],[28.9540045,46.4784505],[28.9540964,46.4783522],[28.9541938,46.4782873],[28.9543397,46.4782552],[28.9544944,46.4780788],[28.9544826,46.4780563],[28.9544784,46.4780271],[28.954633,46.4777883],[28.9548437,46.4773425],[28.9549526,46.4771883],[28.9551091,46.4772335],[28.9551262,46.4772042],[28.9553498,46.4769093],[28.9555684,46.4769828],[28.9558609,46.4770702],[28.9563364,46.4772276],[28.9563803,46.4772478],[28.9567868,46.4773771],[28.9567713,46.4773968],[28.9567996,46.4774077],[28.9569312,46.4773795],[28.957054,46.4772322],[28.9573189,46.4769957],[28.957571,46.4766699],[28.9576679,46.476344],[28.957752,46.4760762],[28.9575582,46.4760315],[28.9573902,46.4759422],[28.9572546,46.4757904],[28.9572352,46.4756788],[28.9573387,46.4753128],[28.9574227,46.4750718],[28.957552,46.4748129],[28.9578298,46.47463],[28.9581141,46.474505],[28.9580947,46.4744158],[28.9581723,46.474206],[28.9582176,46.4740364],[28.9583855,46.4738936],[28.9586052,46.4739025],[28.9588765,46.4739651],[28.9590981,46.4736782],[28.9587454,46.4735967],[28.9587581,46.4735564],[28.9582258,46.4734096],[28.9582881,46.4732617],[28.9583592,46.473161],[28.9587596,46.4732719],[28.958797,46.473217],[28.9588485,46.4730949],[28.9590379,46.4728582],[28.959078,46.4719988],[28.9590819,46.4717174],[28.9589536,46.4716646],[28.9589199,46.4716346],[28.9589344,46.4715472],[28.9590076,46.4713569],[28.9588758,46.47128],[28.9587025,46.4712618],[28.9586874,46.4712403],[28.958739,46.4710678],[28.9586712,46.4710501],[28.9587955,46.47083],[28.9588837,46.470653],[28.9589108,46.470621],[28.9590144,46.4706402],[28.9590972,46.4705173],[28.9591652,46.4704907],[28.9592433,46.4704848],[28.9593123,46.4703662],[28.9594009,46.4702485],[28.9594722,46.4701148],[28.959652,46.4698238],[28.9596653,46.4698107],[28.9597737,46.4695724],[28.9598788,46.4694008],[28.9599269,46.4694077],[28.9600546,46.4692005],[28.9600718,46.4691697],[28.9600987,46.469091],[28.9601704,46.4690045],[28.9602386,46.4689943],[28.9604309,46.4690145],[28.960883,46.4690831],[28.9609229,46.4690891],[28.9612899,46.4691701],[28.9614124,46.4691713],[28.9616642,46.4692145],[28.9618388,46.4692567],[28.9618653,46.469271],[28.9620145,46.4693031],[28.9616911,46.4696828],[28.9622148,46.4697997],[28.9624141,46.4700666],[28.9624774,46.4702445],[28.9624309,46.4704021],[28.9623937,46.4705866],[28.9623746,46.4707989],[28.9623355,46.4709938],[28.9622635,46.4711991],[28.9623032,46.4712063],[28.9622445,46.4713864],[28.9622257,46.4714337],[28.9621458,46.4715588],[28.9620474,46.4717442],[28.961775,46.4721816],[28.9616009,46.4724493],[28.9613849,46.4726848],[28.9612997,46.4728124],[28.9612372,46.4729611],[28.9611041,46.4732654],[28.9609642,46.4735663],[28.9608449,46.4738284],[28.9608665,46.4738374],[28.9608292,46.4740097],[28.9608632,46.4740187],[28.9607906,46.4742644],[28.9606785,46.474466],[28.9605739,46.4747229],[28.960617,46.4747338],[28.9605206,46.4749356],[28.960432,46.4751274],[28.9603233,46.4753101],[28.9602833,46.4754076],[28.9602462,46.47552],[28.9603522,46.4755427],[28.9602974,46.4757105],[28.9603473,46.475726],[28.9602912,46.4760655],[28.9598399,46.4767031],[28.9597818,46.4770592],[28.9597181,46.477193],[28.9597434,46.4772313],[28.9596784,46.4773858],[28.9597625,46.477425],[28.9596588,46.4776241],[28.9596564,46.4776712],[28.959348,46.4781934],[28.9592492,46.4782673],[28.9589558,46.4786832],[28.9593142,46.4785152],[28.959961,46.4785457],[28.9599541,46.4785851],[28.959879,46.4790187],[28.9598151,46.4793548],[28.9597962,46.4794545],[28.9597637,46.4796597],[28.9597488,46.4797557],[28.9597275,46.479894],[28.959736,46.4799801],[28.9597292,46.4800121],[28.9596767,46.4802581],[28.9596068,46.4805774],[28.9595514,46.4808161],[28.9595362,46.4809114],[28.9595235,46.4809907],[28.9595039,46.4811137],[28.9595141,46.4813031],[28.9594954,46.4816031],[28.9593702,46.4819847],[28.9593232,46.482291],[28.9592261,46.4827086],[28.9591312,46.4833076],[28.9590552,46.4832954],[28.959006,46.4832947],[28.9589871,46.4835037],[28.9589556,46.4837263],[28.9589326,46.4839085],[28.9589001,46.48393],[28.9574881,46.4838532],[28.9573962,46.4838559],[28.956901,46.4838428],[28.9567477,46.4846026],[28.9566312,46.4851247],[28.9566266,46.4857466],[28.9565961,46.4860337],[28.9565505,46.4860505],[28.956506,46.4860669],[28.9564039,46.4866168],[28.9564463,46.4869556],[28.9582447,46.4867073],[28.9582191,46.486812],[28.9581929,46.4869187],[28.9581668,46.4870252],[28.9581407,46.4871316],[28.9581159,46.487238],[28.9580999,46.4873456],[28.9580838,46.4874536],[28.9580676,46.4875618],[28.9580514,46.4876703],[28.9580413,46.4877383],[28.9580345,46.487779],[28.9580164,46.4878877],[28.9579983,46.4879965],[28.9579801,46.4881053],[28.957962,46.4882142],[28.9579467,46.4883236],[28.9579327,46.4884334],[28.9579187,46.4885434],[28.9579046,46.4886536],[28.9578906,46.488764],[28.9578764,46.4888748],[28.9578545,46.4889845],[28.9578315,46.489094],[28.9578086,46.4892034],[28.9577856,46.4893127],[28.9577627,46.489422],[28.9577389,46.489531],[28.9577149,46.4896399],[28.9576871,46.4897481],[28.9576585,46.489856],[28.9576299,46.4899635],[28.9576015,46.4900708],[28.9575737,46.4901779],[28.957547,46.4902849],[28.9575204,46.4903917],[28.9574939,46.4904983],[28.9574674,46.4906047],[28.9574445,46.4907113],[28.957423,46.4908179],[28.9574016,46.4909243],[28.9573802,46.4910306],[28.9573588,46.4911367],[28.95734,46.4912442],[28.9573249,46.4913565],[28.9573091,46.491474],[28.9572925,46.4915973],[28.9572752,46.4917254],[28.9572571,46.4918561],[28.9572358,46.491989],[28.9572141,46.4921246],[28.9571919,46.4922634],[28.9571687,46.4924085],[28.9571473,46.4925673],[28.9571234,46.4927441],[28.9570925,46.4929477],[28.957048,46.4931945],[28.9570207,46.4933457],[28.9569791,46.493525],[28.9569085,46.4938289],[28.9568022,46.4942472],[28.9567477,46.4942918],[28.9566028,46.4943027],[28.9563297,46.4942806],[28.955855,46.494203],[28.9556405,46.4941594],[28.9549456,46.4940604],[28.9548457,46.4940342],[28.9548088,46.4940366],[28.9546897,46.4940286],[28.9542029,46.493968],[28.9539319,46.4939335],[28.9538042,46.4939047],[28.9535929,46.493844],[28.9533046,46.493916],[28.953261,46.4939344],[28.9530096,46.4938971],[28.9528048,46.4938612],[28.9527659,46.493926],[28.9524684,46.4939825],[28.9522186,46.4940357],[28.9519306,46.4940537],[28.9517516,46.4940583],[28.9514991,46.4940711],[28.9511861,46.4940757],[28.9510083,46.4940657],[28.9510077,46.4940575],[28.9508183,46.4940403],[28.9507601,46.4940344],[28.9507451,46.4940843],[28.9506738,46.4940849],[28.9506671,46.4941007],[28.9504835,46.4941019],[28.9500492,46.4940966],[28.9499799,46.494095],[28.9499292,46.4940899],[28.9496204,46.4939931],[28.9494792,46.4939359]]],[[[28.9480357,46.4795052],[28.9481878,46.4792928],[28.9483994,46.4789975],[28.9485286,46.4788171],[28.9486266,46.4786802],[28.9488197,46.4784236],[28.9489051,46.4782679],[28.9489797,46.478146],[28.94901,46.4781463],[28.9491873,46.477866],[28.9492818,46.4778355],[28.9494062,46.4775654],[28.9496693,46.4772244],[28.9499107,46.4768539],[28.9501119,46.4765733],[28.9503228,46.4762786],[28.9505181,46.4760055],[28.9511734,46.4762113],[28.9511029,46.476332],[28.9515314,46.4764296],[28.95137,46.4767301],[28.9512609,46.4769049],[28.9508806,46.477451],[28.9506782,46.4777904],[28.95046,46.478092],[28.9502714,46.478353],[28.9500942,46.478631],[28.9499039,46.4789344],[28.9497522,46.47909],[28.9496031,46.479215],[28.9495047,46.4793584],[28.9494353,46.479464],[28.9493101,46.4796659],[28.949232,46.4796635],[28.9491867,46.4796521],[28.9491052,46.4796426],[28.9490996,46.4796513],[28.9489978,46.4796266],[28.9480357,46.4795052]]]]}},{"type":"Feature","properties":{"entity_id":"osm-r18967622","jurisdiction":"MD","display_name":"Bașcalia","display_type":"independent_village","admin_level":9,"tier":"detail","legal_registry":"CUATM","legal_id":"1211","legal_type":"independent_village","parent_catalog_id":"osm-r19113741","osm_relation_id":18967622,"legal_identity_status":"reconciled","geometry_source":"OpenStreetMap","geometry_precision":"master_coordinate_fidelity"},"geometry":{"type":"Polygon","coordinates":[[[28.7803977,46.3189788],[28.7803695,46.3188041],[28.7802263,46.3182605],[28.7800975,46.3178383],[28.7798574,46.31662],[28.7796309,46.3166856],[28.7794689,46.3162314],[28.7788271,46.3162163],[28.7789493,46.3159891],[28.7786815,46.315442],[28.7788747,46.3147495],[28.7787154,46.3142497],[28.7782435,46.3130835],[28.7783686,46.3129516],[28.777262,46.3106669],[28.7772061,46.3098556],[28.7769528,46.3095116],[28.7765682,46.3090898],[28.7762961,46.3089015],[28.7759958,46.3088106],[28.7758175,46.3086678],[28.7756383,46.3084749],[28.7753277,46.3082134],[28.7748204,46.3081774],[28.7741046,46.308195],[28.7737884,46.3073523],[28.7737709,46.3072963],[28.7737152,46.3071222],[28.7736106,46.3067728],[28.7722978,46.306771],[28.7719128,46.3067704],[28.7709044,46.3050282],[28.7717082,46.305172],[28.7719754,46.3052586],[28.773091,46.3056196],[28.7734005,46.3057873],[28.7734753,46.3056546],[28.7731298,46.3026654],[28.7728995,46.3009119],[28.7724025,46.2972499],[28.7722376,46.2968114],[28.7722028,46.2964432],[28.7721778,46.296058],[28.7722507,46.2958147],[28.7724162,46.2954937],[28.7726255,46.2950072],[28.7726004,46.2946018],[28.7728484,46.2939024],[28.7736053,46.2939226],[28.7741668,46.2938178],[28.7743242,46.2922298],[28.7799992,46.2924893],[28.7800209,46.2924944],[28.7803756,46.2925025],[28.7809995,46.2926352],[28.7823846,46.2927145],[28.7834669,46.2927761],[28.7834615,46.2929234],[28.783364,46.2932404],[28.7832892,46.2934162],[28.7832727,46.2934598],[28.7830732,46.2934105],[28.7830409,46.2934025],[28.7829233,46.2937557],[28.7828655,46.2939797],[28.7828201,46.2942731],[28.7828095,46.2942992],[28.7826914,46.2948365],[28.78264,46.2950894],[28.7826495,46.2953913],[28.7830531,46.2954896],[28.7843073,46.2956957],[28.7855866,46.2958643],[28.7855778,46.2964016],[28.7859306,46.2964741],[28.7859496,46.2973561],[28.7854732,46.2972233],[28.7854552,46.2973819],[28.7853007,46.2981868],[28.7851649,46.2983784],[28.7847711,46.2985213],[28.784161,46.2985181],[28.7833116,46.2984436],[28.78257,46.2983365],[28.7820543,46.2985801],[28.7809416,46.2982069],[28.7807586,46.2982199],[28.7805288,46.2982978],[28.780527,46.2984623],[28.7805519,46.2987217],[28.7806547,46.2987008],[28.7808831,46.2988918],[28.7809848,46.2991965],[28.7811488,46.2991684],[28.7812464,46.2993969],[28.7813011,46.2995727],[28.7815534,46.2996383],[28.7817972,46.2998882],[28.7819409,46.2999883],[28.7820028,46.3001124],[28.7817503,46.3003917],[28.7841213,46.3011423],[28.7846465,46.3011111],[28.7849762,46.3011062],[28.7853005,46.3011622],[28.7853312,46.3011894],[28.7855676,46.3013299],[28.7856098,46.3013073],[28.7858987,46.3012227],[28.7863582,46.3013665],[28.7867581,46.3014355],[28.7867664,46.3014733],[28.7868759,46.3015355],[28.7869518,46.3016765],[28.7870712,46.3017045],[28.7874165,46.301628],[28.7874348,46.3016589],[28.7879041,46.301565],[28.7882884,46.301968],[28.7883165,46.302101],[28.788289,46.3021639],[28.7881007,46.3022711],[28.7874191,46.3025503],[28.7874423,46.3026365],[28.787508,46.3026593],[28.7886045,46.3024443],[28.7889005,46.3023954],[28.7893126,46.3024134],[28.7898495,46.3024305],[28.7903354,46.3025528],[28.7905633,46.3026362],[28.7909388,46.3027049],[28.7911119,46.3027516],[28.7911178,46.3027726],[28.7912783,46.3028111],[28.791489,46.3028707],[28.7915912,46.3028681],[28.7915953,46.3029131],[28.7919811,46.3029967],[28.7925514,46.3030599],[28.7928757,46.3031092],[28.793677,46.3032543],[28.7956726,46.3033859],[28.7969767,46.3034705],[28.7981948,46.3035525],[28.7996207,46.3036361],[28.7994841,46.3042757],[28.7994324,46.3047852],[28.7993996,46.3051682],[28.7994089,46.3053856],[28.7990476,46.3055479],[28.7987707,46.3056323],[28.7982333,46.3057038],[28.7977452,46.3059148],[28.7971211,46.3062347],[28.7971645,46.3062507],[28.7973035,46.3065033],[28.7973367,46.3065392],[28.7973556,46.3065416],[28.797487,46.3065989],[28.7975367,46.3066585],[28.7975914,46.3067902],[28.7977832,46.307162],[28.7980057,46.3071456],[28.7981072,46.3074042],[28.7981288,46.3075633],[28.7974436,46.3076985],[28.7969039,46.3078213],[28.7966333,46.3079589],[28.7967016,46.30814],[28.7967375,46.3081395],[28.7968191,46.308258],[28.7968361,46.3084281],[28.796816,46.3084315],[28.7968093,46.3087795],[28.7968117,46.3089404],[28.7968069,46.3090703],[28.796808,46.3091327],[28.7967863,46.309343],[28.796786,46.3094301],[28.7967926,46.3095884],[28.7968014,46.3096728],[28.7967754,46.3097626],[28.7970386,46.3098586],[28.797987,46.3099874],[28.7980119,46.3101205],[28.7980721,46.31028],[28.7979254,46.3102615],[28.7978733,46.3104489],[28.7977939,46.3105404],[28.7977832,46.310892],[28.7975901,46.3110519],[28.7974539,46.3111448],[28.7971217,46.3112412],[28.7967888,46.3113152],[28.7963907,46.3113556],[28.7960621,46.3113751],[28.7959072,46.311414],[28.7957336,46.3114335],[28.795574,46.3114336],[28.7953018,46.3115017],[28.7950765,46.311505],[28.7948841,46.3114856],[28.7946682,46.3114239],[28.7945086,46.3113201],[28.7945086,46.3113526],[28.7944804,46.3116284],[28.7944147,46.3118393],[28.7942551,46.3120276],[28.7940204,46.3121412],[28.7937904,46.3121802],[28.7935463,46.3121607],[28.7931896,46.3120504],[28.7930793,46.3122938],[28.7933442,46.3123879],[28.793385,46.3124095],[28.7934913,46.31248],[28.7935498,46.3125078],[28.7936938,46.3125632],[28.7938221,46.3126208],[28.7941339,46.3127885],[28.7942495,46.3128572],[28.7942848,46.3128867],[28.7943774,46.3129572],[28.7944935,46.3130232],[28.7945507,46.3130395],[28.7951883,46.313374],[28.7952754,46.3134092],[28.7952051,46.3135022],[28.795194,46.3135183],[28.7950511,46.3135532],[28.7948881,46.3136383],[28.7948064,46.313629],[28.7945806,46.3135758],[28.7944894,46.3141532],[28.7943531,46.3150196],[28.7942567,46.3150194],[28.7936898,46.3150405],[28.7935825,46.3150423],[28.7935521,46.3150325],[28.793549,46.3151138],[28.7930481,46.3151446],[28.7930141,46.3151423],[28.7928641,46.3151614],[28.7926285,46.315166],[28.7925675,46.3151405],[28.7923462,46.3150855],[28.7922965,46.3150924],[28.7920946,46.3151056],[28.7917771,46.3151505],[28.7917653,46.315108],[28.7915722,46.315127],[28.7915124,46.3151456],[28.7912817,46.3151561],[28.7912348,46.3151516],[28.7911368,46.3151319],[28.7910816,46.3149701],[28.7908856,46.3149927],[28.790888,46.3149974],[28.7907196,46.3150159],[28.7906193,46.3150308],[28.7904594,46.3150409],[28.7898882,46.3151036],[28.7898818,46.315025],[28.7895869,46.3150361],[28.7895811,46.3151231],[28.7895786,46.315558],[28.7894681,46.3155779],[28.7894407,46.3155876],[28.7884556,46.3156327],[28.7884482,46.3156219],[28.7883639,46.3156273],[28.7883898,46.3161649],[28.7882806,46.3162029],[28.7876295,46.3163635],[28.787432,46.316507],[28.7874092,46.316603],[28.7884058,46.3196811],[28.7883049,46.3197314],[28.7881922,46.3197849],[28.7880491,46.3198336],[28.7878049,46.3199391],[28.7876547,46.3199813],[28.7874904,46.3200202],[28.7873308,46.3200657],[28.7871537,46.3201295],[28.7871123,46.3201399],[28.7870137,46.32019],[28.7869481,46.3202235],[28.7868606,46.3202911],[28.7867141,46.3204044],[28.7866502,46.3204538],[28.7865591,46.3205018],[28.7863976,46.320587],[28.7863789,46.320597],[28.7862185,46.3206388],[28.7860371,46.3206861],[28.7859846,46.3206985],[28.7855295,46.3198743],[28.7843302,46.3196342],[28.782725,46.3193194],[28.7809085,46.3190371],[28.7803977,46.3189788]]]}},{"type":"Feature","properties":{"entity_id":"osm-r18967718","jurisdiction":"MD","display_name":"Carabetovca","display_type":"independent_village","admin_level":9,"tier":"detail","legal_registry":"CUATM","legal_id":"1212","legal_type":"independent_village","parent_catalog_id":"osm-r19113739","osm_relation_id":18967718,"legal_identity_status":"reconciled","geometry_source":"OpenStreetMap","geometry_precision":"master_coordinate_fidelity"},"geometry":{"type":"Polygon","coordinates":[[[28.9134206,46.4049834],[28.9137446,46.4051448],[28.9138559,46.4052207],[28.9141093,46.4053428],[28.9148868,46.4057343],[28.915263,46.4058999],[28.9152849,46.4058819],[28.9156453,46.406035],[28.9158763,46.4058067],[28.9160088,46.4058356],[28.916323,46.4059042],[28.916541,46.4059904],[28.9167516,46.4058473],[28.9168021,46.405821],[28.9173192,46.4060409],[28.9175052,46.4059177],[28.9176547,46.4059044],[28.9176911,46.4059025],[28.9178252,46.4059199],[28.9183351,46.4059238],[28.9184278,46.4058299],[28.9185454,46.4058788],[28.9186158,46.4058956],[28.9187082,46.4059078],[28.9190491,46.4060655],[28.9190663,46.406096],[28.9191418,46.4061458],[28.9192784,46.406009],[28.9193833,46.4060567],[28.9201383,46.4063997],[28.9207222,46.4066651],[28.9206383,46.4067546],[28.9207301,46.4068162],[28.9210391,46.4069291],[28.9195918,46.4117276],[28.9190282,46.4138031],[28.9175374,46.4190404],[28.917438,46.4193885],[28.917887,46.4235025],[28.9175823,46.4234024],[28.9174613,46.4233479],[28.9172198,46.423239],[28.9170991,46.4231846],[28.9169785,46.4231302],[28.9169381,46.423112],[28.9168555,46.4230786],[28.9167308,46.4230282],[28.9166058,46.4229777],[28.9163543,46.422876],[28.9162279,46.4228249],[28.9159252,46.4231732],[28.9157682,46.423353],[28.9156794,46.4234541],[28.9156035,46.4235444],[28.9153628,46.4238163],[28.9153383,46.4238526],[28.914791,46.4246716],[28.9147758,46.4246965],[28.9142665,46.4255243],[28.9140797,46.425459],[28.9139128,46.4254007],[28.9137453,46.4253421],[28.9135772,46.4252834],[28.9134085,46.4252244],[28.9132393,46.4251653],[28.9130695,46.4251059],[28.9125532,46.4259575],[28.9125332,46.4259891],[28.9124335,46.425953],[28.9123202,46.425911],[28.9121092,46.4258326],[28.9120189,46.4257991],[28.9119513,46.425774],[28.9118312,46.4257294],[28.9116662,46.4256682],[28.9113969,46.4255682],[28.9113671,46.4255571],[28.9111359,46.4254713],[28.9109127,46.4253884],[28.9107621,46.4253326],[28.9105742,46.4252629],[28.9105598,46.4252579],[28.9104865,46.4252322],[28.9094049,46.4248587],[28.9094208,46.4248341],[28.9093366,46.4247952],[28.9089826,46.4246773],[28.9087435,46.4245943],[28.9085275,46.4245212],[28.9082237,46.4244183],[28.9079959,46.4243411],[28.907827,46.4242772],[28.9075189,46.4241605],[28.9071424,46.4240178],[28.9069496,46.4239487],[28.9067336,46.4238712],[28.9064887,46.4237834],[28.9062659,46.4237035],[28.9060104,46.4236047],[28.9059741,46.4235906],[28.9057504,46.4235041],[28.9055653,46.4234325],[28.9051529,46.4232759],[28.9056568,46.4226881],[28.9058738,46.4224216],[28.9060557,46.4222052],[28.9064032,46.4217805],[28.9067252,46.4214074],[28.9069935,46.4211151],[28.90723,46.4208289],[28.9072633,46.4207802],[28.9072437,46.4207632],[28.9072485,46.4207254],[28.9073963,46.4205322],[28.9074295,46.4204917],[28.9072222,46.4204121],[28.9066211,46.420152],[28.9065905,46.4201894],[28.9061505,46.4200159],[28.9061785,46.4198115],[28.9061822,46.4196532],[28.9060479,46.4196115],[28.9060274,46.4195135],[28.905509,46.4192972],[28.9047595,46.4189769],[28.9046783,46.4189392],[28.903994,46.4186462],[28.9043063,46.4183768],[28.9043259,46.4183205],[28.9044581,46.4181926],[28.9044245,46.4180775],[28.904606,46.4178707],[28.9047,46.4179045],[28.9048881,46.4177057],[28.9048188,46.4176701],[28.9050018,46.417483],[28.9054579,46.4169966],[28.9061961,46.4172714],[28.9062329,46.4172833],[28.9063194,46.4171821],[28.906394,46.4170909],[28.9066028,46.4168804],[28.9066079,46.416874],[28.9067334,46.4168033],[28.9069001,46.4166766],[28.9069236,46.4166873],[28.907163,46.4164155],[28.9072944,46.4159992],[28.9074055,46.4159142],[28.9079779,46.4150785],[28.9080947,46.4149071],[28.908069,46.4148046],[28.908345,46.4142699],[28.9085341,46.4139002],[28.9086241,46.4137882],[28.908671,46.4137916],[28.9086992,46.4137519],[28.9087183,46.4137113],[28.9089283,46.4134846],[28.9091047,46.4132994],[28.909459,46.4129298],[28.9095041,46.4128838],[28.909736,46.4126434],[28.9101359,46.4128477],[28.9103185,46.4129053],[28.9104235,46.4128572],[28.9104907,46.4128155],[28.9106881,46.4126473],[28.9109194,46.4124771],[28.9111312,46.412316],[28.9113146,46.412173],[28.9114307,46.4122085],[28.911593,46.4120449],[28.9114977,46.4120031],[28.9116551,46.4118665],[28.9119519,46.4116133],[28.9122384,46.4113754],[28.9124682,46.4111962],[28.9125139,46.4112059],[28.9126055,46.4112676],[28.9128407,46.4110914],[28.9127844,46.4110689],[28.9128449,46.4109966],[28.9129621,46.4108782],[28.9132205,46.4106944],[28.9135538,46.4103624],[28.9130936,46.410059],[28.9125945,46.4098192],[28.9123424,46.4097034],[28.9123303,46.4096566],[28.9123205,46.4094471],[28.9118433,46.4093232],[28.9113239,46.409133],[28.9107985,46.4088637],[28.9106404,46.4087758],[28.9106754,46.408737],[28.9107896,46.4086082],[28.9105951,46.4085353],[28.9104971,46.4084827],[28.9105527,46.4083115],[28.9104755,46.4081229],[28.9104997,46.408067],[28.9101104,46.4078816],[28.9101455,46.4077393],[28.9103319,46.4075073],[28.9104802,46.4073681],[28.910335,46.4072805],[28.9105143,46.4071178],[28.9104829,46.4070963],[28.9106118,46.4069806],[28.910763,46.4068729],[28.9109851,46.4067],[28.9111527,46.4065446],[28.911327,46.4064052],[28.9113675,46.4064239],[28.9115685,46.4062839],[28.911578,46.4062772],[28.9118443,46.4060907],[28.9119477,46.4060192],[28.9120601,46.4059404],[28.9120679,46.4059422],[28.9123598,46.4057313],[28.9125652,46.4055747],[28.9129243,46.4053203],[28.9130807,46.4052152],[28.9134206,46.4049834]]]}},{"type":"Feature","properties":{"entity_id":"osm-r18967848","jurisdiction":"MD","display_name":"Ivanovca","display_type":"component_locality","admin_level":9,"tier":"detail","legal_registry":"CUATM","legal_id":"1217","legal_type":null,"parent_catalog_id":"osm-r19113742","osm_relation_id":18967848,"legal_identity_status":"reconciled","geometry_source":"OpenStreetMap","geometry_precision":"master_coordinate_fidelity"},"geometry":{"type":"Polygon","coordinates":[[[28.941759,46.5116466],[28.9419037,46.5114243],[28.9420746,46.5111318],[28.9422666,46.5108844],[28.9423758,46.5109215],[28.9425834,46.5106416],[28.9424592,46.5105925],[28.9425754,46.5104636],[28.9427207,46.5102919],[28.9427844,46.5102317],[28.9428345,46.5100673],[28.9429513,46.5099127],[28.9430591,46.5097252],[28.9431638,46.509545],[28.9433921,46.5096159],[28.9435766,46.5093316],[28.9435909,46.5093064],[28.9436798,46.5091618],[28.9438007,46.508969],[28.9439685,46.5088085],[28.9440168,46.508695],[28.944077,46.5086154],[28.9441577,46.5084657],[28.9442051,46.5084115],[28.9444367,46.5080793],[28.9446116,46.507803],[28.9445252,46.5077714],[28.9445585,46.5077046],[28.9445593,46.5076934],[28.9445886,46.5076374],[28.944631,46.5075779],[28.9447456,46.5074177],[28.9448996,46.5072246],[28.9449291,46.5072169],[28.9451652,46.5068922],[28.9452612,46.5067625],[28.9453679,46.5066288],[28.9454215,46.5066406],[28.945628,46.5063756],[28.9458915,46.5060373],[28.945965,46.5059943],[28.9462052,46.5056797],[28.9462133,46.5056366],[28.9463108,46.5055156],[28.9464353,46.5053272],[28.9465386,46.5051787],[28.9466855,46.505002],[28.9470024,46.504646],[28.9471821,46.5043991],[28.9472068,46.5043776],[28.9474847,46.5040241],[28.9476282,46.5038411],[28.9477866,46.5036489],[28.9478482,46.5036386],[28.9479906,46.5036852],[28.9481943,46.5037638],[28.9483885,46.5035326],[28.9484919,46.5033789],[28.9484898,46.5033501],[28.9485393,46.5032974],[28.9485983,46.5032095],[28.9485316,46.5031847],[28.9487465,46.5027374],[28.948824,46.5024926],[28.9489124,46.5023397],[28.9489351,46.5022824],[28.9490365,46.5020334],[28.9490357,46.5020252],[28.9491659,46.5018007],[28.9493047,46.5018438],[28.9503832,46.5022162],[28.9505959,46.5022359],[28.95063,46.502166],[28.9507494,46.5019417],[28.9509979,46.5014763],[28.9511566,46.501182],[28.9512689,46.5009735],[28.9512842,46.5009707],[28.9512935,46.5009801],[28.9513084,46.5009801],[28.9513162,46.5009691],[28.9513058,46.5009593],[28.9512881,46.5009601],[28.95128,46.5009499],[28.951331,46.5008435],[28.9514513,46.500621],[28.9514727,46.5005985],[28.9515328,46.5006042],[28.9517346,46.5006366],[28.9517738,46.500652],[28.9518276,46.5006785],[28.951856,46.5006993],[28.9518934,46.5007663],[28.9518936,46.5008452],[28.9518639,46.5011419],[28.9518385,46.5011997],[28.9518168,46.5012212],[28.9518288,46.5012678],[28.95189,46.5012893],[28.9518634,46.5013553],[28.9520201,46.5013989],[28.9524782,46.501489],[28.9524486,46.5017623],[28.9524368,46.5019128],[28.9520583,46.5018526],[28.9518893,46.5022188],[28.9517775,46.5024612],[28.9518844,46.5025542],[28.9518472,46.5027008],[28.9523056,46.5028349],[28.9524531,46.5027555],[28.9524807,46.5027106],[28.9531572,46.5029033],[28.9531332,46.5029491],[28.9529607,46.5032781],[28.9529147,46.5033658],[28.9527645,46.5036521],[28.9527203,46.5037363],[28.952583,46.5039981],[28.9525622,46.5040389],[28.9524433,46.5042724],[28.9523779,46.504441],[28.9524989,46.5044747],[28.9526715,46.504532],[28.9526245,46.504607],[28.95251,46.5047898],[28.9524178,46.5049187],[28.9523066,46.5050744],[28.9522361,46.5051864],[28.9521509,46.5053218],[28.9520546,46.5054748],[28.9520151,46.5055377],[28.9519703,46.5056095],[28.9519627,46.5056217],[28.9519276,46.5056818],[28.9518749,46.5057719],[28.9516924,46.5060839],[28.9515331,46.5063563],[28.9514873,46.5064347],[28.9514721,46.5064607],[28.9514163,46.506556],[28.9514012,46.5065819],[28.9512907,46.5067708],[28.951201,46.5069242],[28.9510679,46.507152],[28.9510532,46.5071772],[28.9510287,46.5072191],[28.9510141,46.5072442],[28.9510043,46.5072609],[28.9509217,46.5074023],[28.9507781,46.5076483],[28.9506354,46.5078886],[28.9505379,46.5080468],[28.9503943,46.5082825],[28.9502522,46.5085158],[28.9501117,46.5087466],[28.9499776,46.5089667],[28.9492248,46.5087644],[28.949,46.5087032],[28.9488473,46.5089615],[28.9487486,46.5091559],[28.948649,46.5093199],[28.9486104,46.5094098],[28.9483337,46.50939],[28.9480285,46.5093746],[28.9477041,46.5093439],[28.947348,46.5092561],[28.9468296,46.5099194],[28.9466761,46.510134],[28.9468546,46.5101411],[28.94743,46.510334],[28.9474486,46.5103601],[28.9473451,46.5105041],[28.9471974,46.5107093],[28.9469634,46.5110344],[28.9467443,46.5109893],[28.9462162,46.5108652],[28.9462153,46.5108469],[28.9460192,46.5108214],[28.945847,46.5108303],[28.9457031,46.5109713],[28.9455746,46.5111011],[28.9453345,46.5113338],[28.9450785,46.5115646],[28.9447776,46.5118021],[28.9445143,46.5120235],[28.944448,46.512011],[28.9437883,46.511803],[28.9437643,46.5117723],[28.9437794,46.5117576],[28.9437552,46.5117479],[28.9436248,46.5117002],[28.9435943,46.5116873],[28.9434619,46.5118008],[28.9431832,46.51204],[28.9429883,46.511974],[28.9428347,46.5119277],[28.9426935,46.5118835],[28.9426405,46.5118979],[28.9425949,46.5118934],[28.9421894,46.5117791],[28.941759,46.5116466]]]}},{"type":"Feature","properties":{"entity_id":"osm-r18967964","jurisdiction":"MD","display_name":"Bogdanovca","display_type":"component_locality","admin_level":9,"tier":"detail","legal_registry":"CUATM","legal_id":"1215","legal_type":null,"parent_catalog_id":"osm-r19113742","osm_relation_id":18967964,"legal_identity_status":"reconciled","geometry_source":"OpenStreetMap","geometry_precision":"master_coordinate_fidelity"},"geometry":{"type":"Polygon","coordinates":[[[28.9287807,46.522091],[28.9286395,46.5219612],[28.9301302,46.5169386],[28.9301861,46.516754],[28.9301983,46.5167137],[28.9302146,46.5166574],[28.9303032,46.5163513],[28.930312,46.5163211],[28.9303483,46.5162231],[28.9303965,46.5160931],[28.9304448,46.5159627],[28.9304457,46.5159608],[28.9305097,46.5158175],[28.9305116,46.5158121],[28.9305407,46.5157298],[28.9305689,46.5156605],[28.930631,46.515508],[28.9306938,46.5153541],[28.9307378,46.5150974],[28.9314105,46.5139411],[28.9317774,46.5133022],[28.9319379,46.5129907],[28.9323413,46.512111],[28.932658,46.5114859],[28.9329111,46.5109717],[28.9330516,46.5107861],[28.9332084,46.5105328],[28.9338466,46.5094241],[28.9338924,46.5092921],[28.9321647,46.5090807],[28.9323195,46.5088943],[28.9324884,46.5086746],[28.9326497,46.508595],[28.9332559,46.5086515],[28.9332162,46.5089288],[28.9328588,46.5090042],[28.9328531,46.5090491],[28.9337864,46.5091883],[28.9339378,46.5088969],[28.9340546,46.5087775],[28.934188,46.5085972],[28.9342655,46.5084438],[28.934431,46.5082478],[28.9344902,46.507932],[28.9345397,46.5078945],[28.9346168,46.5077111],[28.9347201,46.5076355],[28.93479,46.5076138],[28.9348651,46.507611],[28.9349106,46.507603],[28.9352771,46.5076862],[28.935637,46.5077696],[28.9357307,46.5077949],[28.9357492,46.5077627],[28.9358568,46.5074518],[28.9359638,46.5071881],[28.9360186,46.5070916],[28.9364181,46.5072187],[28.9368274,46.507368],[28.9368809,46.5074184],[28.9369431,46.5074656],[28.9368262,46.5076403],[28.9367706,46.5076948],[28.936735,46.5077436],[28.9367065,46.5077372],[28.9367021,46.5077559],[28.9365448,46.5079936],[28.9364735,46.5081509],[28.9364561,46.5081836],[28.936547,46.5082008],[28.9363405,46.5085572],[28.9363249,46.5085845],[28.9361044,46.5088818],[28.9358088,46.5088166],[28.9356698,46.508903],[28.9355252,46.5092017],[28.9353541,46.5094694],[28.9352186,46.5096757],[28.9350026,46.5100439],[28.934814,46.5103475],[28.9346707,46.5105931],[28.9345767,46.5107376],[28.9345259,46.5108089],[28.9344384,46.5109405],[28.9344308,46.5109397],[28.9343482,46.5110572],[28.9341972,46.5112636],[28.9340717,46.5114366],[28.9340495,46.5114382],[28.9340427,46.5114464],[28.9338999,46.511655],[28.9339483,46.511672],[28.9338239,46.511884],[28.9340328,46.5119444],[28.9339289,46.5121574],[28.9338062,46.5123997],[28.9337048,46.5125949],[28.9336841,46.5126364],[28.9335824,46.5128185],[28.9335382,46.5129034],[28.9334841,46.5129988],[28.9334787,46.5130101],[28.9333791,46.5131897],[28.9332683,46.5133851],[28.9331012,46.5136627],[28.9330487,46.513735],[28.9329211,46.5139779],[28.9329176,46.5139868],[28.9328988,46.5139832],[28.9328953,46.5139953],[28.9329138,46.5139997],[28.9327962,46.5142357],[28.9328282,46.5142447],[28.9326774,46.5145534],[28.9326431,46.5146151],[28.932536,46.5148386],[28.9324883,46.5149382],[28.9324812,46.5149385],[28.9323877,46.5151255],[28.9322273,46.5154529],[28.9321784,46.515533],[28.9320698,46.515574],[28.932045,46.5155667],[28.9318556,46.5155983],[28.9317391,46.5157408],[28.9316749,46.5158193],[28.9315883,46.5158747],[28.9314203,46.5159823],[28.9313157,46.5159652],[28.9312981,46.5159773],[28.9311172,46.5161019],[28.931099,46.5161145],[28.9310668,46.5162339],[28.931031,46.5163665],[28.9309959,46.5164968],[28.9309928,46.5165083],[28.9309085,46.5168032],[28.9308983,46.5168386],[28.9308784,46.5168994],[28.9308288,46.5170513],[28.930761,46.5172587],[28.9307767,46.5176137],[28.9315438,46.5177081],[28.930569,46.5221459],[28.9299424,46.522205],[28.9287807,46.522091]]]}}]}