{"type":"FeatureCollection","metadata":{"schema_version":1,"contract":"actual-public-geometry-v1","mode":"ACTUAL","jurisdiction":"RO","tier":"detail","feature_count":11,"geometry_source":"OpenStreetMap","geometry_precision":"simplified_for_web"},"features":[{"type":"Feature","properties":{"entity_id":"osm-r7960937","jurisdiction":"RO","display_name":"Sector 3","display_type":"sector","admin_level":9,"tier":"detail","legal_registry":null,"legal_id":null,"legal_type":null,"parent_catalog_id":"osm-r377733","osm_relation_id":7960937,"legal_identity_status":"not_bound_to_official_registry","geometry_source":"OpenStreetMap","geometry_precision":"simplified_for_web"},"geometry":{"type":"Polygon","coordinates":[[[26.0980375,44.4348971],[26.0956331,44.4316273],[26.0966021,44.4295421],[26.1013051,44.4286369],[26.1011852,44.4261183],[26.1084347,44.4252204],[26.1115836,44.4186809],[26.1241474,44.4081389],[26.1818368,44.39379],[26.2121336,44.3950713],[26.2117331,44.3986302],[26.2140856,44.3991666],[26.212285,44.4031897],[26.2103804,44.4040706],[26.2080396,44.4033666],[26.2085013,44.4051466],[26.2119027,44.4045904],[26.2111774,44.4063643],[26.2180856,44.4074916],[26.217788,44.4170071],[26.2182789,44.4186397],[26.2215748,44.4181326],[26.2244714,44.4244618],[26.2208015,44.4254824],[26.2209047,44.4263514],[26.2227531,44.4263458],[26.2255768,44.4324077],[26.219079,44.4311529],[26.2151018,44.4349747],[26.2115379,44.4330072],[26.2092378,44.4334758],[26.2064739,44.4356141],[26.2049469,44.4388354],[26.1978179,44.4393801],[26.1966958,44.4410187],[26.1975356,44.4425516],[26.1929336,44.4412711],[26.185437,44.4352057],[26.1845263,44.4375894],[26.1818725,44.435611],[26.1809343,44.4379559],[26.1777185,44.436264],[26.1696792,44.4371712],[26.1676419,44.4367786],[26.167917,44.4352085],[26.1603009,44.4348712],[26.1493324,44.4321376],[26.1320369,44.4318387],[26.1248665,44.4327319],[26.1234182,44.4338853],[26.1222241,44.4330256],[26.1179457,44.4341135],[26.1145796,44.4331591],[26.1116202,44.4349101],[26.1086115,44.4336668],[26.10574,44.436219],[26.0980375,44.4348971]]]}},{"type":"Feature","properties":{"entity_id":"osm-r7960953","jurisdiction":"RO","display_name":"Sector 2","display_type":"sector","admin_level":9,"tier":"detail","legal_registry":null,"legal_id":null,"legal_type":null,"parent_catalog_id":"osm-r377733","osm_relation_id":7960953,"legal_identity_status":"not_bound_to_official_registry","geometry_source":"OpenStreetMap","geometry_precision":"simplified_for_web"},"geometry":{"type":"Polygon","coordinates":[[[26.1148374,44.4873845],[26.1054843,44.4875802],[26.1057001,44.4848708],[26.1076869,44.4829816],[26.1056202,44.4847299],[26.1029675,44.4849296],[26.1038087,44.4806994],[26.1024346,44.4861316],[26.1016691,44.4817285],[26.1027294,44.4804865],[26.1017453,44.4798491],[26.1059363,44.4771427],[26.1037575,44.4756382],[26.1063441,44.4717221],[26.1038197,44.4691124],[26.1050432,44.4684398],[26.1036286,44.4688483],[26.1027276,44.4675109],[26.1034352,44.4670691],[26.1024878,44.4669713],[26.1007978,44.4584744],[26.1008571,44.4547017],[26.1022645,44.4534973],[26.1010281,44.4535012],[26.1011357,44.4525152],[26.1039882,44.4498395],[26.1028629,44.4494028],[26.1041108,44.4489761],[26.1032235,44.4477022],[26.1042761,44.4454133],[26.1029597,44.4447598],[26.1031727,44.4430224],[26.1011489,44.4422424],[26.1007101,44.4400345],[26.1015726,44.4376249],[26.103942,44.4380445],[26.1048767,44.4370875],[26.1037628,44.4358944],[26.1064277,44.4359746],[26.1086115,44.4336668],[26.1126488,44.4348629],[26.1145796,44.4331591],[26.1179457,44.4341135],[26.1320369,44.4318387],[26.1493324,44.4321376],[26.1603009,44.4348712],[26.167917,44.4352085],[26.1676419,44.4367786],[26.1696792,44.4371712],[26.1777185,44.436264],[26.1809343,44.4379559],[26.1818725,44.435611],[26.1845263,44.4375894],[26.185437,44.4352057],[26.1929336,44.4412711],[26.1975356,44.4425516],[26.1958471,44.445748],[26.1931065,44.4468547],[26.1877882,44.443807],[26.1816778,44.4459923],[26.1758116,44.4443907],[26.1743457,44.445991],[26.1772315,44.4497636],[26.1774464,44.4535507],[26.1744179,44.4536105],[26.1691107,44.4507219],[26.1665263,44.452919],[26.1624707,44.4530997],[26.1559667,44.4554463],[26.1641266,44.465228],[26.178731,44.4775733],[26.1848972,44.4791121],[26.1148374,44.4873845]]]}},{"type":"Feature","properties":{"entity_id":"osm-r7960954","jurisdiction":"RO","display_name":"Sector 1","display_type":"sector","admin_level":9,"tier":"detail","legal_registry":null,"legal_id":null,"legal_type":null,"parent_catalog_id":"osm-r377733","osm_relation_id":7960954,"legal_identity_status":"not_bound_to_official_registry","geometry_source":"OpenStreetMap","geometry_precision":"simplified_for_web"},"geometry":{"type":"Polygon","coordinates":[[[25.9796231,44.4704404],[25.9904743,44.4785622],[25.9987478,44.47966],[26.0041408,44.4790593],[26.0186442,44.4741264],[26.0251342,44.4699201],[26.0308064,44.4705733],[26.0283296,44.4686313],[26.0309722,44.4687441],[26.0303238,44.4680043],[26.0368383,44.4662633],[26.0406646,44.4638978],[26.0414384,44.4644987],[26.0440742,44.462185],[26.0460353,44.463056],[26.0469248,44.4625498],[26.0460783,44.4614747],[26.0555827,44.4575132],[26.0568535,44.4550118],[26.0597284,44.4547626],[26.0577066,44.4537955],[26.0603824,44.4533424],[26.0623777,44.4495284],[26.0617611,44.4515614],[26.0631113,44.4518776],[26.062896,44.4483361],[26.0656478,44.448012],[26.0694413,44.4442762],[26.0703187,44.4449761],[26.0699096,44.4439397],[26.071472,44.4436988],[26.0715538,44.4425439],[26.072899,44.443231],[26.0718814,44.442073],[26.0729714,44.4419715],[26.0727715,44.4396052],[26.0700586,44.4381951],[26.0748565,44.4357024],[26.0787164,44.4345203],[26.0788308,44.4366413],[26.0811717,44.4358095],[26.0831229,44.4366299],[26.0837024,44.4345843],[26.1037628,44.4358944],[26.1048767,44.4370875],[26.103942,44.4380445],[26.1015726,44.4376249],[26.1007101,44.4400345],[26.1011489,44.4422424],[26.1031727,44.4430224],[26.1029597,44.4447598],[26.1042761,44.4454133],[26.1032235,44.4477022],[26.1041108,44.4489761],[26.1028629,44.4494028],[26.1039882,44.4498395],[26.1011357,44.4525152],[26.1010281,44.4535012],[26.1022645,44.4534973],[26.1008571,44.4547017],[26.1007978,44.4584744],[26.1024878,44.4669713],[26.1034352,44.4670691],[26.1027276,44.4675109],[26.1036286,44.4688483],[26.1050432,44.4684398],[26.1038197,44.4691124],[26.1063441,44.4717221],[26.1037575,44.4756382],[26.1059363,44.4771427],[26.1017453,44.4798491],[26.1027294,44.4804865],[26.1016691,44.4817285],[26.1024346,44.4861316],[26.1038087,44.4806994],[26.1029675,44.4849296],[26.1056202,44.4847299],[26.1076869,44.4829816],[26.1057001,44.4848708],[26.1054843,44.4875802],[26.1148823,44.4875506],[26.1106488,44.4907322],[26.1116797,44.4922804],[26.1043995,44.5016387],[26.1097611,44.5033564],[26.1087368,44.5059206],[26.1040788,44.504938],[26.1028657,44.5087834],[26.1044598,44.5166441],[26.1055387,44.5155391],[26.1062315,44.5184083],[26.1043721,44.5198442],[26.1050234,44.5264137],[26.1032775,44.5295308],[26.1044818,44.5395441],[26.1018507,44.5395953],[26.1007373,44.5413964],[26.0977537,44.5412252],[26.0969004,44.5392326],[26.0777017,44.5371169],[26.0767022,44.5407262],[26.0730251,44.5413832],[26.0692811,44.5393722],[26.0686004,44.5348509],[26.0501733,44.5300786],[26.0494947,44.5313153],[26.0492154,44.5298237],[26.0335258,44.5235548],[26.0293138,44.5276927],[26.0240187,44.5259086],[26.0224677,44.522987],[26.0253479,44.5201409],[26.0128765,44.5151713],[26.0107006,44.5159994],[26.0085778,44.514806],[26.009522,44.5127191],[26.0064463,44.4996975],[25.9985712,44.4990379],[25.9948159,44.4958682],[25.9877324,44.4996449],[25.983276,44.4980384],[25.9829624,44.497024],[25.9843322,44.4965962],[25.9836031,44.495037],[25.987956,44.4927007],[25.9861156,44.4914137],[25.9878453,44.492107],[25.9807027,44.4780493],[25.9796231,44.4704404]]]}},{"type":"Feature","properties":{"entity_id":"osm-r7960955","jurisdiction":"RO","display_name":"Sector 6","display_type":"sector","admin_level":9,"tier":"detail","legal_registry":null,"legal_id":null,"legal_type":null,"parent_catalog_id":"osm-r377733","osm_relation_id":7960955,"legal_identity_status":"not_bound_to_official_registry","geometry_source":"OpenStreetMap","geometry_precision":"simplified_for_web"},"geometry":{"type":"Polygon","coordinates":[[[25.9961988,44.4066639],[25.9992642,44.4071489],[25.99923,44.4096441],[26.0001696,44.4072045],[26.0099545,44.4084182],[26.0095285,44.4109026],[26.0098039,44.4101314],[26.0119942,44.4107507],[26.012572,44.4087276],[26.0149583,44.4085215],[26.0164468,44.4102589],[26.0160015,44.4117465],[26.0172039,44.4107402],[26.0205776,44.4123019],[26.0194136,44.4104091],[26.0220719,44.4124935],[26.0250001,44.4128722],[26.0244432,44.4117906],[26.025816,44.4129638],[26.0259031,44.4121755],[26.0269661,44.4130561],[26.026214,44.4121253],[26.0317077,44.4136359],[26.028618,44.4098187],[26.0325354,44.4136491],[26.034415,44.4139582],[26.0305743,44.4099688],[26.0298129,44.407497],[26.0336792,44.4061181],[26.0367509,44.4101946],[26.0391617,44.4096908],[26.0393196,44.4085352],[26.0452533,44.4074317],[26.0468128,44.4085444],[26.0465093,44.4097709],[26.0436928,44.4110819],[26.052829,44.4128114],[26.0525142,44.4145175],[26.0537339,44.4148915],[26.0530217,44.4163821],[26.0544836,44.4153942],[26.0566551,44.4162685],[26.0560683,44.4173285],[26.0605022,44.4198975],[26.0594119,44.421025],[26.0602506,44.4210359],[26.0603783,44.4273754],[26.0617085,44.4280136],[26.0598072,44.4316561],[26.0598208,44.4344659],[26.0702918,44.4374347],[26.0733075,44.4407118],[26.0718814,44.442073],[26.0730066,44.4430603],[26.0715538,44.4425439],[26.071472,44.4436988],[26.0699096,44.4439397],[26.0703187,44.4449761],[26.0694413,44.4442762],[26.0656478,44.448012],[26.062896,44.4483361],[26.0631113,44.4518776],[26.0617611,44.4515614],[26.0623777,44.4495284],[26.0603824,44.4533424],[26.0577066,44.4537955],[26.0595649,44.4549399],[26.0568535,44.4550118],[26.0555827,44.4575132],[26.0459615,44.4615618],[26.0469248,44.4625498],[26.0440742,44.462185],[26.0414384,44.4644987],[26.0406646,44.4638978],[26.0368383,44.4662633],[26.0303238,44.4680043],[26.0309722,44.4687441],[26.0283296,44.4686313],[26.0308064,44.4705733],[26.0251342,44.4699201],[26.0186442,44.4741264],[26.0027423,44.4793873],[25.9899629,44.4783301],[25.9764474,44.4676987],[25.9772894,44.4671493],[25.9761319,44.4656073],[25.9821012,44.467042],[26.0065604,44.458349],[26.0133841,44.4580187],[26.0158999,44.4553934],[26.0131749,44.4541202],[26.0147297,44.449689],[26.0179505,44.449664],[26.0198033,44.448387],[26.019251,44.4460126],[26.0123348,44.4429485],[25.9666745,44.4407414],[25.9695697,44.4195976],[25.9762948,44.4063859],[25.9890094,44.4073516],[25.995521,44.4092732],[25.9961988,44.4066639]]]}},{"type":"Feature","properties":{"entity_id":"osm-r7960956","jurisdiction":"RO","display_name":"Sector 5","display_type":"sector","admin_level":9,"tier":"detail","legal_registry":null,"legal_id":null,"legal_type":null,"parent_catalog_id":"osm-r377733","osm_relation_id":7960956,"legal_identity_status":"not_bound_to_official_registry","geometry_source":"OpenStreetMap","geometry_precision":"simplified_for_web"},"geometry":{"type":"Polygon","coordinates":[[[26.0861192,44.369371],[26.0885719,44.3692012],[26.0872666,44.3721625],[26.0896978,44.3718588],[26.0889577,44.3722416],[26.0904894,44.3761892],[26.0895764,44.3765337],[26.091439,44.3802371],[26.085681,44.3807182],[26.0852646,44.3825421],[26.083641,44.3833004],[26.0855535,44.3846054],[26.0878264,44.3815781],[26.0920375,44.3852825],[26.0908733,44.3854843],[26.0908943,44.38824],[26.0931796,44.394261],[26.0954093,44.3967711],[26.0916398,44.3965239],[26.0953969,44.3974404],[26.0964118,44.3996072],[26.0920408,44.3998076],[26.0948118,44.4017632],[26.094032,44.4025602],[26.0967874,44.4035831],[26.0946444,44.4062502],[26.0950294,44.4076209],[26.0911253,44.4109929],[26.0916174,44.4119015],[26.0891707,44.4112088],[26.0910309,44.4142004],[26.0931205,44.4140765],[26.0936341,44.4150466],[26.088265,44.417985],[26.0876945,44.41948],[26.0903752,44.42414],[26.0948214,44.4259798],[26.0931584,44.426612],[26.0932687,44.4278701],[26.0964965,44.4292355],[26.0966708,44.4310328],[26.0956331,44.4316273],[26.0980375,44.4348971],[26.0837024,44.4345843],[26.0831229,44.4366299],[26.0811717,44.4358095],[26.0788308,44.4366413],[26.0787164,44.4345203],[26.0700586,44.4381951],[26.0702918,44.4374347],[26.0598208,44.4344659],[26.0598072,44.4316561],[26.0617085,44.4280136],[26.0603783,44.4273754],[26.0602506,44.4210359],[26.0594119,44.421025],[26.0605022,44.4198975],[26.0560683,44.4173285],[26.0566551,44.4162685],[26.0544836,44.4153942],[26.0530217,44.4163821],[26.0537339,44.4148915],[26.0525142,44.4145175],[26.052829,44.4128114],[26.0436928,44.4110819],[26.0465093,44.4097709],[26.0468128,44.4085444],[26.0452533,44.4074317],[26.0393196,44.4085352],[26.0391617,44.4096908],[26.0367509,44.4101946],[26.0336792,44.4061181],[26.0298129,44.407497],[26.0305743,44.4099688],[26.034415,44.4139582],[26.0325354,44.4136491],[26.028618,44.4098187],[26.0317077,44.4136359],[26.026214,44.4121253],[26.0269661,44.4130561],[26.0259031,44.4121755],[26.025816,44.4129638],[26.0244432,44.4117906],[26.0250001,44.4128722],[26.0220719,44.4124935],[26.0194136,44.4104091],[26.0205776,44.4123019],[26.0172039,44.4107402],[26.0160015,44.4117465],[26.0164468,44.4102589],[26.0149583,44.4085215],[26.012572,44.4087276],[26.0119942,44.4107507],[26.0098039,44.4101314],[26.0095285,44.4109026],[26.0099545,44.4084182],[26.0001696,44.4072045],[25.99923,44.4096441],[25.9992642,44.4071489],[25.9961988,44.4066639],[25.997272,44.4028199],[26.0024778,44.4034962],[26.003331,44.4016963],[26.0108775,44.4057668],[26.028489,44.389704],[26.0313274,44.3883849],[26.035044,44.3909205],[26.0394286,44.3870932],[26.0330426,44.3831817],[26.0457571,44.3749876],[26.0470377,44.3776944],[26.0540398,44.3760699],[26.0560933,44.3795457],[26.0689504,44.3746489],[26.0716664,44.3789688],[26.0769713,44.3780806],[26.0753265,44.3719929],[26.0861192,44.369371]]]}},{"type":"Feature","properties":{"entity_id":"osm-r7960957","jurisdiction":"RO","display_name":"Sector 4","display_type":"sector","admin_level":9,"tier":"detail","legal_registry":null,"legal_id":null,"legal_type":null,"parent_catalog_id":"osm-r377733","osm_relation_id":7960957,"legal_identity_status":"not_bound_to_official_registry","geometry_source":"OpenStreetMap","geometry_precision":"simplified_for_web"},"geometry":{"type":"Polygon","coordinates":[[[26.0881463,44.3692421],[26.0935304,44.3629042],[26.0948153,44.3631542],[26.0954708,44.3599713],[26.0979145,44.3622628],[26.0990819,44.3675712],[26.1135888,44.3656117],[26.1123229,44.3609023],[26.1303865,44.3512013],[26.1274337,44.3483469],[26.1519506,44.3342466],[26.1565182,44.3355371],[26.1571706,44.3376368],[26.1561539,44.3393755],[26.1668033,44.3436442],[26.1643428,44.346806],[26.1612704,44.3455816],[26.1486209,44.3635013],[26.1428446,44.3694542],[26.1448822,44.3720345],[26.1436283,44.3729251],[26.1485028,44.3782231],[26.1474994,44.378632],[26.1619825,44.3984069],[26.1241474,44.4081389],[26.1115836,44.4186809],[26.1086249,44.4250663],[26.1011852,44.4261183],[26.1013051,44.4286369],[26.0997941,44.4292177],[26.0966021,44.4295421],[26.0932687,44.4278701],[26.0931584,44.426612],[26.0948214,44.4259798],[26.0903752,44.42414],[26.0876945,44.41948],[26.088265,44.417985],[26.0936341,44.4150466],[26.0931205,44.4140765],[26.0910309,44.4142004],[26.0891707,44.4112088],[26.0916174,44.4119015],[26.0911253,44.4109929],[26.0950294,44.4076209],[26.0946444,44.4062502],[26.0967874,44.4035831],[26.094032,44.4025602],[26.0948118,44.4017632],[26.0920408,44.3998076],[26.0964118,44.3996072],[26.0953969,44.3974404],[26.0916398,44.3965239],[26.0954093,44.3967711],[26.0931796,44.394261],[26.0908943,44.38824],[26.0908733,44.3854843],[26.0920375,44.3852825],[26.0878264,44.3815781],[26.0855535,44.3846054],[26.083641,44.3833004],[26.0852646,44.3825421],[26.085681,44.3807182],[26.091439,44.3802371],[26.0895764,44.3765337],[26.0904894,44.3761892],[26.0889577,44.3722416],[26.0896978,44.3718588],[26.0872666,44.3721625],[26.0881463,44.3692421]]]}},{"type":"Feature","properties":{"entity_id":"osm-r11283027","jurisdiction":"RO","display_name":"Mureșeni","display_type":"municipality_component_locality_boundary_representation","admin_level":9,"tier":"detail","legal_registry":null,"legal_id":null,"legal_type":null,"parent_catalog_id":"osm-r8334767","osm_relation_id":11283027,"legal_identity_status":"not_bound_to_official_registry","geometry_source":"OpenStreetMap","geometry_precision":"simplified_for_web"},"geometry":{"type":"Polygon","coordinates":[[[24.5288815,46.5221402],[24.5235228,46.5274537],[24.5174932,46.5276161],[24.5142531,46.5291662],[24.5069468,46.5282287],[24.5066678,46.5264867],[24.5097041,46.5229212],[24.5179063,46.5160111],[24.5288815,46.5221402]]]}},{"type":"Feature","properties":{"entity_id":"osm-r11283576","jurisdiction":"RO","display_name":"Remetea","display_type":"municipality_component_locality_boundary_representation","admin_level":9,"tier":"detail","legal_registry":null,"legal_id":null,"legal_type":null,"parent_catalog_id":"osm-r8334767","osm_relation_id":11283576,"legal_identity_status":"not_bound_to_official_registry","geometry_source":"OpenStreetMap","geometry_precision":"simplified_for_web"},"geometry":{"type":"Polygon","coordinates":[[[24.4934325,46.5792838],[24.4964647,46.5793652],[24.5010996,46.5771897],[24.5049512,46.578436],[24.5035779,46.5773888],[24.5066142,46.5764669],[24.5057452,46.5758991],[24.5069629,46.575003],[24.5053053,46.5738045],[24.5082718,46.5727536],[24.5085347,46.5715698],[24.5121288,46.5729859],[24.5126009,46.5713154],[24.5156264,46.5714444],[24.5214731,46.5692606],[24.5193601,46.5667313],[24.5200628,46.5662444],[24.5303786,46.5661375],[24.5312637,46.5636452],[24.5297843,46.5616197],[24.5345682,46.5583365],[24.5338708,46.5569311],[24.5358127,46.5559315],[24.5389026,46.5562856],[24.5428991,46.5597271],[24.5411235,46.5607193],[24.5415258,46.5633529],[24.5403564,46.5643708],[24.5415621,46.5675064],[24.5243168,46.5739742],[24.5210606,46.5792177],[24.5172626,46.5821932],[24.5181531,46.5828495],[24.5154387,46.5848644],[24.5159832,46.5857335],[24.5139136,46.586668],[24.5085619,46.5859811],[24.5101763,46.5846516],[24.5076588,46.5834367],[24.5037983,46.5865283],[24.4985889,46.5831252],[24.494744,46.5838827],[24.4934325,46.5792838]]]}},{"type":"Feature","properties":{"entity_id":"osm-r11366846","jurisdiction":"RO","display_name":"Sat Vălureni","display_type":"component_village_boundary_representation","admin_level":9,"tier":"detail","legal_registry":null,"legal_id":null,"legal_type":null,"parent_catalog_id":"osm-r11318838","osm_relation_id":11366846,"legal_identity_status":"not_bound_to_official_registry","geometry_source":"OpenStreetMap","geometry_precision":"simplified_for_web"},"geometry":{"type":"Polygon","coordinates":[[[24.5614237,46.503878],[24.5581233,46.5046474],[24.5638418,46.5021735],[24.5630801,46.501387],[24.560414,46.5026055],[24.5595396,46.5016602],[24.5517826,46.5099124],[24.5475232,46.5114187],[24.5378244,46.5122382],[24.5379209,46.5108243],[24.534241,46.5101007],[24.5313388,46.5073796],[24.5240378,46.5091629],[24.520905,46.5016639],[24.5166135,46.5017525],[24.5149637,46.4985245],[24.516452,46.497912],[24.5181492,46.5001644],[24.5202798,46.4997002],[24.5194742,46.4978097],[24.5212664,46.492778],[24.5237401,46.4933588],[24.5232987,46.4953906],[24.5257533,46.4933608],[24.5241345,46.4907306],[24.5405249,46.4923236],[24.5481542,46.4917912],[24.5544862,46.4894895],[24.5618239,46.4947695],[24.5633073,46.4939518],[24.569891,46.495609],[24.5651351,46.4982055],[24.5664696,46.5014509],[24.5614237,46.503878]]]}},{"type":"Feature","properties":{"entity_id":"osm-r11366847","jurisdiction":"RO","display_name":"Sat Cristești","display_type":"component_village_boundary_representation","admin_level":9,"tier":"detail","legal_registry":null,"legal_id":null,"legal_type":null,"parent_catalog_id":"osm-r11318838","osm_relation_id":11366847,"legal_identity_status":"not_bound_to_official_registry","geometry_source":"OpenStreetMap","geometry_precision":"simplified_for_web"},"geometry":{"type":"Polygon","coordinates":[[[24.5015305,46.4887026],[24.504114,46.4922052],[24.5012556,46.4942014],[24.5036771,46.4944572],[24.5097593,46.4903023],[24.5159322,46.500017],[24.5142853,46.5015827],[24.511013,46.5021772],[24.5096505,46.5068332],[24.5064801,46.5103628],[24.4986992,46.5072647],[24.5004934,46.5091555],[24.4918674,46.5131575],[24.4837252,46.5091036],[24.480711,46.5097817],[24.4771178,46.5124327],[24.4735225,46.5122194],[24.471842,46.5102847],[24.4727122,46.5059236],[24.4710447,46.5040918],[24.4655851,46.5024433],[24.4617491,46.4985056],[24.4536647,46.4968538],[24.4577104,46.4954264],[24.4620538,46.4958772],[24.465671,46.4940869],[24.468777,46.4950411],[24.4764219,46.4947346],[24.4825292,46.4977762],[24.4818314,46.4949775],[24.5015305,46.4887026]]]}},{"type":"Feature","properties":{"entity_id":"osm-r12557978","jurisdiction":"RO","display_name":"Bărdești","display_type":"component_village_boundary_representation","admin_level":9,"tier":"detail","legal_registry":null,"legal_id":null,"legal_type":null,"parent_catalog_id":"osm-r11318833","osm_relation_id":12557978,"legal_identity_status":"not_bound_to_official_registry","geometry_source":"OpenStreetMap","geometry_precision":"simplified_for_web"},"geometry":{"type":"Polygon","coordinates":[[[24.5159832,46.5857335],[24.5173289,46.5851661],[24.5199053,46.5889404],[24.5222843,46.5858119],[24.5232117,46.5873409],[24.5244856,46.5857229],[24.5297859,46.5870339],[24.529246,46.5841094],[24.5386149,46.5861605],[24.536696,46.5863694],[24.533527,46.5904136],[24.5352034,46.5913258],[24.5308306,46.5982633],[24.5128201,46.601382],[24.5085401,46.6060467],[24.5036605,46.6075549],[24.4927639,46.6082895],[24.4906919,46.6027509],[24.4929406,46.596596],[24.4898796,46.5901676],[24.4925289,46.5844017],[24.4985889,46.5831252],[24.5037983,46.5865283],[24.5076588,46.5834367],[24.510154,46.5845915],[24.5090479,46.5848833],[24.5091463,46.5861539],[24.5126654,46.5869876],[24.5159832,46.5857335]]]}}]}