{"type":"FeatureCollection","metadata":{"schema_version":1,"contract":"actual-public-geometry-chunk-v1","mode":"ACTUAL","jurisdiction":"MD","tier":"local","root_entity_id":"osm-r58983","feature_count":3,"geometry_source":"OpenStreetMap","geometry_precision":"master_coordinate_fidelity"},"features":[{"type":"Feature","properties":{"entity_id":"osm-r10628644","jurisdiction":"MD","display_name":"Elizaveta","display_type":"independent_village","admin_level":8,"tier":"local","legal_registry":"CUATM","legal_id":"0301","legal_type":"independent_village","parent_catalog_id":"osm-r58983","osm_relation_id":10628644,"legal_identity_status":"reconciled","geometry_source":"OpenStreetMap","geometry_precision":"master_coordinate_fidelity"},"geometry":{"type":"Polygon","coordinates":[[[27.9940679,47.820744],[27.9836464,47.8157839],[27.9819507,47.8147825],[27.9827005,47.8139305],[27.9797271,47.8092413],[27.9725292,47.8152571],[27.9705419,47.8131251],[27.9667456,47.8094358],[27.9640918,47.804794],[27.9633855,47.8039336],[27.9622441,47.8027437],[27.9649941,47.8007463],[27.9668867,47.7994547],[27.9669991,47.7993759],[27.9678251,47.7987856],[27.9731255,47.7949799],[27.9821517,47.7884577],[27.9812884,47.7881951],[27.9799205,47.7876941],[27.9778788,47.7870001],[27.9771776,47.7867927],[27.9768469,47.7870452],[27.9751771,47.7864843],[27.9731988,47.7858662],[27.9735088,47.7855367],[27.9703422,47.7845639],[27.9676226,47.7839662],[27.9661391,47.7836137],[27.9665959,47.7824718],[27.9717999,47.7835951],[27.9736247,47.7840803],[27.9785622,47.7855316],[27.9825396,47.7818975],[27.9806617,47.7788952],[27.9862789,47.7749712],[27.9896755,47.7727908],[27.9951122,47.7689528],[27.9983963,47.7667021],[28.0007372,47.765286],[28.0075283,47.7644824],[28.0088137,47.7645323],[28.0140033,47.7652245],[28.0160616,47.7655082],[28.0164089,47.7656231],[28.0167108,47.7657937],[28.0206404,47.7688521],[28.0216,47.769485],[28.0227747,47.7704433],[28.0252171,47.7722592],[28.0285335,47.7745684],[28.0288546,47.7747298],[28.0307502,47.7755194],[28.0315915,47.7759224],[28.0320794,47.7762314],[28.0418865,47.7810941],[28.0425671,47.7813431],[28.0428001,47.7815041],[28.0440587,47.7830483],[28.0465487,47.7861004],[28.0504565,47.7907744],[28.0467595,47.7921555],[28.0447198,47.7929928],[28.0432339,47.7935211],[28.0408193,47.7942539],[28.0359758,47.7958994],[28.0343668,47.7964049],[28.0321416,47.7971719],[28.0320158,47.7972036],[28.0309102,47.797622],[28.0298123,47.7980683],[28.0277103,47.7988432],[28.0275936,47.798857],[28.0274981,47.7990003],[28.0273641,47.7989641],[28.0270458,47.7990846],[28.0269953,47.7991088],[28.0277779,47.7993092],[28.0297041,47.8004972],[28.0311756,47.8014033],[28.031993,47.8019117],[28.0350955,47.8038916],[28.0204038,47.8135629],[28.0131915,47.8183199],[28.0030356,47.8249237],[27.9984193,47.8227935],[27.9940679,47.820744]]]}},{"type":"Feature","properties":{"entity_id":"osm-r10628645","jurisdiction":"MD","display_name":"Sadovoe","display_type":"independent_village","admin_level":8,"tier":"local","legal_registry":"CUATM","legal_id":"4839","legal_type":"independent_village","parent_catalog_id":"osm-r58983","osm_relation_id":10628645,"legal_identity_status":"reconciled","geometry_source":"OpenStreetMap","geometry_precision":"master_coordinate_fidelity"},"geometry":{"type":"Polygon","coordinates":[[[27.8036118,47.7963797],[27.8032658,47.7966996],[27.8014628,47.7971447],[27.8006154,47.7971508],[27.8002232,47.7972961],[27.8000474,47.7972235],[27.7987313,47.7960638],[27.7983752,47.7961576],[27.7973339,47.7951675],[27.7961755,47.7945588],[27.7949134,47.7946557],[27.7939939,47.7932507],[27.7941562,47.7923786],[27.7935812,47.7918831],[27.7933268,47.7916639],[27.7938544,47.7904094],[27.7939212,47.7902505],[27.7940359,47.7895524],[27.7941561,47.789425],[27.7947365,47.7888101],[27.7949466,47.7885875],[27.7932214,47.7869586],[27.7928804,47.7862519],[27.7834843,47.7774306],[27.7861755,47.7759502],[27.7878025,47.774309],[27.7881025,47.7729381],[27.7926619,47.7683819],[27.8089766,47.7662294],[27.8130278,47.764875],[27.8233785,47.7633923],[27.8351706,47.7593126],[27.8359107,47.7589099],[27.8375929,47.7577486],[27.8379746,47.7576211],[27.837542,47.7580134],[27.8375297,47.7592147],[27.8383123,47.7600017],[27.8401239,47.75931],[27.8410174,47.758991],[27.8417877,47.7587839],[27.8435192,47.7586347],[27.8455098,47.7584008],[27.846867,47.7582529],[27.8475376,47.758444],[27.8477468,47.758646],[27.8478702,47.7589453],[27.847661,47.7597711],[27.8471299,47.7600596],[27.84669,47.7604491],[27.8462018,47.7615453],[27.8457834,47.7624793],[27.8452416,47.763251],[27.8458761,47.7637754],[27.8469511,47.7644882],[27.8478353,47.7651322],[27.8487161,47.7657847],[27.8498898,47.7665448],[27.8513316,47.7676459],[27.8468025,47.7722888],[27.8462733,47.7725244],[27.844696,47.773099],[27.8444099,47.7731965],[27.8444641,47.7732612],[27.8443228,47.7733099],[27.8442702,47.7732492],[27.8441305,47.7733019],[27.8441533,47.7733294],[27.8440135,47.773382],[27.8439907,47.7733545],[27.8404085,47.7746998],[27.8404461,47.7747464],[27.8403055,47.774798],[27.8403164,47.7748114],[27.8401758,47.7748631],[27.840132,47.7748089],[27.8392754,47.7751521],[27.8393002,47.7751764],[27.8392109,47.7752102],[27.8391872,47.7751872],[27.8378251,47.7757363],[27.8389882,47.7769955],[27.838935,47.7778345],[27.8388794,47.7782098],[27.8386364,47.7794246],[27.8373019,47.7793853],[27.8326912,47.7792805],[27.8318667,47.7792601],[27.8317502,47.779266],[27.8292812,47.7792243],[27.8280542,47.7791855],[27.8276483,47.7794775],[27.8273293,47.7795481],[27.8270413,47.779851],[27.821979,47.7816712],[27.819163,47.7827547],[27.8109128,47.7858395],[27.8050258,47.7881128],[27.7977124,47.7908422],[27.8013836,47.7942684],[27.8036118,47.7963797]]]}},{"type":"Feature","properties":{"entity_id":"osm-r12207955","jurisdiction":"MD","display_name":"Bălți","display_type":"level_2_municipality","admin_level":8,"tier":"local","legal_registry":"CUATM","legal_id":"0300","legal_type":"level_2_municipality","parent_catalog_id":"osm-r58983","osm_relation_id":12207955,"legal_identity_status":"reconciled","geometry_source":"OpenStreetMap","geometry_precision":"master_coordinate_fidelity"},"geometry":{"type":"Polygon","coordinates":[[[27.973984,47.7546442],[27.9735421,47.7562091],[27.9715648,47.7603642],[27.968701,47.7674138],[27.9688958,47.767981],[27.9700738,47.7677257],[27.9702641,47.767592],[27.9713942,47.7676656],[27.9702777,47.7684479],[27.9691102,47.769633],[27.9685054,47.7707567],[27.9661739,47.7746308],[27.9621319,47.7813457],[27.9612555,47.7813065],[27.9633426,47.7817595],[27.9665959,47.7824718],[27.9661391,47.7836137],[27.9656964,47.783623],[27.9654237,47.7836205],[27.9645694,47.7837962],[27.9632546,47.7844546],[27.9628046,47.7849427],[27.9617363,47.7860428],[27.9605406,47.7860426],[27.9580268,47.7880293],[27.9561681,47.7895378],[27.9549756,47.7904757],[27.9538589,47.7913743],[27.9534731,47.7912336],[27.9516002,47.7904521],[27.9505466,47.7899183],[27.9499762,47.7894778],[27.948562,47.7898673],[27.9479067,47.7905227],[27.9463699,47.7905454],[27.9445302,47.7910005],[27.9435749,47.7912695],[27.9432221,47.7915894],[27.9405207,47.7922722],[27.9396359,47.7925214],[27.9365169,47.7932892],[27.933892,47.7940222],[27.9332934,47.7940981],[27.9323001,47.794292],[27.9299296,47.7949204],[27.9250594,47.7961789],[27.9241772,47.7961009],[27.9228776,47.7967417],[27.9227354,47.7968118],[27.9218528,47.7971145],[27.9213724,47.7968715],[27.9198826,47.7975147],[27.9190197,47.7971253],[27.9180559,47.7977922],[27.9174297,47.7982893],[27.9162823,47.7990435],[27.9155401,47.7992408],[27.9126466,47.7998781],[27.9112563,47.8001919],[27.9106356,47.8004347],[27.9102452,47.8005462],[27.9098873,47.8006286],[27.9096244,47.8006525],[27.9090489,47.8006051],[27.9082163,47.8003872],[27.9067155,47.7999031],[27.9010819,47.7984606],[27.9004598,47.7982578],[27.9003598,47.7982079],[27.9000168,47.7980291],[27.899838,47.7978514],[27.8994576,47.797479],[27.8992284,47.7973469],[27.8991086,47.7971195],[27.8990538,47.7970089],[27.8988074,47.7967835],[27.8986374,47.7965746],[27.8980293,47.7960215],[27.8979523,47.7959051],[27.8978026,47.7956787],[27.8975424,47.7954451],[27.8964795,47.7944305],[27.8954921,47.7938],[27.8942118,47.7929757],[27.8936643,47.7926205],[27.893142,47.7922908],[27.8929013,47.792137],[27.8928612,47.7921395],[27.8924651,47.7918952],[27.8884444,47.789385],[27.8882225,47.7892001],[27.8866719,47.7882415],[27.8866589,47.7877395],[27.8866358,47.7873166],[27.8866499,47.7870715],[27.8866009,47.7869011],[27.8864239,47.7866887],[27.8865848,47.7864525],[27.8859894,47.7861338],[27.8865496,47.7856377],[27.8875798,47.7843436],[27.8881246,47.7837362],[27.8881982,47.7836466],[27.8887787,47.7830288],[27.8881235,47.7827226],[27.8879435,47.7826324],[27.8869355,47.7821638],[27.8861964,47.7818251],[27.8853232,47.782309],[27.8850668,47.7820946],[27.884879,47.7818908],[27.8847416,47.7817306],[27.8845716,47.7815339],[27.8843684,47.7812734],[27.8843261,47.7811447],[27.8843636,47.7811235],[27.8842428,47.7809506],[27.8843596,47.780892],[27.8843196,47.7807518],[27.8842684,47.7807729],[27.8841343,47.7806506],[27.8840696,47.7805315],[27.8841219,47.7805102],[27.8840957,47.7804806],[27.8839495,47.7802944],[27.884263,47.7801446],[27.8842806,47.7800744],[27.8838114,47.7796732],[27.8834123,47.7792276],[27.8828495,47.7785948],[27.8831793,47.7784049],[27.8844132,47.7775789],[27.885828,47.7766061],[27.8870847,47.775774],[27.8872595,47.7756547],[27.8881033,47.7749179],[27.8887549,47.7743143],[27.889892,47.7732978],[27.891737,47.7716086],[27.8923001,47.7711273],[27.893914,47.7696855],[27.8939737,47.7696308],[27.8943251,47.7698506],[27.8949999,47.7694605],[27.8944464,47.7690624],[27.8944165,47.7690816],[27.8943484,47.7690333],[27.8943777,47.7690142],[27.8942726,47.7689347],[27.8943127,47.7689105],[27.894195,47.768821],[27.8940795,47.7687388],[27.8941829,47.7686716],[27.8941495,47.7686466],[27.8942383,47.7685922],[27.8941949,47.76856],[27.8945373,47.7683321],[27.8944362,47.76824],[27.893058,47.7672545],[27.8928991,47.767121],[27.8918104,47.7663252],[27.8915488,47.7661382],[27.8912576,47.7662472],[27.8905635,47.7664688],[27.8905177,47.766473],[27.8901785,47.7665788],[27.8885065,47.7671104],[27.8883046,47.7669278],[27.8876849,47.766341],[27.8869546,47.765757],[27.8868688,47.7656909],[27.8871536,47.7653723],[27.8872073,47.7651541],[27.8872419,47.7649263],[27.8873503,47.7648166],[27.8876963,47.7645849],[27.8884646,47.7640183],[27.8883999,47.7638778],[27.887886,47.7634907],[27.8850623,47.7613505],[27.8842269,47.7607516],[27.8790326,47.7570834],[27.8786235,47.7574571],[27.8785111,47.7575277],[27.8781573,47.7577797],[27.8780766,47.7578546],[27.8778815,47.7580719],[27.8768018,47.7591652],[27.8756814,47.7586248],[27.8768705,47.7575563],[27.877387,47.7571663],[27.8747824,47.7556312],[27.8747371,47.7554174],[27.874672,47.755406],[27.8699867,47.7552189],[27.8678236,47.7551236],[27.8644671,47.7549906],[27.8635212,47.7549515],[27.8629709,47.755016],[27.8621564,47.755217],[27.8618479,47.7552447],[27.8613225,47.755386],[27.8608081,47.755633],[27.8596133,47.7564094],[27.858396,47.757391],[27.8574386,47.7580328],[27.8564287,47.7584355],[27.8547215,47.7593217],[27.8528697,47.7594621],[27.8523905,47.7598035],[27.8517744,47.7603966],[27.8511706,47.7608947],[27.8504311,47.7613546],[27.8495098,47.7620624],[27.8488697,47.762496],[27.8486011,47.7626548],[27.8479627,47.763207],[27.8475448,47.7635622],[27.8472,47.7640387],[27.8469511,47.7644882],[27.8458761,47.7637754],[27.8452416,47.763251],[27.8457834,47.7624793],[27.8462018,47.7615453],[27.84669,47.7604491],[27.8471299,47.7600596],[27.847661,47.7597711],[27.8478702,47.7589453],[27.8477468,47.758646],[27.8475376,47.758444],[27.846867,47.7582529],[27.8455098,47.7584008],[27.8435192,47.7586347],[27.8417877,47.7587839],[27.8410174,47.758991],[27.8401239,47.75931],[27.8383123,47.7600017],[27.8375297,47.7592147],[27.837542,47.7580134],[27.8379746,47.7576211],[27.8456067,47.7557709],[27.8484225,47.7550352],[27.8496707,47.7546291],[27.8495307,47.7540618],[27.8500053,47.7538772],[27.8504165,47.7537121],[27.8521807,47.7526152],[27.857653,47.7480231],[27.8589641,47.747328],[27.8601345,47.7467662],[27.8632759,47.7455417],[27.8656251,47.7445625],[27.8666306,47.7441232],[27.8671318,47.7439676],[27.8696142,47.7434013],[27.8715841,47.7424243],[27.8710708,47.7423619],[27.8704088,47.7421276],[27.8698849,47.7419021],[27.8690818,47.741492],[27.8666971,47.7403334],[27.8663917,47.7402262],[27.8644332,47.739446],[27.8644337,47.7393984],[27.8645597,47.7391803],[27.8645107,47.7390747],[27.8639496,47.7389131],[27.8631962,47.7388202],[27.8623571,47.7384764],[27.8617786,47.7382868],[27.8605074,47.7379741],[27.8605297,47.7379553],[27.8596887,47.7377944],[27.8595301,47.7377499],[27.8569578,47.737071],[27.8559636,47.7368076],[27.8555083,47.7366901],[27.8525124,47.7358922],[27.8524721,47.7357966],[27.8525745,47.7356205],[27.8494742,47.7349295],[27.847024,47.734388],[27.8447891,47.733555],[27.8448874,47.7333754],[27.8449513,47.7332679],[27.8449953,47.7331932],[27.8454212,47.7324684],[27.8462018,47.7327337],[27.8466531,47.7326434],[27.8468379,47.7326323],[27.8480079,47.7323891],[27.8493633,47.7311096],[27.8509074,47.7293753],[27.8526494,47.7296921],[27.8542178,47.73038],[27.8585209,47.731747],[27.8605325,47.7323957],[27.8625882,47.7330438],[27.8640085,47.7334847],[27.8654476,47.7340339],[27.8680078,47.7348346],[27.8692291,47.7338251],[27.8654959,47.7328067],[27.8650291,47.7325212],[27.8647304,47.7318135],[27.8675113,47.7308042],[27.8686149,47.7305273],[27.8689882,47.7304336],[27.8690107,47.7304339],[27.871205,47.7304583],[27.8729753,47.7304781],[27.875807,47.7305097],[27.877975,47.728628],[27.8802597,47.7295891],[27.8917376,47.7359332],[27.8954638,47.7332557],[27.8999303,47.7300461],[27.9034839,47.7340306],[27.9041587,47.7349187],[27.9042751,47.7350431],[27.9047632,47.7349465],[27.9049023,47.7349361],[27.9051861,47.7350135],[27.9062564,47.7353542],[27.9072304,47.7356751],[27.9076025,47.7357308],[27.9081969,47.7356515],[27.9086951,47.7357048],[27.9095427,47.7358716],[27.9108936,47.7361306],[27.9156998,47.7368125],[27.9170814,47.7370422],[27.9171765,47.7370581],[27.9189404,47.7373514],[27.9229544,47.7380164],[27.9235378,47.7381159],[27.9309891,47.7392383],[27.9348735,47.7397693],[27.9379027,47.7403954],[27.9385046,47.7404112],[27.9390686,47.7404705],[27.9398024,47.7405596],[27.9413444,47.7409292],[27.9424597,47.7396609],[27.9445696,47.7376894],[27.945344,47.7378997],[27.9491207,47.7399647],[27.950905,47.7408966],[27.9516523,47.7412294],[27.9535531,47.742438],[27.9544338,47.7430812],[27.9560059,47.7420045],[27.9565049,47.7422566],[27.9547129,47.7435598],[27.9555192,47.7451346],[27.9573388,47.7483336],[27.9589504,47.7512344],[27.9597954,47.752775],[27.9602242,47.7536418],[27.9602983,47.7538564],[27.9619368,47.7541806],[27.9631639,47.7543878],[27.9631592,47.7544615],[27.9631532,47.7545541],[27.9630115,47.7549639],[27.9629355,47.7552984],[27.963623,47.7551993],[27.9643841,47.7551022],[27.9691612,47.7530916],[27.9700962,47.7534349],[27.971761,47.7540059],[27.9722293,47.7541027],[27.9734816,47.7544062],[27.973984,47.7546442]]]}}]}