{"type":"FeatureCollection","metadata":{"schema_version":1,"contract":"actual-public-geometry-chunk-v1","mode":"ACTUAL","jurisdiction":"MD","tier":"local","root_entity_id":"osm-r1104136","feature_count":7,"geometry_source":"OpenStreetMap","geometry_precision":"master_coordinate_fidelity"},"features":[{"type":"Feature","properties":{"entity_id":"osm-r19113736","jurisdiction":"MD","display_name":"Basarabeasca","display_type":"town","admin_level":8,"tier":"local","legal_registry":"CUATM","legal_id":"1201","legal_type":"town","parent_catalog_id":"osm-r1104136","osm_relation_id":19113736,"legal_identity_status":"reconciled","geometry_source":"OpenStreetMap","geometry_precision":"master_coordinate_fidelity"},"geometry":{"type":"Polygon","coordinates":[[[28.9799595,46.354654],[28.9790081,46.3544103],[28.9753548,46.3535479],[28.9693257,46.3510477],[28.9660077,46.3497334],[28.9646182,46.3491499],[28.9638907,46.3488444],[28.966982,46.3460179],[28.9690222,46.3441458],[28.9699946,46.3431394],[28.9695496,46.3430317],[28.9656943,46.3421727],[28.9630689,46.3415172],[28.9624618,46.3413765],[28.9622839,46.3414532],[28.9621002,46.3415414],[28.9613796,46.3417949],[28.9602368,46.342239],[28.9587881,46.3427895],[28.9585128,46.3428954],[28.9583573,46.3429656],[28.9562982,46.3442358],[28.9556296,46.344613],[28.9556071,46.3446496],[28.9555552,46.3449436],[28.9554758,46.3452453],[28.9558165,46.3456505],[28.955398,46.3466239],[28.9540173,46.3474432],[28.9538027,46.3475559],[28.9533017,46.3471947],[28.9531594,46.3472968],[28.9530819,46.3473529],[28.952837,46.3475291],[28.9524558,46.3473652],[28.9521189,46.3472123],[28.9518393,46.3470958],[28.951704,46.347042],[28.9509686,46.3467039],[28.9506806,46.3465912],[28.9506418,46.3465784],[28.9505025,46.3465324],[28.9501465,46.3464055],[28.9499434,46.3463218],[28.9494458,46.3461044],[28.9492793,46.3462883],[28.9492715,46.3462865],[28.9491115,46.3464717],[28.9489438,46.3466649],[28.9489289,46.3466824],[28.9488496,46.3467766],[28.9487855,46.3468496],[28.9486766,46.3469778],[28.9484998,46.3471813],[28.9483488,46.347361],[28.9482105,46.3475287],[28.9480541,46.3477183],[28.9479035,46.3478992],[28.9477395,46.3481019],[28.9474754,46.3479877],[28.9464306,46.3475236],[28.9462101,46.3474094],[28.9446507,46.3475165],[28.9449645,46.347123],[28.9449352,46.3469489],[28.9449151,46.3468611],[28.9449334,46.3467598],[28.9450667,46.3465758],[28.9451678,46.3464837],[28.9453357,46.3464162],[28.9454428,46.346368],[28.9455937,46.3461915],[28.9458096,46.345906],[28.9459503,46.3457972],[28.9464991,46.3454759],[28.9472104,46.3439887],[28.9473645,46.3438041],[28.9478095,46.3433062],[28.9481051,46.3429755],[28.9481618,46.3429121],[28.9482537,46.3428104],[28.9483354,46.342722],[28.9485251,46.3425281],[28.9485455,46.3425383],[28.9491354,46.3418328],[28.9492831,46.34167],[28.9512611,46.3394707],[28.95107,46.3394034],[28.9507649,46.3392959],[28.9496559,46.3389053],[28.9491508,46.3377229],[28.9489704,46.3373006],[28.9484435,46.3353145],[28.9481586,46.3344404],[28.948817,46.3344209],[28.949507,46.3344565],[28.9501207,46.3345267],[28.9510644,46.3346551],[28.9521636,46.3346943],[28.9528354,46.3345026],[28.9533914,46.3342788],[28.9543365,46.3337311],[28.954483,46.3336134],[28.9549739,46.3332186],[28.9536839,46.3317044],[28.9529388,46.3310109],[28.9519438,46.3299172],[28.9485924,46.3262354],[28.9470343,46.3253815],[28.9470436,46.3248993],[28.9470041,46.3240525],[28.9467998,46.3231844],[28.9473532,46.3228934],[28.9473379,46.3217108],[28.9481563,46.319825],[28.943522,46.3131812],[28.941549,46.3105447],[28.9396426,46.309042],[28.9412625,46.3052664],[28.9402229,46.3032873],[28.9372624,46.3026386],[28.9297279,46.2954744],[28.9284224,46.2937726],[28.9273112,46.2926234],[28.9176503,46.2829507],[28.9164604,46.280766],[28.9174971,46.2795365],[28.9186002,46.2783462],[28.9192315,46.2776006],[28.919521,46.2773217],[28.9201225,46.2757211],[28.9204792,46.2745836],[28.9212927,46.2752226],[28.922297,46.2763264],[28.9225541,46.275848],[28.9229487,46.2754696],[28.923507,46.2751763],[28.9247916,46.2744801],[28.926178,46.273708],[28.9274327,46.2730454],[28.9286843,46.2723838],[28.9301516,46.2715695],[28.9313097,46.2709072],[28.9325397,46.2702494],[28.9337877,46.2695376],[28.9362062,46.2682251],[28.9377454,46.2673779],[28.9396147,46.266365],[28.9416335,46.2652216],[28.9437359,46.2639983],[28.9456016,46.2629518],[28.9474941,46.2618737],[28.9490123,46.2610715],[28.9497358,46.2607333],[28.9505545,46.2603355],[28.9520011,46.259634],[28.952275,46.2594504],[28.9528834,46.2641067],[28.9532551,46.2653089],[28.9542048,46.2671481],[28.9562181,46.2706844],[28.9615695,46.2796666],[28.9693798,46.2924926],[28.9710559,46.295234],[28.9716001,46.2959503],[28.975802,46.3028577],[28.9774833,46.3053528],[28.9782695,46.3066811],[28.9784556,46.3070052],[28.9789508,46.3078673],[28.9790022,46.3079569],[28.9791572,46.3081777],[28.9795539,46.3087426],[28.982298,46.3133384],[28.9835942,46.3153968],[28.9853443,46.3183124],[28.9873231,46.3175854],[28.9924503,46.3166719],[28.9941951,46.3162807],[28.9953463,46.3160143],[28.9957926,46.3160472],[28.9959153,46.3160563],[28.9965755,46.3159143],[28.9970603,46.3158082],[28.9997684,46.3156486],[29.002002,46.3158006],[29.0035545,46.3162659],[29.0035336,46.3166654],[29.0035309,46.3166874],[29.003455,46.3169403],[29.0032941,46.3174286],[29.0033326,46.3174704],[29.0013328,46.3183625],[28.9971461,46.3204685],[28.9971884,46.3205656],[28.9972597,46.3207555],[28.997975,46.3226891],[28.9976233,46.3230401],[28.9968923,46.3250145],[28.9968879,46.3252655],[28.9969495,46.3276719],[28.9966217,46.3284716],[28.9947324,46.3331774],[28.9933828,46.3365188],[28.9927752,46.3414144],[28.9910503,46.3437474],[28.9906021,46.3456511],[28.990408,46.3456317],[28.9900331,46.3455978],[28.9899645,46.3455915],[28.9898682,46.3455827],[28.9887634,46.3454818],[28.9885434,46.3435164],[28.9883781,46.3435258],[28.9882048,46.3433097],[28.9875077,46.3429984],[28.9872802,46.3429521],[28.9867201,46.3430588],[28.9857893,46.3446367],[28.9851411,46.3457406],[28.983711,46.3482127],[28.981978,46.3513819],[28.9802928,46.3540768],[28.9799595,46.354654]]]}},{"type":"Feature","properties":{"entity_id":"osm-r19113737","jurisdiction":"MD","display_name":"Iordanovca","display_type":"independent_village","admin_level":8,"tier":"local","legal_registry":"CUATM","legal_id":"1213","legal_type":"independent_village","parent_catalog_id":"osm-r1104136","osm_relation_id":19113737,"legal_identity_status":"reconciled","geometry_source":"OpenStreetMap","geometry_precision":"master_coordinate_fidelity"},"geometry":{"type":"Polygon","coordinates":[[[28.8531374,46.4093399],[28.8619253,46.4044838],[28.8673944,46.4018754],[28.8685046,46.401353],[28.8701448,46.4005829],[28.8728065,46.3993476],[28.8734807,46.3990491],[28.8750546,46.398371],[28.8775054,46.3972785],[28.879156,46.3965399],[28.8807035,46.3971221],[28.8811132,46.3965422],[28.8818432,46.3955317],[28.8827702,46.3942866],[28.8834019,46.3934547],[28.8843603,46.3922887],[28.8854673,46.3910346],[28.8863028,46.3901101],[28.8875147,46.3887921],[28.8883899,46.3878308],[28.8887258,46.3874109],[28.8890774,46.3870039],[28.8896011,46.3862938],[28.892283,46.3830987],[28.8967589,46.3780634],[28.8987788,46.3798846],[28.8988536,46.3800518],[28.8991743,46.3802166],[28.8993274,46.380349],[28.8997035,46.3805567],[28.9009053,46.3811553],[28.9015727,46.3814017],[28.902766,46.3817522],[28.9033377,46.381949],[28.9056184,46.3828151],[28.9064998,46.3831728],[28.906786,46.3831563],[28.9095261,46.3807349],[28.9110558,46.3814415],[28.9148594,46.3829226],[28.9149447,46.3828221],[28.9157623,46.3831056],[28.9168869,46.3835217],[28.9184681,46.3841175],[28.9194966,46.3845088],[28.9206573,46.3849835],[28.9214995,46.385339],[28.9248532,46.3867017],[28.9263749,46.3873004],[28.9272574,46.3876743],[28.9298804,46.3887308],[28.9321907,46.3896694],[28.9336319,46.3902367],[28.9359557,46.3911893],[28.9373611,46.3917887],[28.9389494,46.3923921],[28.9407055,46.3930441],[28.9412701,46.3932863],[28.9415874,46.3934086],[28.9425076,46.3937555],[28.9442482,46.3944109],[28.944484,46.394462],[28.945432,46.3948133],[28.9466691,46.395305],[28.9486303,46.3960908],[28.9513112,46.3971628],[28.9560591,46.3990384],[28.9559846,46.3991587],[28.9543036,46.4028494],[28.9532454,46.4052093],[28.9519686,46.4078202],[28.9507768,46.4104807],[28.9501106,46.4119232],[28.9491064,46.4142698],[28.9484834,46.4155185],[28.9473083,46.4150814],[28.945762,46.414487],[28.9439181,46.4137939],[28.9432258,46.4135277],[28.9426159,46.4132588],[28.9415214,46.4128299],[28.9399808,46.4122496],[28.9390999,46.4119117],[28.9387697,46.4117586],[28.9382671,46.411565],[28.9374038,46.4112149],[28.9359367,46.4106705],[28.9337153,46.4098852],[28.9311243,46.4089605],[28.9299815,46.4085355],[28.929715,46.4084134],[28.9293655,46.4082849],[28.9289134,46.4080367],[28.9288841,46.407861],[28.9285684,46.407726],[28.9260929,46.4067474],[28.9237404,46.4058719],[28.9215246,46.405433],[28.9216374,46.4050284],[28.9217065,46.404538],[28.9217393,46.4042642],[28.9217424,46.4039004],[28.9217182,46.4032492],[28.92165,46.4028735],[28.9211468,46.4002996],[28.9172989,46.3993703],[28.914459,46.398701],[28.9138799,46.3979053],[28.91337,46.3972396],[28.9128724,46.3965444],[28.9120001,46.3954428],[28.9114506,46.3961565],[28.9091866,46.3990238],[28.907027,46.4017355],[28.905765,46.4032857],[28.9053666,46.4041504],[28.9015195,46.4122967],[28.899614,46.4117601],[28.8962702,46.4107852],[28.8933977,46.4098928],[28.8926338,46.4096063],[28.892323,46.40951],[28.8919628,46.4093739],[28.8912578,46.4091119],[28.8906875,46.4089137],[28.8900491,46.4086788],[28.8893632,46.4084307],[28.8889756,46.4082984],[28.8887655,46.4081812],[28.8887023,46.4080939],[28.8885491,46.4079245],[28.8882862,46.4077719],[28.8880418,46.4076337],[28.887493,46.4074044],[28.8872428,46.4072641],[28.8859874,46.4067127],[28.8846982,46.4060865],[28.8837688,46.405552],[28.8824445,46.4062149],[28.8823288,46.4062977],[28.8803062,46.4083959],[28.8787761,46.4100251],[28.8777499,46.4096272],[28.8772749,46.4096026],[28.8768851,46.4094659],[28.8761386,46.4091566],[28.8755394,46.4089204],[28.8752786,46.4088157],[28.8750551,46.4087305],[28.8745553,46.4085255],[28.8742355,46.4084037],[28.8735152,46.4081221],[28.873168,46.4081067],[28.8714139,46.4106028],[28.870242,46.412235],[28.8695437,46.4132042],[28.8683542,46.4148385],[28.8677639,46.4156315],[28.8649941,46.4144782],[28.8609616,46.4127541],[28.8594836,46.4121258],[28.8587049,46.4117949],[28.8571569,46.411152],[28.8568746,46.4110278],[28.8563688,46.410768],[28.8531374,46.4093399]]]}},{"type":"Feature","properties":{"entity_id":"osm-r19113738","jurisdiction":"MD","display_name":"Abaclia","display_type":"independent_village","admin_level":8,"tier":"local","legal_registry":"CUATM","legal_id":"1210","legal_type":"independent_village","parent_catalog_id":"osm-r1104136","osm_relation_id":19113738,"legal_identity_status":"reconciled","geometry_source":"OpenStreetMap","geometry_precision":"master_coordinate_fidelity"},"geometry":{"type":"Polygon","coordinates":[[[28.8425394,46.4045202],[28.8427848,46.4042013],[28.8430546,46.4039116],[28.8434206,46.4035546],[28.844147,46.4028865],[28.8445432,46.402521],[28.8449214,46.4021848],[28.8451188,46.4019163],[28.8456936,46.4012028],[28.8461186,46.4006698],[28.8462856,46.4003847],[28.8464829,46.4001036],[28.8467833,46.3998556],[28.8469633,46.3996875],[28.84754,46.3992167],[28.8479535,46.3987506],[28.848228,46.3982977],[28.8487531,46.397438],[28.8492002,46.396658],[28.8496045,46.3958155],[28.8499432,46.3950862],[28.8504762,46.3944565],[28.850944,46.3939861],[28.851218,46.3934913],[28.8516762,46.39259],[28.8518968,46.3922042],[28.8520851,46.3915759],[28.8522073,46.3910023],[28.8526738,46.390377],[28.8531285,46.3897937],[28.8537803,46.3889209],[28.8540589,46.3882462],[28.854233,46.3873669],[28.8542473,46.3871454],[28.8543493,46.38681],[28.8546465,46.386198],[28.8551475,46.3853801],[28.8555431,46.384956],[28.8558845,46.3845739],[28.8569603,46.3830802],[28.8574089,46.382501],[28.8577835,46.3817548],[28.8582504,46.380218],[28.8581759,46.3793081],[28.8584565,46.3787888],[28.8588204,46.3781957],[28.8592167,46.3774825],[28.860588,46.3754351],[28.8597573,46.3753186],[28.8597899,46.3748935],[28.8599234,46.3742403],[28.8602375,46.3734859],[28.8603316,46.3731759],[28.8607855,46.3725298],[28.8612038,46.3719591],[28.8616397,46.3713172],[28.8625653,46.3692718],[28.8641154,46.3660314],[28.8647268,46.3647236],[28.86516,46.3637805],[28.8654324,46.3631267],[28.865665,46.3627618],[28.8658188,46.3623637],[28.8659297,46.3619072],[28.8658911,46.361627],[28.8658173,46.3614851],[28.8657923,46.3613848],[28.8658155,46.3612717],[28.8660947,46.3606974],[28.86653,46.3600095],[28.8668916,46.359188],[28.8670498,46.35861],[28.8672151,46.3581491],[28.8674858,46.3572945],[28.8678411,46.3557324],[28.8682314,46.3540322],[28.8685674,46.3523364],[28.869138,46.3498238],[28.8694296,46.3485884],[28.8696095,46.3480777],[28.8696685,46.347824],[28.8698863,46.3471456],[28.8701081,46.3462285],[28.8705163,46.3445198],[28.8706957,46.3436028],[28.8709875,46.342405],[28.871367,46.340868],[28.871729,46.3394147],[28.8718066,46.3393056],[28.8719021,46.3391713],[28.8719193,46.3390625],[28.8720032,46.3389868],[28.8721646,46.3387853],[28.8721581,46.3387394],[28.8723052,46.3385807],[28.8724243,46.3383385],[28.87248,46.3381081],[28.8724633,46.3378742],[28.8724014,46.3377232],[28.8723074,46.337582],[28.872155,46.3373956],[28.8719542,46.3371095],[28.8717845,46.3368264],[28.8717082,46.336618],[28.8716813,46.3364832],[28.8716823,46.3362659],[28.8717662,46.3359989],[28.8718676,46.335767],[28.87199,46.3355917],[28.8722478,46.3353319],[28.8723211,46.3352213],[28.8723368,46.3349654],[28.8723928,46.3348486],[28.8724958,46.3347248],[28.873566,46.3337521],[28.8736303,46.3336187],[28.8736577,46.333086],[28.8738744,46.3327911],[28.8739939,46.3325786],[28.8740274,46.3322395],[28.8739935,46.3319957],[28.8739277,46.3318305],[28.8736113,46.3310735],[28.8735722,46.3308652],[28.8735626,46.3301189],[28.8736118,46.3298708],[28.8738869,46.328875],[28.8739944,46.3281272],[28.8739947,46.3279815],[28.8740096,46.3276515],[28.8740671,46.3274737],[28.8741535,46.3265133],[28.8741466,46.326088],[28.8740895,46.3257202],[28.8740524,46.3253463],[28.8740628,46.3253063],[28.87411,46.3252476],[28.8742189,46.3252409],[28.8743712,46.3252457],[28.8746853,46.3233342],[28.8796363,46.3125601],[28.879943,46.3114482],[28.880107,46.3111699],[28.880537,46.3108319],[28.8807122,46.3107704],[28.8812022,46.3106899],[28.881961,46.3103916],[28.8842957,46.3090801],[28.8844986,46.3088678],[28.8851891,46.3076309],[28.8857983,46.3066265],[28.8863281,46.3056796],[28.8864112,46.3055256],[28.8867016,46.3051633],[28.8869593,46.3048396],[28.8870494,46.3046963],[28.8874928,46.3041296],[28.8878781,46.3035896],[28.8879504,46.3034559],[28.8884055,46.3026381],[28.8885341,46.3025148],[28.8889996,46.3016742],[28.8891038,46.301551],[28.8894266,46.3012756],[28.889601,46.3011861],[28.8899592,46.3010176],[28.8908515,46.3006231],[28.8912505,46.3004322],[28.8915855,46.3002471],[28.8922646,46.2997817],[28.8928478,46.2994736],[28.8933574,46.2992005],[28.89387,46.2989847],[28.8946209,46.2987378],[28.8954542,46.2984615],[28.8960948,46.2981934],[28.8968486,46.2977041],[28.8972146,46.2972018],[28.8977274,46.2954515],[28.8981588,46.2950982],[28.8987274,46.2945769],[28.8998776,46.2936138],[28.900782,46.2928483],[28.9023751,46.29149],[28.9046928,46.2895259],[28.9059501,46.2884325],[28.9074475,46.2871874],[28.9093119,46.2858445],[28.9111702,46.2844974],[28.9125969,46.2834659],[28.9148268,46.2818702],[28.9164604,46.280766],[28.9176503,46.2829507],[28.9273112,46.2926234],[28.9284224,46.2937726],[28.9297279,46.2954744],[28.9372624,46.3026386],[28.9402229,46.3032873],[28.9412625,46.3052664],[28.9396426,46.309042],[28.941549,46.3105447],[28.943522,46.3131812],[28.9481563,46.319825],[28.9473379,46.3217108],[28.9473532,46.3228934],[28.9467998,46.3231844],[28.9470041,46.3240525],[28.9470436,46.3248993],[28.9470343,46.3253815],[28.9485924,46.3262354],[28.9519438,46.3299172],[28.9529388,46.3310109],[28.9536839,46.3317044],[28.9549739,46.3332186],[28.954483,46.3336134],[28.9543365,46.3337311],[28.9533914,46.3342788],[28.9528354,46.3345026],[28.9521636,46.3346943],[28.9510644,46.3346551],[28.9501207,46.3345267],[28.949507,46.3344565],[28.948817,46.3344209],[28.9481586,46.3344404],[28.9484435,46.3353145],[28.9489704,46.3373006],[28.9491508,46.3377229],[28.9496559,46.3389053],[28.9507649,46.3392959],[28.95107,46.3394034],[28.9512611,46.3394707],[28.9492831,46.34167],[28.9491354,46.3418328],[28.9485455,46.3425383],[28.9485251,46.3425281],[28.9483354,46.342722],[28.9482537,46.3428104],[28.9481618,46.3429121],[28.9481051,46.3429755],[28.9478095,46.3433062],[28.9473645,46.3438041],[28.9472104,46.3439887],[28.9464991,46.3454759],[28.9459503,46.3457972],[28.9458096,46.345906],[28.9455937,46.3461915],[28.9454428,46.346368],[28.9453357,46.3464162],[28.9451678,46.3464837],[28.9450667,46.3465758],[28.9449334,46.3467598],[28.9449151,46.3468611],[28.9449352,46.3469489],[28.9449645,46.347123],[28.9446507,46.3475165],[28.9462101,46.3474094],[28.9464306,46.3475236],[28.9474754,46.3479877],[28.9477395,46.3481019],[28.9479035,46.3478992],[28.9480541,46.3477183],[28.9482105,46.3475287],[28.9483488,46.347361],[28.9484998,46.3471813],[28.9486766,46.3469778],[28.9487855,46.3468496],[28.9488496,46.3467766],[28.9489289,46.3466824],[28.9489438,46.3466649],[28.9491115,46.3464717],[28.9492715,46.3462865],[28.9492793,46.3462883],[28.9494458,46.3461044],[28.9499434,46.3463218],[28.9501465,46.3464055],[28.9505025,46.3465324],[28.9506418,46.3465784],[28.9506806,46.3465912],[28.9509686,46.3467039],[28.951704,46.347042],[28.9518393,46.3470958],[28.9521189,46.3472123],[28.9524558,46.3473652],[28.952837,46.3475291],[28.9530819,46.3473529],[28.9531594,46.3472968],[28.9533017,46.3471947],[28.9538027,46.3475559],[28.9540173,46.3474432],[28.955398,46.3466239],[28.9558165,46.3456505],[28.9554758,46.3452453],[28.9555552,46.3449436],[28.9556071,46.3446496],[28.9556296,46.344613],[28.9562982,46.3442358],[28.9583573,46.3429656],[28.9585128,46.3428954],[28.9587881,46.3427895],[28.9602368,46.342239],[28.9613796,46.3417949],[28.9621002,46.3415414],[28.9622839,46.3414532],[28.9624618,46.3413765],[28.9630689,46.3415172],[28.9656943,46.3421727],[28.9695496,46.3430317],[28.9699946,46.3431394],[28.9690222,46.3441458],[28.966982,46.3460179],[28.9638907,46.3488444],[28.9646182,46.3491499],[28.9660077,46.3497334],[28.9693257,46.3510477],[28.9753548,46.3535479],[28.9790081,46.3544103],[28.9799595,46.354654],[28.9785562,46.3570841],[28.9770716,46.359794],[28.9761544,46.3613173],[28.9746607,46.3636105],[28.9720263,46.3677214],[28.9711252,46.3690862],[28.9673043,46.3747832],[28.9668072,46.3758039],[28.9638844,46.3820013],[28.9609803,46.3883391],[28.9593367,46.3919377],[28.9568484,46.3974082],[28.9561675,46.3988631],[28.9560591,46.3990384],[28.9513112,46.3971628],[28.9486303,46.3960908],[28.9466691,46.395305],[28.945432,46.3948133],[28.944484,46.394462],[28.9442482,46.3944109],[28.9425076,46.3937555],[28.9415874,46.3934086],[28.9412701,46.3932863],[28.9407055,46.3930441],[28.9389494,46.3923921],[28.9373611,46.3917887],[28.9359557,46.3911893],[28.9336319,46.3902367],[28.9321907,46.3896694],[28.9298804,46.3887308],[28.9272574,46.3876743],[28.9263749,46.3873004],[28.9248532,46.3867017],[28.9214995,46.385339],[28.9206573,46.3849835],[28.9194966,46.3845088],[28.9184681,46.3841175],[28.9168869,46.3835217],[28.9157623,46.3831056],[28.9149447,46.3828221],[28.9148594,46.3829226],[28.9110558,46.3814415],[28.9095261,46.3807349],[28.906786,46.3831563],[28.9064998,46.3831728],[28.9056184,46.3828151],[28.9033377,46.381949],[28.902766,46.3817522],[28.9015727,46.3814017],[28.9009053,46.3811553],[28.8997035,46.3805567],[28.8993274,46.380349],[28.8991743,46.3802166],[28.8988536,46.3800518],[28.8987788,46.3798846],[28.8967589,46.3780634],[28.892283,46.3830987],[28.8896011,46.3862938],[28.8890774,46.3870039],[28.8887258,46.3874109],[28.8883899,46.3878308],[28.8875147,46.3887921],[28.8863028,46.3901101],[28.8854673,46.3910346],[28.8843603,46.3922887],[28.8834019,46.3934547],[28.8827702,46.3942866],[28.8818432,46.3955317],[28.8811132,46.3965422],[28.8807035,46.3971221],[28.879156,46.3965399],[28.8775054,46.3972785],[28.8750546,46.398371],[28.8734807,46.3990491],[28.8728065,46.3993476],[28.8701448,46.4005829],[28.8685046,46.401353],[28.8673944,46.4018754],[28.8619253,46.4044838],[28.8531374,46.4093399],[28.8515391,46.4086338],[28.851049,46.4084287],[28.8489962,46.4074802],[28.8480543,46.4070536],[28.8465891,46.4063849],[28.8458702,46.4060607],[28.8452215,46.4057657],[28.8441819,46.4052946],[28.8425394,46.4045202]]]}},{"type":"Feature","properties":{"entity_id":"osm-r19113739","jurisdiction":"MD","display_name":"Carabetovca","display_type":"independent_village","admin_level":8,"tier":"local","legal_registry":"CUATM","legal_id":"1212","legal_type":"independent_village","parent_catalog_id":"osm-r1104136","osm_relation_id":19113739,"legal_identity_status":"reconciled","geometry_source":"OpenStreetMap","geometry_precision":"master_coordinate_fidelity"},"geometry":{"type":"Polygon","coordinates":[[[28.8677639,46.4156315],[28.8683542,46.4148385],[28.8695437,46.4132042],[28.870242,46.412235],[28.8714139,46.4106028],[28.873168,46.4081067],[28.8735152,46.4081221],[28.8742355,46.4084037],[28.8745553,46.4085255],[28.8750551,46.4087305],[28.8752786,46.4088157],[28.8755394,46.4089204],[28.8761386,46.4091566],[28.8768851,46.4094659],[28.8772749,46.4096026],[28.8777499,46.4096272],[28.8787761,46.4100251],[28.8803062,46.4083959],[28.8823288,46.4062977],[28.8824445,46.4062149],[28.8837688,46.405552],[28.8846982,46.4060865],[28.8859874,46.4067127],[28.8872428,46.4072641],[28.887493,46.4074044],[28.8880418,46.4076337],[28.8882862,46.4077719],[28.8885491,46.4079245],[28.8887023,46.4080939],[28.8887655,46.4081812],[28.8889756,46.4082984],[28.8893632,46.4084307],[28.8900491,46.4086788],[28.8906875,46.4089137],[28.8912578,46.4091119],[28.8919628,46.4093739],[28.892323,46.40951],[28.8926338,46.4096063],[28.8933977,46.4098928],[28.8962702,46.4107852],[28.899614,46.4117601],[28.9015195,46.4122967],[28.9053666,46.4041504],[28.905765,46.4032857],[28.907027,46.4017355],[28.9091866,46.3990238],[28.9114506,46.3961565],[28.9120001,46.3954428],[28.9128724,46.3965444],[28.91337,46.3972396],[28.9138799,46.3979053],[28.914459,46.398701],[28.9172989,46.3993703],[28.9211468,46.4002996],[28.92165,46.4028735],[28.9217182,46.4032492],[28.9217424,46.4039004],[28.9217393,46.4042642],[28.9217065,46.404538],[28.9216374,46.4050284],[28.9215246,46.405433],[28.9237404,46.4058719],[28.9260929,46.4067474],[28.9285684,46.407726],[28.9288841,46.407861],[28.9289134,46.4080367],[28.9293655,46.4082849],[28.929715,46.4084134],[28.9299815,46.4085355],[28.9311243,46.4089605],[28.9337153,46.4098852],[28.9359367,46.4106705],[28.9374038,46.4112149],[28.9382671,46.411565],[28.9387697,46.4117586],[28.9390999,46.4119117],[28.9399808,46.4122496],[28.9415214,46.4128299],[28.9426159,46.4132588],[28.9432258,46.4135277],[28.9439181,46.4137939],[28.945762,46.414487],[28.9473083,46.4150814],[28.9484834,46.4155185],[28.9484351,46.4156154],[28.9471378,46.4184484],[28.9457375,46.4214646],[28.9433561,46.4267554],[28.9415012,46.430917],[28.9412219,46.4320177],[28.9405774,46.4354768],[28.9404376,46.4366158],[28.9394172,46.4413155],[28.9392288,46.4422172],[28.9390216,46.4431235],[28.9383168,46.4466582],[28.9375834,46.446388],[28.935918,46.4457847],[28.9319085,46.4442339],[28.9275376,46.4426245],[28.9260578,46.4420838],[28.9226212,46.4407835],[28.9175671,46.4389487],[28.9161797,46.4384744],[28.9132329,46.4373755],[28.9098989,46.4361931],[28.9093931,46.4359642],[28.9043146,46.4341115],[28.9007137,46.4328102],[28.8992609,46.4322984],[28.8989553,46.4322825],[28.89582,46.4311135],[28.8927668,46.4299987],[28.8925296,46.4297801],[28.8913386,46.4293397],[28.8884869,46.4283231],[28.8859009,46.4273838],[28.88257,46.426212],[28.8808113,46.4255657],[28.8797788,46.4251526],[28.8790176,46.4247918],[28.8784256,46.4245359],[28.8767281,46.4238005],[28.8748246,46.4229942],[28.8753415,46.4222389],[28.8773281,46.4194062],[28.875679,46.4187612],[28.8735412,46.4179305],[28.8718581,46.4172212],[28.8677639,46.4156315]]]}},{"type":"Feature","properties":{"entity_id":"osm-r19113740","jurisdiction":"MD","display_name":"Sadaclia","display_type":"independent_village","admin_level":8,"tier":"local","legal_registry":"CUATM","legal_id":"1218","legal_type":"independent_village","parent_catalog_id":"osm-r1104136","osm_relation_id":19113740,"legal_identity_status":"reconciled","geometry_source":"OpenStreetMap","geometry_precision":"master_coordinate_fidelity"},"geometry":{"type":"Polygon","coordinates":[[[28.8677639,46.4156315],[28.8718581,46.4172212],[28.8735412,46.4179305],[28.875679,46.4187612],[28.8773281,46.4194062],[28.8753415,46.4222389],[28.8748246,46.4229942],[28.8767281,46.4238005],[28.8784256,46.4245359],[28.8790176,46.4247918],[28.8797788,46.4251526],[28.8808113,46.4255657],[28.88257,46.426212],[28.8859009,46.4273838],[28.8884869,46.4283231],[28.8913386,46.4293397],[28.8925296,46.4297801],[28.8927668,46.4299987],[28.89582,46.4311135],[28.8989553,46.4322825],[28.8992609,46.4322984],[28.9007137,46.4328102],[28.9043146,46.4341115],[28.9093931,46.4359642],[28.9098989,46.4361931],[28.9132329,46.4373755],[28.9161797,46.4384744],[28.9175671,46.4389487],[28.9226212,46.4407835],[28.9260578,46.4420838],[28.9275376,46.4426245],[28.9319085,46.4442339],[28.935918,46.4457847],[28.9375834,46.446388],[28.9383168,46.4466582],[28.9380107,46.448193],[28.9372963,46.4518455],[28.9372241,46.4519902],[28.9370799,46.4521491],[28.9322628,46.4565206],[28.9308607,46.4577381],[28.9306833,46.4577999],[28.930378,46.458072],[28.9295524,46.4603234],[28.9291563,46.4613946],[28.9277331,46.465147],[28.9273334,46.4664676],[28.9271164,46.4672782],[28.9266476,46.4684801],[28.924771,46.4732627],[28.9236463,46.4766801],[28.9226029,46.4795361],[28.9218578,46.4816871],[28.9214817,46.4827873],[28.9206752,46.4851944],[28.9203268,46.4861283],[28.9195832,46.4882206],[28.9190416,46.4897546],[28.918923,46.490127],[28.9185056,46.4911118],[28.9163499,46.493636],[28.9150807,46.4952303],[28.9132199,46.4975761],[28.912111,46.4989712],[28.9107803,46.5006492],[28.9103138,46.5012264],[28.9093169,46.5024896],[28.9077985,46.504401],[28.9059936,46.5066965],[28.904016,46.5059825],[28.9023341,46.5054348],[28.901149,46.5050033],[28.8995914,46.5044004],[28.8986461,46.5040446],[28.896323,46.5031528],[28.8942311,46.5022874],[28.8928942,46.5017664],[28.8912058,46.501064],[28.889755,46.5004997],[28.8891262,46.5002417],[28.8870394,46.4994707],[28.8850462,46.4986956],[28.8843057,46.4984214],[28.8785246,46.4961698],[28.8776395,46.495838],[28.8785678,46.4946521],[28.8789203,46.4941849],[28.8799577,46.4929551],[28.8846657,46.4871413],[28.8869118,46.484356],[28.8857188,46.4838773],[28.8842763,46.4832806],[28.8814659,46.482168],[28.8788027,46.4811515],[28.876627,46.4803443],[28.8747919,46.4796997],[28.8734883,46.479181],[28.871318,46.4783375],[28.8705982,46.4780472],[28.8677185,46.4769327],[28.8658336,46.4762044],[28.8652752,46.4759759],[28.8647503,46.4757844],[28.8599557,46.4739516],[28.8583812,46.4733558],[28.8586739,46.4729576],[28.8603211,46.4707927],[28.8577195,46.4696992],[28.8558692,46.4689388],[28.8551743,46.468663],[28.853106,46.4678238],[28.8515338,46.4671937],[28.8501867,46.4666615],[28.8495769,46.4664303],[28.8489723,46.4662099],[28.847883,46.4657751],[28.8455441,46.4648451],[28.8431092,46.4638978],[28.8425432,46.4636435],[28.8416347,46.4632689],[28.8409621,46.463035],[28.8389143,46.4622714],[28.8377097,46.4618049],[28.8370597,46.4615191],[28.8358828,46.4610543],[28.8351952,46.4607818],[28.8342366,46.4604175],[28.8315666,46.4594113],[28.8296796,46.4586631],[28.8280587,46.4580586],[28.8248645,46.4568333],[28.8242749,46.4566133],[28.8235121,46.4563333],[28.8219139,46.4557339],[28.8209705,46.4553604],[28.820549,46.4552168],[28.8184139,46.454434],[28.8166477,46.4537488],[28.8151826,46.4531897],[28.8125058,46.4521452],[28.810973,46.4515669],[28.8098787,46.4511337],[28.8091961,46.4508235],[28.8088096,46.4506914],[28.8081018,46.4503449],[28.8079412,46.4502802],[28.8074945,46.4501916],[28.8066939,46.4499312],[28.8061643,46.4497068],[28.805301,46.4493781],[28.8026986,46.4483664],[28.8014363,46.4478873],[28.8001268,46.4474383],[28.7988541,46.4469813],[28.7978754,46.4466038],[28.7962281,46.4459503],[28.794937,46.4454829],[28.7981413,46.442856],[28.8014069,46.4401316],[28.8020466,46.4396432],[28.8025156,46.4392114],[28.8027188,46.4389547],[28.8029846,46.4385538],[28.8031476,46.4382885],[28.8037244,46.4373465],[28.8044491,46.4363775],[28.805668,46.4351786],[28.8059263,46.4349386],[28.8061822,46.434727],[28.8067715,46.4342307],[28.808265,46.4329657],[28.8096055,46.4320959],[28.8103378,46.4316067],[28.8112857,46.4309857],[28.8176451,46.4273987],[28.8193108,46.4247593],[28.8197156,46.4242834],[28.8198527,46.4241493],[28.819973,46.4240586],[28.8200942,46.4237737],[28.8203319,46.4236146],[28.8204203,46.4235282],[28.8204592,46.4234574],[28.820506,46.4233513],[28.8207148,46.4232249],[28.8210182,46.4231354],[28.8212641,46.4231009],[28.8214613,46.4230354],[28.821566,46.4229746],[28.8216334,46.4228947],[28.8216871,46.4228235],[28.8217841,46.4227681],[28.8220024,46.422722],[28.8222007,46.4227116],[28.8224083,46.4225745],[28.8226016,46.4225143],[28.8226461,46.4224985],[28.8227124,46.4224296],[28.8227096,46.4223324],[28.8226837,46.4222431],[28.8226972,46.4220658],[28.8228437,46.4218854],[28.8228752,46.4217705],[28.8228026,46.4217183],[28.822821,46.4214974],[28.8229225,46.4213171],[28.8232957,46.4210772],[28.823476,46.4209176],[28.8236248,46.4206116],[28.8238052,46.4204645],[28.8240516,46.4202502],[28.8242492,46.4199859],[28.8243866,46.4197637],[28.8246574,46.4195828],[28.8251818,46.4193381],[28.8256585,46.4191732],[28.8260199,46.4189752],[28.8266345,46.4186591],[28.8273459,46.4183427],[28.8279607,46.4180601],[28.8287387,46.4177601],[28.8292691,46.4175113],[28.8295821,46.4173051],[28.8300454,46.4169812],[28.8307139,46.4166063],[28.8312615,46.4162403],[28.8318092,46.4158868],[28.8328794,46.4150585],[28.8342686,46.4140282],[28.8349835,46.4134105],[28.8359449,46.4126077],[28.8366722,46.4120276],[28.836936,46.4117337],[28.8371865,46.4112809],[28.8377135,46.410622],[28.8381454,46.4101769],[28.8386687,46.4098151],[28.8390784,46.4096127],[28.8393607,46.4093606],[28.8395998,46.4090082],[28.8397659,46.4086018],[28.8402022,46.4079516],[28.8407071,46.4075606],[28.8410674,46.4072328],[28.8412465,46.4069477],[28.8415394,46.4065114],[28.8417712,46.4060085],[28.8418887,46.4055771],[28.8420614,46.4052417],[28.8423662,46.4048012],[28.8425394,46.4045202],[28.8441819,46.4052946],[28.8452215,46.4057657],[28.8458702,46.4060607],[28.8465891,46.4063849],[28.8480543,46.4070536],[28.8489962,46.4074802],[28.851049,46.4084287],[28.8515391,46.4086338],[28.8531374,46.4093399],[28.8563688,46.410768],[28.8568746,46.4110278],[28.8571569,46.411152],[28.8587049,46.4117949],[28.8594836,46.4121258],[28.8609616,46.4127541],[28.8649941,46.4144782],[28.8677639,46.4156315]]]}},{"type":"Feature","properties":{"entity_id":"osm-r19113741","jurisdiction":"MD","display_name":"Bașcalia","display_type":"independent_village","admin_level":8,"tier":"local","legal_registry":"CUATM","legal_id":"1211","legal_type":"independent_village","parent_catalog_id":"osm-r1104136","osm_relation_id":19113741,"legal_identity_status":"reconciled","geometry_source":"OpenStreetMap","geometry_precision":"master_coordinate_fidelity"},"geometry":{"type":"Polygon","coordinates":[[[28.7925564,46.2785048],[28.7927894,46.2786065],[28.7931161,46.2787246],[28.7937142,46.278823],[28.7941221,46.2789032],[28.7962035,46.2792788],[28.7972759,46.2794581],[28.7984238,46.2796549],[28.7993451,46.2798044],[28.8008042,46.2800461],[28.8025108,46.2803163],[28.8033385,46.2804472],[28.8053687,46.2808061],[28.8072022,46.2810904],[28.8100776,46.2814985],[28.8126457,46.2819494],[28.8160468,46.2824433],[28.8177934,46.2827884],[28.819422,46.2830889],[28.8199112,46.2831373],[28.8202405,46.2831863],[28.8205278,46.2832752],[28.8208337,46.2834268],[28.8210121,46.2834701],[28.8214982,46.2835164],[28.8220901,46.2835811],[28.8226911,46.2836542],[28.8230656,46.2836926],[28.8233165,46.2837544],[28.8237332,46.2837947],[28.824264,46.2837593],[28.8252364,46.2838644],[28.8264032,46.2841404],[28.8272195,46.2843423],[28.8280476,46.2845191],[28.8286163,46.2846969],[28.8290093,46.2847917],[28.8294259,46.2848278],[28.8298422,46.2848053],[28.8301858,46.284758],[28.8305964,46.2847899],[28.8316391,46.2850025],[28.8320077,46.285068],[28.8329532,46.2852046],[28.8338986,46.2853223],[28.8346176,46.2854242],[28.8352279,46.2855306],[28.83611,46.2856654],[28.8371825,46.2858265],[28.8389865,46.2861416],[28.8410141,46.2865063],[28.8431533,46.2868537],[28.8435716,46.2868824],[28.8437432,46.2869087],[28.8439174,46.2869448],[28.8457966,46.2872262],[28.8473074,46.2874797],[28.8492747,46.2878213],[28.8506042,46.288042],[28.8531153,46.2884693],[28.8551038,46.2888191],[28.8569741,46.2891003],[28.8585969,46.2893846],[28.8595459,46.2895627],[28.8609363,46.2898312],[28.8653205,46.2904786],[28.8666132,46.2906198],[28.8671265,46.2906512],[28.8683354,46.2908596],[28.8692059,46.2910234],[28.8731448,46.2915576],[28.8761924,46.292123],[28.8765718,46.2920169],[28.8767642,46.2919366],[28.8769949,46.2920904],[28.8773585,46.2922646],[28.8782651,46.2924072],[28.87919,46.2925665],[28.8806706,46.2927779],[28.8821812,46.2929723],[28.8831424,46.293144],[28.8843573,46.2933438],[28.8854757,46.2935399],[28.8867444,46.2936726],[28.8881109,46.2939471],[28.8886424,46.2939908],[28.8889499,46.2939477],[28.8892334,46.2939297],[28.8899762,46.2939725],[28.8911368,46.2941684],[28.8927449,46.2944585],[28.8941351,46.2946742],[28.8949332,46.2948214],[28.8959731,46.2950135],[28.8971164,46.2952931],[28.8977274,46.2954515],[28.8972146,46.2972018],[28.8968486,46.2977041],[28.8960948,46.2981934],[28.8954542,46.2984615],[28.8946209,46.2987378],[28.89387,46.2989847],[28.8933574,46.2992005],[28.8928478,46.2994736],[28.8922646,46.2997817],[28.8915855,46.3002471],[28.8912505,46.3004322],[28.8908515,46.3006231],[28.8899592,46.3010176],[28.889601,46.3011861],[28.8894266,46.3012756],[28.8891038,46.301551],[28.8889996,46.3016742],[28.8885341,46.3025148],[28.8884055,46.3026381],[28.8879504,46.3034559],[28.8878781,46.3035896],[28.8874928,46.3041296],[28.8870494,46.3046963],[28.8869593,46.3048396],[28.8867016,46.3051633],[28.8864112,46.3055256],[28.8863281,46.3056796],[28.8857983,46.3066265],[28.8851891,46.3076309],[28.8844986,46.3088678],[28.8842957,46.3090801],[28.881961,46.3103916],[28.8812022,46.3106899],[28.8807122,46.3107704],[28.880537,46.3108319],[28.880107,46.3111699],[28.879943,46.3114482],[28.8796363,46.3125601],[28.8746853,46.3233342],[28.8743712,46.3252457],[28.8742189,46.3252409],[28.87411,46.3252476],[28.8740628,46.3253063],[28.8740524,46.3253463],[28.8740895,46.3257202],[28.8741466,46.326088],[28.8741535,46.3265133],[28.8740671,46.3274737],[28.8740096,46.3276515],[28.8739947,46.3279815],[28.8739944,46.3281272],[28.8738869,46.328875],[28.8736118,46.3298708],[28.8735626,46.3301189],[28.8735722,46.3308652],[28.8736113,46.3310735],[28.8739277,46.3318305],[28.8739935,46.3319957],[28.8740274,46.3322395],[28.8739939,46.3325786],[28.8738744,46.3327911],[28.8736577,46.333086],[28.8736303,46.3336187],[28.873566,46.3337521],[28.8724958,46.3347248],[28.8723928,46.3348486],[28.8723368,46.3349654],[28.8723211,46.3352213],[28.8722478,46.3353319],[28.87199,46.3355917],[28.8718676,46.335767],[28.8717662,46.3359989],[28.8716823,46.3362659],[28.8716813,46.3364832],[28.8717082,46.336618],[28.8717845,46.3368264],[28.8719542,46.3371095],[28.872155,46.3373956],[28.8723074,46.337582],[28.8724014,46.3377232],[28.8724633,46.3378742],[28.87248,46.3381081],[28.8724243,46.3383385],[28.8723052,46.3385807],[28.8721581,46.3387394],[28.8706909,46.3385765],[28.8702973,46.3384736],[28.8699046,46.3384626],[28.869137,46.3384156],[28.8680241,46.3382486],[28.8664276,46.3380418],[28.8648672,46.3378138],[28.863506,46.3375725],[28.8616495,46.3373332],[28.8606029,46.3371408],[28.8597617,46.3369559],[28.8585519,46.3367558],[28.8581954,46.3367446],[28.8547534,46.3361434],[28.8511363,46.3355511],[28.8481726,46.3350691],[28.8455417,46.3346568],[28.8439328,46.3343911],[28.8423119,46.3341213],[28.8412411,46.3339162],[28.8396136,46.3335794],[28.8388631,46.333394],[28.8383065,46.333279],[28.836728,46.3330215],[28.834624,46.3327618],[28.832484,46.332544],[28.8306517,46.3322664],[28.8292487,46.3320416],[28.8287831,46.3319764],[28.828154,46.3318574],[28.827186,46.331656],[28.8252629,46.3313452],[28.8236965,46.3310707],[28.8227889,46.3308649],[28.8217486,46.3306805],[28.8197288,46.3303532],[28.818108,46.3300705],[28.8162271,46.3297343],[28.8139107,46.3293201],[28.8102168,46.3288272],[28.8090678,46.3286389],[28.8065704,46.3282211],[28.803861,46.3277328],[28.8026028,46.3274569],[28.8015383,46.3272473],[28.8008493,46.3271744],[28.7987874,46.326847],[28.7961212,46.3264462],[28.7948696,46.3262456],[28.7931161,46.3259545],[28.7902016,46.3254667],[28.7887747,46.3252372],[28.7875596,46.3250531],[28.7861143,46.3247861],[28.7845967,46.324536],[28.7813136,46.323978],[28.7794394,46.3236788],[28.7784537,46.3234896],[28.7773655,46.3233259],[28.7765375,46.3232198],[28.775961,46.3231985],[28.775653,46.3232232],[28.774943,46.3231239],[28.7743555,46.3230445],[28.7739493,46.3230153],[28.773289,46.3230208],[28.7728341,46.3230189],[28.7726674,46.3229687],[28.7724903,46.3228235],[28.7722538,46.32256],[28.7719686,46.3223474],[28.7716989,46.3222398],[28.7712727,46.3221565],[28.7707443,46.3221379],[28.7705683,46.3221418],[28.7697555,46.3220174],[28.7688446,46.321856],[28.7677967,46.3216942],[28.7663276,46.3214278],[28.7640464,46.3210855],[28.7637019,46.3210302],[28.7636327,46.3213795],[28.7635868,46.3215972],[28.7634196,46.3221811],[28.7630916,46.3231697],[28.7628257,46.3240156],[28.7626636,46.3245679],[28.7625447,46.3245526],[28.7615224,46.3244244],[28.7615771,46.3242523],[28.7621958,46.3223797],[28.7624976,46.3214197],[28.7611214,46.3211665],[28.7589867,46.3208445],[28.7565678,46.3204353],[28.7547608,46.3201156],[28.7533407,46.3198523],[28.7513626,46.3195296],[28.7505201,46.3193425],[28.7503775,46.3192209],[28.7501265,46.3189777],[28.7498617,46.3188836],[28.7495282,46.3187389],[28.7490381,46.3185743],[28.7485337,46.3184776],[28.747922,46.3184354],[28.7474624,46.3184572],[28.7451467,46.3181117],[28.7437049,46.317884],[28.7404032,46.3174448],[28.7384599,46.3171931],[28.7360367,46.3168342],[28.7349129,46.3166223],[28.7341515,46.3164822],[28.7332824,46.3163289],[28.7323203,46.3161521],[28.7313852,46.3159862],[28.7303766,46.3158028],[28.7294977,46.315646],[28.7287363,46.3154873],[28.728315,46.3153851],[28.7280381,46.3152741],[28.7277389,46.3151394],[28.7276406,46.3150516],[28.7276233,46.3150245],[28.727618,46.3149584],[28.7276346,46.3148788],[28.7277269,46.3147667],[28.7279045,46.3146086],[28.7282789,46.31425],[28.7296921,46.3129853],[28.7302418,46.3125092],[28.7317446,46.3111222],[28.7321386,46.3107652],[28.7334348,46.3095906],[28.7337705,46.3093084],[28.7347553,46.3084159],[28.7351517,46.3080538],[28.7355723,46.3076646],[28.7358935,46.3074112],[28.736083,46.3072107],[28.7361872,46.3070646],[28.7362178,46.3068697],[28.73628,46.3066459],[28.7363082,46.3064509],[28.736261,46.3059309],[28.7362442,46.3055869],[28.7361676,46.3050585],[28.7360774,46.3043065],[28.7359787,46.3037476],[28.7359331,46.3034936],[28.7358809,46.3033514],[28.7358018,46.3032076],[28.7357493,46.3030298],[28.7356558,46.3021185],[28.7356251,46.3019],[28.7356383,46.301656],[28.7356567,46.3014729],[28.7357168,46.3012982],[28.7357917,46.3011642],[28.7358881,46.3009267],[28.7359191,46.3008063],[28.735918,46.3002302],[28.7359216,46.2996083],[28.7360006,46.2993488],[28.7361915,46.298984],[28.7361584,46.2983571],[28.7361229,46.2973558],[28.736056,46.2964071],[28.7360088,46.2954872],[28.7359613,46.2945063],[28.7358411,46.2936374],[28.7357153,46.2926584],[28.7355818,46.291615],[28.7354405,46.2904903],[28.7353068,46.2894148],[28.7352058,46.2884713],[28.735095,46.2875498],[28.734944,46.2864286],[28.7348537,46.2856392],[28.7347812,46.2849718],[28.7347265,46.2844247],[28.7345958,46.2842285],[28.7345045,46.2840831],[28.7344611,46.2837833],[28.7343838,46.2831261],[28.7342789,46.2823554],[28.7342222,46.2818727],[28.7341365,46.2810376],[28.7340873,46.2805853],[28.7340711,46.2803346],[28.7340084,46.2800704],[28.733963,46.2798435],[28.7338831,46.2795693],[28.7337933,46.2792696],[28.7337554,46.279063],[28.7337394,46.2788309],[28.7337311,46.2782718],[28.733681,46.2776619],[28.7336427,46.2768355],[28.7336066,46.2765374],[28.7334486,46.2754602],[28.7333659,46.2747251],[28.7332943,46.2741966],[28.7332421,46.273641],[28.7331342,46.271974],[28.7330792,46.2709507],[28.7330436,46.2699172],[28.7329794,46.2695838],[28.7353355,46.2699122],[28.7382653,46.2703509],[28.7397195,46.2705413],[28.7406014,46.2707144],[28.7412117,46.270859],[28.7427876,46.2710593],[28.7469962,46.271603],[28.7484337,46.2718413],[28.7522626,46.2724279],[28.7541712,46.2727442],[28.7570221,46.2732123],[28.7583569,46.2734298],[28.7587795,46.2734704],[28.7592687,46.2735399],[28.7600782,46.2736964],[28.7617758,46.2740216],[28.7622653,46.2741413],[28.7625913,46.2741738],[28.7628442,46.2740977],[28.7635264,46.2741583],[28.7642042,46.2742706],[28.7655607,46.2745612],[28.7665332,46.2747234],[28.7669705,46.2747031],[28.7675593,46.274787],[28.7686617,46.2749717],[28.7700691,46.2752036],[28.7710417,46.2753782],[28.7719056,46.2755281],[28.774011,46.2759145],[28.7754519,46.2761838],[28.7773425,46.2764705],[28.7793871,46.2767817],[28.7808155,46.2769882],[28.7830261,46.2772946],[28.783944,46.2774024],[28.7862723,46.2777167],[28.7876615,46.2779023],[28.7906025,46.27825],[28.7922967,46.2784827],[28.7925564,46.2785048]]]}},{"type":"Feature","properties":{"entity_id":"osm-r19113742","jurisdiction":"MD","display_name":"Iserlia","display_type":"commune","admin_level":8,"tier":"local","legal_registry":"CUATM","legal_id":"1214","legal_type":"commune","parent_catalog_id":"osm-r1104136","osm_relation_id":19113742,"legal_identity_status":"reconciled","geometry_source":"OpenStreetMap","geometry_precision":"master_coordinate_fidelity"},"geometry":{"type":"Polygon","coordinates":[[[28.9574039,46.4587198],[28.9585433,46.4587674],[28.9588319,46.4587855],[28.9592334,46.4588107],[28.9616897,46.4589647],[28.9627319,46.4590301],[28.9645559,46.4594065],[28.9666222,46.4594785],[28.9667871,46.4592427],[28.9684,46.4592275],[28.9694318,46.4592791],[28.9720294,46.4593785],[28.978715,46.4595654],[28.979891,46.459599],[28.9822715,46.4596622],[28.9828112,46.4595647],[28.984732,46.4596293],[28.9872221,46.4596676],[28.9928972,46.4598281],[28.9995946,46.460087],[29.0016875,46.4601776],[29.0128867,46.4611483],[29.0197984,46.4618378],[29.0208421,46.4619238],[29.0221396,46.4620926],[29.0234969,46.4621465],[29.0254762,46.462288],[29.0250983,46.46486],[29.024568,46.4686829],[29.0239062,46.4735178],[29.0237706,46.4747648],[29.0233177,46.4801617],[29.0206656,46.4800985],[29.0189184,46.4800558],[29.0158912,46.4799755],[29.0135135,46.4799274],[29.0096647,46.4798217],[29.009587,46.4798196],[29.0048346,46.4797022],[29.0020862,46.479635],[28.9982962,46.4795337],[28.9939473,46.4794332],[28.9931537,46.4793984],[28.9910655,46.4793827],[28.9890771,46.4792908],[28.9892087,46.4780914],[28.9840608,46.4778941],[28.9834708,46.4782061],[28.9828036,46.4787882],[28.9819326,46.4792185],[28.9779395,46.4811795],[28.9777629,46.4812677],[28.9784675,46.4827587],[28.9803397,46.4867846],[28.9806557,46.4875303],[28.981347,46.489047],[28.9816452,46.489522],[28.9818505,46.4898651],[28.9823745,46.4909642],[28.9831378,46.4924045],[28.9837973,46.4937049],[28.9848851,46.4956959],[28.9852031,46.4962292],[28.9852656,46.4962504],[28.9853106,46.4963635],[28.9853498,46.4964953],[28.9856007,46.4968648],[28.9858032,46.4975067],[28.9858496,46.4976126],[28.9865402,46.4991852],[28.9867105,46.4994832],[28.9868924,46.4999064],[28.987216,46.5007777],[28.9879382,46.5019434],[28.9880013,46.5019912],[28.9879527,46.5026973],[28.9878202,46.5037654],[28.9877174,46.5043681],[28.9876515,46.504754],[28.9874528,46.5057273],[28.9874012,46.5063866],[28.9872941,46.5068348],[28.9871689,46.5069393],[28.985878,46.5085286],[28.9837993,46.5112758],[28.983297,46.5118036],[28.9817726,46.5134912],[28.981489,46.5135832],[28.9812765,46.5137645],[28.9807979,46.5144735],[28.9800968,46.5153414],[28.9799878,46.5154518],[28.9799225,46.5155178],[28.9794268,46.5160194],[28.9793912,46.5160555],[28.9788022,46.5166763],[28.9785175,46.5170293],[28.9783256,46.5173797],[28.977892,46.5189072],[28.9765462,46.51916],[28.9756385,46.5207934],[28.9750222,46.5215155],[28.9728199,46.5242322],[28.9721644,46.5251992],[28.9720191,46.5254267],[28.9715348,46.5261664],[28.9705588,46.5271653],[28.9679492,46.5304516],[28.9678135,46.5306274],[28.9677268,46.5307863],[28.9675276,46.5309674],[28.9672635,46.531095],[28.9669944,46.5312096],[28.9640403,46.5348273],[28.9637107,46.5352308],[28.9635591,46.5353761],[28.9591926,46.5369832],[28.9577899,46.5372061],[28.9559973,46.5372549],[28.9552369,46.5373105],[28.9538715,46.5373777],[28.952887,46.5372779],[28.9524837,46.5373004],[28.9508677,46.5372566],[28.9473641,46.5371589],[28.9440518,46.5370905],[28.9382877,46.53692],[28.9376662,46.536925],[28.9421164,46.5315767],[28.9419332,46.5315208],[28.9424954,46.5306188],[28.9432794,46.5293819],[28.9441218,46.5280387],[28.9431413,46.5278511],[28.9437562,46.5266662],[28.9434999,46.5262843],[28.9431264,46.5261972],[28.943371,46.5255992],[28.943173,46.5252554],[28.9430816,46.5250076],[28.9430229,46.5249193],[28.9429107,46.5248487],[28.9413071,46.5245915],[28.9402498,46.5245688],[28.9393596,46.5245091],[28.9382751,46.5241733],[28.9388378,46.5230925],[28.9328378,46.5224634],[28.9323931,46.522348],[28.9316966,46.522268],[28.930569,46.5221459],[28.9299424,46.522205],[28.9289299,46.5221084],[28.9287807,46.522091],[28.9286472,46.5221087],[28.9283327,46.5218287],[28.9275208,46.5210102],[28.927373,46.5209038],[28.9252,46.5199406],[28.9247351,46.5197076],[28.9243617,46.5196002],[28.9240113,46.5195434],[28.9239621,46.5192845],[28.9238619,46.519076],[28.9236062,46.5188283],[28.923277,46.5186287],[28.9229036,46.5184757],[28.9223954,46.5183154],[28.9212828,46.5179601],[28.9191807,46.5172037],[28.9176667,46.5166433],[28.9139804,46.5152149],[28.9139355,46.5150177],[28.9140234,46.5147681],[28.9150699,46.5135706],[28.9169514,46.5112058],[28.9169644,46.5110889],[28.9169131,46.5109497],[28.9104977,46.5084666],[28.9059936,46.5066965],[28.9077985,46.504401],[28.9093169,46.5024896],[28.9103138,46.5012264],[28.9107803,46.5006492],[28.912111,46.4989712],[28.9132199,46.4975761],[28.9150807,46.4952303],[28.9163499,46.493636],[28.9185056,46.4911118],[28.918923,46.490127],[28.9190416,46.4897546],[28.9195832,46.4882206],[28.9203268,46.4861283],[28.9206752,46.4851944],[28.9214817,46.4827873],[28.9218578,46.4816871],[28.9226029,46.4795361],[28.9236463,46.4766801],[28.924771,46.4732627],[28.9266476,46.4684801],[28.9271164,46.4672782],[28.9273334,46.4664676],[28.9277331,46.465147],[28.9291563,46.4613946],[28.9295524,46.4603234],[28.930378,46.458072],[28.9306833,46.4577999],[28.9308607,46.4577381],[28.930874,46.4577458],[28.9317958,46.4577719],[28.9332795,46.4578397],[28.9382689,46.4580249],[28.9428478,46.4581904],[28.9472445,46.4583518],[28.9533186,46.4585421],[28.9574039,46.4587198]]]}}]}