{"type":"FeatureCollection","metadata":{"schema_version":1,"contract":"actual-public-geometry-chunk-v1","mode":"ACTUAL","jurisdiction":"MD","tier":"local","root_entity_id":"osm-r65344","feature_count":23,"geometry_source":"OpenStreetMap","geometry_precision":"master_coordinate_fidelity"},"features":[{"type":"Feature","properties":{"entity_id":"osm-r1301117","jurisdiction":"MD","display_name":"Copceac","display_type":"independent_village","admin_level":8,"tier":"local","legal_registry":"CUATM","legal_id":"8517","legal_type":"independent_village","parent_catalog_id":"osm-r65344","osm_relation_id":1301117,"legal_identity_status":"reconciled","geometry_source":"OpenStreetMap","geometry_precision":"master_coordinate_fidelity"},"geometry":{"type":"Polygon","coordinates":[[[29.5803143,46.3609011],[29.584892,46.3612942],[29.5934714,46.3622642],[29.596172,46.3625233],[29.5971924,46.3626541],[29.600234,46.3629469],[29.6005381,46.3628537],[29.6019378,46.3584803],[29.6033516,46.3536731],[29.6049381,46.3538448],[29.6092376,46.3542695],[29.6040453,46.3755378],[29.6008145,46.3752071],[29.5983736,46.3849028],[29.5948833,46.3846803],[29.5924799,46.3948022],[29.5858802,46.3941952],[29.5824399,46.4079363],[29.5815376,46.4149656],[29.5753739,46.4358495],[29.574651,46.4366992],[29.5699389,46.4549483],[29.5876636,46.4632546],[29.5767205,46.4739256],[29.5607946,46.4899153],[29.538518,46.480968],[29.5334047,46.4843318],[29.5191724,46.472692],[29.5036475,46.4605151],[29.5024603,46.4612869],[29.4996701,46.4592143],[29.4982221,46.4580705],[29.49747,46.4575229],[29.4958374,46.4562899],[29.4915837,46.4529839],[29.4879817,46.4502008],[29.4865556,46.4491142],[29.4855415,46.4483544],[29.4843136,46.4474115],[29.4852413,46.4463739],[29.4883819,46.4392172],[29.4884535,46.4385973],[29.4882902,46.4378812],[29.494678,46.4281002],[29.4970485,46.4292254],[29.4986821,46.428101],[29.5006392,46.4267827],[29.5032967,46.4249343],[29.5043335,46.4242143],[29.5057894,46.4233704],[29.5060206,46.423266],[29.508935,46.4228623],[29.5114122,46.4225797],[29.5128352,46.4223605],[29.5153983,46.4220523],[29.5215774,46.42151],[29.5290952,46.4206343],[29.5329762,46.4201809],[29.538054,46.4196385],[29.5396902,46.4194539],[29.5411805,46.4192962],[29.5432373,46.4190392],[29.5469543,46.4185541],[29.5500276,46.4181916],[29.5551394,46.4176596],[29.5571479,46.417481],[29.5584185,46.4172875],[29.5596112,46.4171322],[29.5625568,46.4167878],[29.5661326,46.4164774],[29.5674138,46.4113144],[29.5683259,46.4075437],[29.5690576,46.4046498],[29.5697486,46.4015904],[29.5705481,46.3990928],[29.5708812,46.3975306],[29.5712844,46.396097],[29.5726396,46.3908519],[29.5732305,46.3885162],[29.5741283,46.3848792],[29.575872,46.3781419],[29.5762963,46.3763742],[29.5767887,46.37444],[29.5772344,46.3726602],[29.5788558,46.3667245],[29.5798905,46.3626483],[29.5803143,46.3609011]]]}},{"type":"Feature","properties":{"entity_id":"osm-r1303141","jurisdiction":"MD","display_name":"Brezoaia","display_type":"independent_village","admin_level":8,"tier":"local","legal_registry":"CUATM","legal_id":"8513","legal_type":"independent_village","parent_catalog_id":"osm-r65344","osm_relation_id":1303141,"legal_identity_status":"reconciled","geometry_source":"OpenStreetMap","geometry_precision":"master_coordinate_fidelity"},"geometry":{"type":"Polygon","coordinates":[[[29.467416,46.485372],[29.4713868,46.4879751],[29.4740321,46.4902791],[29.4739092,46.4958383],[29.4778138,46.4969238],[29.476623,46.4998461],[29.4750296,46.5061948],[29.4867239,46.5146841],[29.4758942,46.522044],[29.4834652,46.5284565],[29.4857954,46.5294584],[29.4866184,46.5300743],[29.489279,46.5316271],[29.492115,46.5339477],[29.4909024,46.5350327],[29.4874782,46.5378372],[29.4852889,46.5409025],[29.484167,46.5420878],[29.4828749,46.5430686],[29.4575747,46.5673844],[29.4303739,46.5519692],[29.4283747,46.5509839],[29.4195544,46.546119],[29.41568,46.5439481],[29.4139943,46.5431056],[29.4067061,46.5388797],[29.4014458,46.5355969],[29.3993299,46.5343261],[29.3963027,46.5326772],[29.4007508,46.5288249],[29.4053172,46.525013],[29.4069138,46.5234012],[29.4218148,46.5108096],[29.4346976,46.4994751],[29.4420032,46.4931927],[29.4433415,46.4942752],[29.4442842,46.4952104],[29.4451755,46.4959854],[29.4472494,46.4976134],[29.4484591,46.4986546],[29.449689,46.4976884],[29.4519406,46.4961106],[29.453954,46.4946806],[29.4551361,46.4938756],[29.4568046,46.4927801],[29.4657548,46.486375],[29.467416,46.485372]]]}},{"type":"Feature","properties":{"entity_id":"osm-r1303701","jurisdiction":"MD","display_name":"Semionovca","display_type":"independent_village","admin_level":8,"tier":"local","legal_registry":"CUATM","legal_id":"8532","legal_type":"independent_village","parent_catalog_id":"osm-r65344","osm_relation_id":1303701,"legal_identity_status":"reconciled","geometry_source":"OpenStreetMap","geometry_precision":"master_coordinate_fidelity"},"geometry":{"type":"Polygon","coordinates":[[[29.492115,46.5339477],[29.489279,46.5316271],[29.4866184,46.5300743],[29.4857954,46.5294584],[29.4834652,46.5284565],[29.4758942,46.522044],[29.4867239,46.5146841],[29.4750296,46.5061948],[29.476623,46.4998461],[29.4778138,46.4969238],[29.4739092,46.4958383],[29.4740321,46.4902791],[29.4713868,46.4879751],[29.467416,46.485372],[29.4692559,46.4842612],[29.4722889,46.4820842],[29.4749744,46.4800994],[29.4757786,46.4796375],[29.4769318,46.4788771],[29.4805499,46.4763469],[29.4822276,46.4752254],[29.4847989,46.47342],[29.4857994,46.4727041],[29.4871286,46.4718608],[29.4932702,46.4676071],[29.4941261,46.4671596],[29.4992972,46.4635926],[29.4993415,46.4633438],[29.5007337,46.4623907],[29.5024603,46.4612869],[29.5036475,46.4605151],[29.5191724,46.472692],[29.5334047,46.4843318],[29.5298008,46.4919681],[29.5361197,46.494729],[29.5391324,46.4987288],[29.5414279,46.5042095],[29.5433499,46.5112349],[29.5402084,46.5103315],[29.5300368,46.5266238],[29.5284778,46.5262191],[29.5282005,46.5288908],[29.5197647,46.5419178],[29.5185452,46.5468021],[29.4988323,46.5398162],[29.492115,46.5339477]]]}},{"type":"Feature","properties":{"entity_id":"osm-r1706593","jurisdiction":"MD","display_name":"Ermoclia","display_type":"independent_village","admin_level":8,"tier":"local","legal_registry":"CUATM","legal_id":"8519","legal_type":"independent_village","parent_catalog_id":"osm-r65344","osm_relation_id":1706593,"legal_identity_status":"reconciled","geometry_source":"OpenStreetMap","geometry_precision":"master_coordinate_fidelity"},"geometry":{"type":"Polygon","coordinates":[[[29.5016277,46.6038355],[29.4986258,46.6012377],[29.4969406,46.5998049],[29.4965233,46.5994501],[29.4949243,46.5980438],[29.4868193,46.6090966],[29.4849375,46.6116574],[29.4770159,46.6132136],[29.4783595,46.6114599],[29.4665275,46.6069344],[29.4571235,46.598659],[29.4571778,46.5985186],[29.457349,46.5980763],[29.4557262,46.5975847],[29.4561784,46.5969713],[29.4526969,46.5953358],[29.4279676,46.5957843],[29.4298838,46.5928854],[29.4250623,46.5899196],[29.4198957,46.5868692],[29.4163459,46.5848095],[29.4131175,46.5827358],[29.4064666,46.5783484],[29.4126473,46.570706],[29.4143117,46.5688477],[29.4161205,46.5667016],[29.4171113,46.5653852],[29.4183269,46.563516],[29.4214031,46.5594327],[29.4237358,46.5564087],[29.425176,46.5546453],[29.4266895,46.5527408],[29.4283747,46.5509839],[29.4303739,46.5519692],[29.4575747,46.5673844],[29.4828749,46.5430686],[29.484167,46.5420878],[29.4852889,46.5409025],[29.4874782,46.5378372],[29.4909024,46.5350327],[29.492115,46.5339477],[29.4988323,46.5398162],[29.5185452,46.5468021],[29.5306965,46.5509471],[29.5342116,46.5523193],[29.5351005,46.5524477],[29.5380675,46.5533996],[29.5757251,46.5664296],[29.5807567,46.5680961],[29.5788101,46.5707725],[29.5744165,46.5708834],[29.5709873,46.5718582],[29.5597488,46.5775134],[29.5586131,46.5776867],[29.557751,46.5781323],[29.5570255,46.5784381],[29.5553515,46.5792657],[29.5492111,46.5821233],[29.5480522,46.5825707],[29.546766,46.5829614],[29.5449369,46.5835265],[29.5429028,46.5841198],[29.5399957,46.5849536],[29.5384922,46.585403],[29.5355135,46.5862854],[29.5336114,46.5868614],[29.5321854,46.5873648],[29.5303846,46.5882305],[29.5291188,46.5889975],[29.5274641,46.5900753],[29.5260376,46.5910431],[29.5243288,46.5922045],[29.5224323,46.5934983],[29.5203038,46.5947671],[29.5178229,46.5965707],[29.5151634,46.5983548],[29.5140272,46.5990226],[29.5129201,46.5998469],[29.5112589,46.6009645],[29.5079401,46.6033844],[29.503866,46.6051474],[29.5033921,46.6053757],[29.5031527,46.6051675],[29.5016277,46.6038355]]]}},{"type":"Feature","properties":{"entity_id":"osm-r1706594","jurisdiction":"MD","display_name":"Volintiri","display_type":"independent_village","admin_level":8,"tier":"local","legal_registry":"CUATM","legal_id":"8537","legal_type":"independent_village","parent_catalog_id":"osm-r65344","osm_relation_id":1706594,"legal_identity_status":"reconciled","geometry_source":"OpenStreetMap","geometry_precision":"master_coordinate_fidelity"},"geometry":{"type":"Polygon","coordinates":[[[29.6786062,46.4881072],[29.6785236,46.4881811],[29.6756317,46.4956442],[29.6756076,46.4956947],[29.6748163,46.4952838],[29.6740119,46.494862],[29.67263,46.4941548],[29.6681121,46.491881],[29.6677323,46.4917131],[29.6675022,46.4914512],[29.6643079,46.5007302],[29.6646926,46.5015847],[29.6408627,46.4905429],[29.6260011,46.4836112],[29.6157119,46.4787936],[29.6151925,46.4784827],[29.6166847,46.4766613],[29.5876636,46.4632546],[29.5699389,46.4549483],[29.574651,46.4366992],[29.5753739,46.4358495],[29.5815376,46.4149656],[29.5824399,46.4079363],[29.5858802,46.3941952],[29.5924799,46.3948022],[29.5948833,46.3846803],[29.5983736,46.3849028],[29.6008145,46.3752071],[29.6040453,46.3755378],[29.6092376,46.3542695],[29.6139278,46.3546873],[29.6153913,46.3548949],[29.6169834,46.3550629],[29.6180673,46.3551747],[29.623324,46.355698],[29.627008,46.3560498],[29.628412,46.3561815],[29.6359735,46.3569497],[29.6380145,46.3571462],[29.6428071,46.3575491],[29.6459271,46.3579049],[29.6472961,46.3581024],[29.6505236,46.3584225],[29.656232,46.3589953],[29.6590687,46.3592632],[29.6620412,46.3595265],[29.6644909,46.3597377],[29.6698058,46.3603317],[29.6713425,46.360503],[29.6772364,46.3611186],[29.6787608,46.3613508],[29.677455,46.3676807],[29.6770086,46.3701162],[29.676721,46.3719151],[29.6763932,46.3730551],[29.6741313,46.3818934],[29.6741732,46.3826777],[29.6730432,46.3869961],[29.6726699,46.3883151],[29.6720031,46.3905519],[29.6709096,46.3943622],[29.669992,46.3978441],[29.6687288,46.4027654],[29.6685584,46.4032367],[29.6680926,46.4048047],[29.6678226,46.4062051],[29.6674612,46.4076873],[29.6671311,46.4093969],[29.6667831,46.4107414],[29.6663252,46.4126499],[29.6657498,46.4149814],[29.6651235,46.4174736],[29.6645898,46.4194406],[29.6635012,46.4236996],[29.662989,46.4257232],[29.6617472,46.4304151],[29.6611593,46.4327327],[29.6602999,46.4359837],[29.6578244,46.4444333],[29.6631857,46.4480303],[29.6705259,46.4537214],[29.6748917,46.457487],[29.6829843,46.4634773],[29.6823525,46.4642773],[29.678468,46.4667964],[29.6777184,46.4679542],[29.6721664,46.480455],[29.6702546,46.4842201],[29.6705421,46.4843981],[29.6786062,46.4881072]]]}},{"type":"Feature","properties":{"entity_id":"osm-r1706595","jurisdiction":"MD","display_name":"Ștefănești","display_type":"independent_village","admin_level":8,"tier":"local","legal_registry":"CUATM","legal_id":"8534","legal_type":"independent_village","parent_catalog_id":"osm-r65344","osm_relation_id":1706595,"legal_identity_status":"reconciled","geometry_source":"OpenStreetMap","geometry_precision":"master_coordinate_fidelity"},"geometry":{"type":"Polygon","coordinates":[[[29.6786062,46.4881072],[29.6705421,46.4843981],[29.6702546,46.4842201],[29.6721664,46.480455],[29.6777184,46.4679542],[29.678468,46.4667964],[29.6823525,46.4642773],[29.6829843,46.4634773],[29.6748917,46.457487],[29.6705259,46.4537214],[29.6631857,46.4480303],[29.6578244,46.4444333],[29.6602999,46.4359837],[29.6615481,46.4363716],[29.6630879,46.4368625],[29.6664971,46.4379238],[29.6674908,46.4382139],[29.6734183,46.4400041],[29.6788227,46.4416721],[29.6809991,46.4329865],[29.681817,46.4313162],[29.6827012,46.431505],[29.6838366,46.4317394],[29.6854801,46.4320481],[29.6855805,46.4301325],[29.685711,46.4281414],[29.6858338,46.4259968],[29.6890263,46.4265647],[29.6904621,46.42688],[29.6906125,46.426913],[29.696457,46.4280235],[29.6986983,46.4284702],[29.7047494,46.4297741],[29.7061546,46.4300483],[29.708072,46.4304101],[29.7103756,46.4308827],[29.7199255,46.432475],[29.7242808,46.4332111],[29.7273003,46.4337417],[29.7292076,46.4340768],[29.7320035,46.4345465],[29.7346389,46.4350027],[29.7331187,46.4371384],[29.7311589,46.4399893],[29.7350407,46.4413017],[29.7364827,46.4418078],[29.738139,46.4423403],[29.7422191,46.443621],[29.7377393,46.4504514],[29.7341626,46.4558085],[29.7324686,46.4583873],[29.7303435,46.4615719],[29.7291147,46.4632964],[29.7284867,46.4642357],[29.7279391,46.4651293],[29.7267899,46.4668279],[29.7265413,46.4666841],[29.7233382,46.465353],[29.7175577,46.4630297],[29.7091244,46.4597436],[29.7017075,46.4772991],[29.6942043,46.4952148],[29.6828436,46.4900568],[29.6786062,46.4881072]]]}},{"type":"Feature","properties":{"entity_id":"osm-r1706624","jurisdiction":"MD","display_name":"Alava","display_type":"commune","admin_level":8,"tier":"local","legal_registry":"CUATM","legal_id":"8510","legal_type":"commune","parent_catalog_id":"osm-r65344","osm_relation_id":1706624,"legal_identity_status":"reconciled","geometry_source":"OpenStreetMap","geometry_precision":"master_coordinate_fidelity"},"geometry":{"type":"Polygon","coordinates":[[[29.5334047,46.4843318],[29.538518,46.480968],[29.5607946,46.4899153],[29.5767205,46.4739256],[29.5876636,46.4632546],[29.6166847,46.4766613],[29.6151925,46.4784827],[29.6157119,46.4787936],[29.6128626,46.4808593],[29.6097618,46.4827255],[29.6063452,46.4854648],[29.6038778,46.4885535],[29.6016797,46.4906229],[29.5956767,46.4886379],[29.5814019,46.5054765],[29.5728644,46.5144952],[29.5677412,46.5197328],[29.5603013,46.5172474],[29.5622093,46.5084865],[29.5620454,46.5084296],[29.5517929,46.50484],[29.5472134,46.5128172],[29.5433499,46.5112349],[29.5414279,46.5042095],[29.5391324,46.4987288],[29.5361197,46.494729],[29.5298008,46.4919681],[29.5334047,46.4843318]]]}},{"type":"Feature","properties":{"entity_id":"osm-r1706625","jurisdiction":"MD","display_name":"Carahasani","display_type":"independent_village","admin_level":8,"tier":"local","legal_registry":"CUATM","legal_id":"8514","legal_type":"independent_village","parent_catalog_id":"osm-r65344","osm_relation_id":1706625,"legal_identity_status":"reconciled","geometry_source":"OpenStreetMap","geometry_precision":"master_coordinate_fidelity"},"geometry":{"type":"Polygon","coordinates":[[[29.7412898,46.472979],[29.7430278,46.4724265],[29.743833,46.4720783],[29.7478972,46.4708813],[29.74888,46.4705462],[29.7495358,46.4701295],[29.7498683,46.4698519],[29.7517701,46.4680618],[29.7526852,46.4671619],[29.7536973,46.4663776],[29.7570191,46.4629626],[29.7584006,46.4617432],[29.7590554,46.4611521],[29.7600669,46.4602327],[29.7613525,46.459037],[29.7632164,46.4573084],[29.7657898,46.4549737],[29.7677824,46.4530821],[29.7708266,46.4536995],[29.7724507,46.4540249],[29.7761712,46.4547471],[29.7763856,46.4545767],[29.7780754,46.4504368],[29.7789286,46.4482946],[29.7814936,46.4419802],[29.7837031,46.436548],[29.784741,46.4339256],[29.7858015,46.4312883],[29.7870632,46.4280911],[29.7880161,46.4260088],[29.7885217,46.4248524],[29.7896779,46.4220879],[29.7896718,46.4219135],[29.7895593,46.4217473],[29.7868229,46.419933],[29.7884361,46.4186692],[29.7904457,46.417111],[29.7939609,46.4143199],[29.794048,46.4142566],[29.7976357,46.4163265],[29.8090413,46.4207496],[29.8169364,46.4237716],[29.8252129,46.4269499],[29.8331268,46.42996],[29.840154,46.432649],[29.8432575,46.4337337],[29.8472477,46.4353685],[29.8592184,46.4397835],[29.8612951,46.4406051],[29.859962,46.4443482],[29.8596427,46.4448614],[29.8290035,46.4702262],[29.827097,46.4719819],[29.8215696,46.4773156],[29.8175379,46.4816095],[29.8121834,46.4792589],[29.8072975,46.4857572],[29.7942758,46.4953275],[29.7933119,46.4949362],[29.769151,46.4848292],[29.7612589,46.4815713],[29.7534699,46.4783646],[29.7493943,46.4766988],[29.7458201,46.474895],[29.7412898,46.472979]]]}},{"type":"Feature","properties":{"entity_id":"osm-r1706626","jurisdiction":"MD","display_name":"Crocmaz","display_type":"independent_village","admin_level":8,"tier":"local","legal_registry":"CUATM","legal_id":"8518","legal_type":"independent_village","parent_catalog_id":"osm-r65344","osm_relation_id":1706626,"legal_identity_status":"reconciled","geometry_source":"OpenStreetMap","geometry_precision":"master_coordinate_fidelity"},"geometry":{"type":"Polygon","coordinates":[[[29.9094884,46.413995],[29.912292,46.412684],[29.9210927,46.4086146],[29.9312205,46.4037021],[29.9376264,46.4017706],[29.938634,46.4023058],[29.9387314,46.4024161],[29.9384684,46.4029488],[29.9383119,46.4033046],[29.9383287,46.4034834],[29.9383929,46.4037138],[29.9386094,46.4038883],[29.9390233,46.4041144],[29.940139,46.4047312],[29.9415268,46.4055114],[29.942833,46.4062542],[29.9440901,46.4069739],[29.9450006,46.4074677],[29.9455121,46.4077656],[29.9489032,46.4097327],[29.9490219,46.4098456],[29.9491365,46.4099986],[29.9494977,46.4102143],[29.95043,46.4107366],[29.950743,46.4109135],[29.9509865,46.4111468],[29.9512772,46.4114018],[29.9514204,46.4114977],[29.9515801,46.4115613],[29.9518477,46.4116371],[29.9520496,46.4117174],[29.9527704,46.4120765],[29.9536642,46.4125431],[29.954919,46.4132545],[29.9559047,46.4138177],[29.957357,46.4146324],[29.9583421,46.4152065],[29.9587118,46.4154438],[29.9588955,46.4155609],[29.9590814,46.4156671],[29.9592039,46.4158326],[29.9592068,46.4158862],[29.9594066,46.4159996],[29.9609696,46.416844],[29.9622186,46.4175475],[29.9638646,46.4184925],[29.9650203,46.4191625],[29.9663079,46.4199148],[29.9669853,46.420307],[29.9685459,46.4211909],[29.9689009,46.4213856],[29.9707048,46.4223894],[29.9715114,46.4228525],[29.9721572,46.4232272],[29.9728475,46.423627],[29.973443,46.4239847],[29.974087,46.4243591],[29.9753317,46.4250803],[29.97628,46.4256285],[29.9780596,46.4266649],[29.9785094,46.4269199],[29.9783988,46.4270726],[29.978099,46.4275039],[29.9788438,46.4277943],[29.9795796,46.4275976],[29.9814345,46.4286148],[29.9824076,46.4291536],[29.9838071,46.4299559],[29.9849836,46.430623],[29.9859577,46.4311718],[29.9868152,46.4316605],[29.9885013,46.4326599],[29.9891994,46.4330761],[29.9896889,46.4333499],[29.990148,46.4336504],[29.9910006,46.43418],[29.991417,46.4344545],[29.9920839,46.4348304],[29.9928111,46.4352794],[29.9936871,46.4358223],[29.9941089,46.4360595],[29.9948628,46.4364757],[29.9953431,46.4367889],[29.9965659,46.4375288],[29.9975126,46.4380756],[29.9981462,46.438425],[29.9987148,46.4387208],[30.0010338,46.4367239],[30.0020845,46.4358004],[30.0028334,46.4350596],[30.0036669,46.4343522],[30.0041646,46.4335973],[30.0042515,46.4330838],[30.0046931,46.4325018],[30.0057865,46.4314661],[30.0082862,46.4340212],[30.0098661,46.434905],[30.0109288,46.433679],[30.0136162,46.4352973],[30.0146196,46.4341073],[30.0151064,46.4344029],[30.0164112,46.4353405],[30.0170636,46.4357705],[30.0169037,46.4359903],[30.0181528,46.4365953],[30.0187659,46.436133],[30.0192947,46.4356804],[30.0198857,46.4361029],[30.0202879,46.4366652],[30.0203767,46.4368707],[30.0203596,46.4370416],[30.0213041,46.4379869],[30.0218344,46.4386371],[30.0220374,46.4389937],[30.0223334,46.439529],[30.0227273,46.4403429],[30.0229462,46.4406981],[30.0229613,46.4407902],[30.0226241,46.4411174],[30.0218031,46.4411704],[30.0214785,46.4412251],[30.0210936,46.441332],[30.0207144,46.4414739],[30.0194619,46.4420683],[30.0181981,46.4426607],[30.0167621,46.4433304],[30.0161159,46.4435914],[30.0154162,46.4437884],[30.0135154,46.444262],[30.0118908,46.4446345],[30.010599,46.444928],[30.0099742,46.4450912],[30.0097383,46.4452506],[30.0082036,46.4463683],[30.0077771,46.4466786],[30.007602,46.4468697],[30.0070802,46.447585],[30.0068441,46.4478941],[30.0065769,46.4482285],[30.0064958,46.4484192],[30.0064355,46.4487971],[30.0063893,46.4493496],[30.0063383,46.4497847],[30.0062563,46.4503266],[30.0061544,46.4508438],[30.006071,46.4511714],[30.0057397,46.4519203],[30.0056561,46.4522049],[30.0055128,46.4527335],[30.0054778,46.452858],[30.0051025,46.4533222],[30.0053498,46.4535475],[30.0061192,46.4543596],[30.0029202,46.4556877],[29.9991574,46.4580163],[29.9963801,46.459882],[29.994955,46.4608898],[29.99411,46.461987],[29.9938806,46.4627515],[29.9939451,46.4634068],[29.9943183,46.4639292],[29.9953139,46.4643683],[29.9968163,46.46456],[29.9995326,46.4648566],[30.0069745,46.4651764],[30.0139255,46.464843],[30.0185725,46.4647629],[30.021167,46.4653364],[30.0221835,46.4658551],[30.0229483,46.4666834],[30.0232968,46.4687771],[30.0219684,46.470681],[30.0212928,46.4711093],[30.019976,46.4715029],[30.0171524,46.4718299],[30.0144059,46.4719192],[30.0120415,46.4717023],[30.0091451,46.4713631],[30.0063725,46.4710653],[30.0039127,46.470785],[30.001285,46.4706409],[29.9999126,46.4708971],[29.9983389,46.4714892],[29.9965442,46.4722546],[29.9955134,46.4729656],[29.995019,46.4734071],[29.9945683,46.47402],[29.994324,46.4748308],[29.9943568,46.4753453],[29.9941825,46.476048],[29.993885,46.4764915],[29.9933504,46.4770259],[29.992636,46.4775004],[29.9918819,46.4778278],[29.991325,46.4783697],[29.9909834,46.4788588],[29.990326,46.4799751],[29.9898724,46.4811187],[29.9895529,46.4826072],[29.989497,46.484017],[29.9896692,46.485505],[29.9779056,46.4854053],[29.9691777,46.4768144],[29.9669824,46.4779943],[29.9647703,46.4797896],[29.8841859,46.4302518],[29.8837754,46.4283903],[29.8832975,46.4264754],[29.9094884,46.413995]]]}},{"type":"Feature","properties":{"entity_id":"osm-r1706627","jurisdiction":"MD","display_name":"Căplani","display_type":"independent_village","admin_level":8,"tier":"local","legal_registry":"CUATM","legal_id":"8515","legal_type":"independent_village","parent_catalog_id":"osm-r65344","osm_relation_id":1706627,"legal_identity_status":"reconciled","geometry_source":"OpenStreetMap","geometry_precision":"master_coordinate_fidelity"},"geometry":{"type":"Polygon","coordinates":[[[29.8612951,46.4406051],[29.8592184,46.4397835],[29.8472477,46.4353685],[29.8432575,46.4337337],[29.840154,46.432649],[29.8331268,46.42996],[29.8252129,46.4269499],[29.8169364,46.4237716],[29.8090413,46.4207496],[29.7976357,46.4163265],[29.7986299,46.4151964],[29.8013377,46.4130284],[29.8053827,46.409796],[29.8110636,46.4052866],[29.8146396,46.4024762],[29.8169164,46.4006178],[29.8193356,46.3987619],[29.8231401,46.3957558],[29.8190467,46.3934538],[29.8156707,46.3915399],[29.8121081,46.3895388],[29.8087864,46.3876579],[29.8052325,46.3856381],[29.8092222,46.3841021],[29.8131116,46.3825498],[29.8158159,46.3814842],[29.8255688,46.3776436],[29.8273027,46.3769529],[29.8299283,46.375926],[29.8339483,46.3743724],[29.8368604,46.3731975],[29.8389745,46.3723809],[29.8398052,46.3720228],[29.842209,46.3711051],[29.8441274,46.3702953],[29.8472824,46.3691137],[29.8560316,46.3657494],[29.8610515,46.3638397],[29.8623378,46.3633548],[29.8636857,46.3628142],[29.8657205,46.3620425],[29.8668216,46.3616753],[29.8686311,46.3609846],[29.8692095,46.3606429],[29.8728486,46.3593667],[29.8790436,46.3569883],[29.880532,46.3564217],[29.8823889,46.3557051],[29.8836469,46.3552464],[29.8875563,46.3537913],[29.8911359,46.3523887],[29.8896915,46.3586011],[29.888976,46.362845],[29.8881671,46.365967],[29.8873191,46.3691126],[29.8867745,46.3714047],[29.8869747,46.3716846],[29.8900822,46.3734435],[29.8927402,46.3749375],[29.9050016,46.3818395],[29.9097104,46.3844683],[29.9113455,46.3853973],[29.9150146,46.387438],[29.9177764,46.388981],[29.919343,46.3899029],[29.9206989,46.390489],[29.9222969,46.3914331],[29.9234524,46.3921157],[29.923876,46.3926177],[29.9250501,46.3932677],[29.9269938,46.394277],[29.9275113,46.3944721],[29.9292837,46.3955128],[29.9325714,46.3973768],[29.9350417,46.3987847],[29.9360197,46.3993084],[29.9376024,46.4000352],[29.9391763,46.4004698],[29.9376264,46.4017706],[29.9312205,46.4037021],[29.9210927,46.4086146],[29.912292,46.412684],[29.9094884,46.413995],[29.8832975,46.4264754],[29.8798512,46.429094],[29.8753695,46.4321286],[29.8646306,46.4419449],[29.8612951,46.4406051]]]}},{"type":"Feature","properties":{"entity_id":"osm-r1706628","jurisdiction":"MD","display_name":"Marianca de Jos","display_type":"independent_village","admin_level":8,"tier":"local","legal_registry":"CUATM","legal_id":"8524","legal_type":"independent_village","parent_catalog_id":"osm-r65344","osm_relation_id":1706628,"legal_identity_status":"reconciled","geometry_source":"OpenStreetMap","geometry_precision":"master_coordinate_fidelity"},"geometry":{"type":"Polygon","coordinates":[[[29.6143304,46.5356969],[29.5998404,46.5308517],[29.5704244,46.5207861],[29.5677412,46.5197328],[29.5728644,46.5144952],[29.5814019,46.5054765],[29.5956767,46.4886379],[29.6016797,46.4906229],[29.6146444,46.4952864],[29.6194445,46.4963982],[29.619938,46.4973864],[29.6187716,46.5012465],[29.6162146,46.5048592],[29.6167529,46.5094906],[29.6178744,46.5120223],[29.6198931,46.5136277],[29.6227194,46.5180731],[29.6244241,46.5227651],[29.6143304,46.5356969]]]}},{"type":"Feature","properties":{"entity_id":"osm-r1706629","jurisdiction":"MD","display_name":"Palanca","display_type":"independent_village","admin_level":8,"tier":"local","legal_registry":"CUATM","legal_id":"8526","legal_type":"independent_village","parent_catalog_id":"osm-r65344","osm_relation_id":1706629,"legal_identity_status":"reconciled","geometry_source":"OpenStreetMap","geometry_precision":"master_coordinate_fidelity"},"geometry":{"type":"Polygon","coordinates":[[[29.9748327,46.3882757],[29.977608,46.3874456],[29.9804002,46.3864564],[29.9805168,46.386421],[29.9805943,46.3863976],[29.9806568,46.3863786],[29.9813053,46.3861821],[29.9818642,46.3860128],[29.9878742,46.3840853],[29.9887654,46.3846395],[29.9894938,46.3851099],[29.9914951,46.3863699],[29.9930614,46.3872504],[29.9949378,46.3883854],[29.9972458,46.3897509],[29.9985919,46.3894322],[29.9989474,46.389348],[30.0004022,46.3889239],[30.0040133,46.3878925],[30.008771,46.386554],[30.0094867,46.3863298],[30.0147901,46.3848313],[30.017304,46.3841353],[30.0211556,46.3830755],[30.0219764,46.3831571],[30.0237658,46.3839154],[30.0252068,46.3846712],[30.0265131,46.3852786],[30.0270351,46.3854893],[30.0279937,46.385838],[30.0293601,46.3864401],[30.0299322,46.3866573],[30.0320192,46.3875143],[30.0334568,46.3881108],[30.035023,46.3887368],[30.0378261,46.3899407],[30.0395832,46.3907012],[30.0435128,46.3924642],[30.0484412,46.394442],[30.051709,46.3959502],[30.0536719,46.3967694],[30.0569657,46.3982618],[30.0577759,46.3985623],[30.0581602,46.3986242],[30.058558,46.3986051],[30.0643233,46.3977875],[30.0656633,46.3975708],[30.0695033,46.3971025],[30.0705442,46.396985],[30.0713435,46.3965778],[30.0722265,46.396087],[30.073414,46.3952587],[30.0750574,46.3941723],[30.0756502,46.393694],[30.081609,46.3897025],[30.0832682,46.3885165],[30.0845572,46.3875577],[30.0876917,46.3853595],[30.0877399,46.3853229],[30.0878585,46.3852327],[30.0879907,46.3851323],[30.0883721,46.3848425],[30.0896225,46.3839737],[30.090271,46.3838081],[30.0914197,46.3829292],[30.0912728,46.3826179],[30.0909445,46.3822531],[30.0910502,46.3821615],[30.0912593,46.3819803],[30.0913364,46.3819135],[30.0920243,46.3813691],[30.0914838,46.3810936],[30.0924224,46.3799258],[30.0926186,46.3796179],[30.0928357,46.3792013],[30.0929624,46.3790255],[30.0931724,46.3788579],[30.0935428,46.3785936],[30.0944731,46.3779809],[30.0948884,46.3775637],[30.0952712,46.3773206],[30.0955415,46.3771848],[30.0956821,46.3770553],[30.095705,46.3768833],[30.0957001,46.3767113],[30.095741,46.3764164],[30.095976,46.3757824],[30.0964537,46.3755148],[30.096773,46.375242],[30.0972367,46.375181],[30.1068734,46.3913428],[30.1131676,46.3937125],[30.1214563,46.3967853],[30.1304425,46.4000174],[30.1409385,46.403897],[30.1455904,46.4057282],[30.1494949,46.4072797],[30.1526338,46.4087977],[30.1624407,46.4129587],[30.1624772,46.4129742],[30.1626104,46.4130274],[30.1627394,46.4130867],[30.1630383,46.413224],[30.1637143,46.4135329],[30.1634563,46.4136267],[30.1626343,46.4139882],[30.1619189,46.4146152],[30.1612971,46.4154181],[30.1611834,46.4162802],[30.1609372,46.4175079],[30.1609561,46.4193885],[30.1611651,46.4231434],[30.1611456,46.4250041],[30.1605771,46.4266636],[30.1599925,46.427468],[30.1590933,46.4281907],[30.1580794,46.4287322],[30.1569979,46.4290698],[30.1558032,46.4292512],[30.154358,46.4293341],[30.1531088,46.4291861],[30.1517098,46.4289512],[30.1505089,46.4284041],[30.1499088,46.4278977],[30.1495047,46.4271929],[30.1493271,46.4264491],[30.1489193,46.4232069],[30.1489313,46.4215105],[30.1488207,46.4198877],[30.1485301,46.4179801],[30.148219,46.4169625],[30.1473376,46.4156518],[30.1469671,46.4153216],[30.1459593,46.4144234],[30.1446112,46.4134657],[30.1422219,46.4123375],[30.1397096,46.4115875],[30.1382324,46.4112317],[30.1361044,46.4110248],[30.1342788,46.4110181],[30.1326642,46.4112881],[30.1311659,46.4118038],[30.1306754,46.4120912],[30.1302893,46.4123175],[30.1298958,46.4127318],[30.1298849,46.4128694],[30.1298616,46.4131625],[30.1299694,46.4136451],[30.1302465,46.41405],[30.1308461,46.4142783],[30.1319483,46.4146179],[30.1340219,46.4150945],[30.1348987,46.4154491],[30.1354547,46.4157855],[30.1356389,46.4162132],[30.1356336,46.4164132],[30.1356242,46.4167728],[30.135236,46.4173699],[30.1341823,46.4181484],[30.1328105,46.4189313],[30.1309406,46.4200869],[30.1293384,46.4213248],[30.1267839,46.423679],[30.1244385,46.4256587],[30.1217247,46.4275432],[30.1202517,46.4284135],[30.1186368,46.4292319],[30.1173961,46.4297649],[30.1164634,46.4301655],[30.1139594,46.4310509],[30.1123799,46.4314814],[30.1110859,46.4315315],[30.1102362,46.4312958],[30.1093615,46.430457],[30.1087737,46.4295614],[30.1081058,46.4285917],[30.1076515,46.4279956],[30.1073146,46.4276775],[30.1067006,46.4274923],[30.1060453,46.4275013],[30.1053948,46.4276716],[30.104685,46.4281603],[30.1042283,46.4288924],[30.1039087,46.4297143],[30.1033913,46.4308887],[30.1030958,46.4316644],[30.1027239,46.4326405],[30.1005645,46.4365466],[30.0979506,46.4390285],[30.095724,46.4400692],[30.0930714,46.4403494],[30.0909664,46.4397958],[30.0905349,46.4396823],[30.0897991,46.4386282],[30.0908641,46.4373873],[30.0921613,46.4364799],[30.0965633,46.4329713],[30.0973021,46.4320684],[30.0979552,46.4308977],[30.0983055,46.4300539],[30.0984462,46.4289763],[30.0984177,46.4280606],[30.0980993,46.4273012],[30.0975201,46.4266959],[30.0964881,46.4260861],[30.0953844,46.4256924],[30.0940388,46.4255709],[30.0924207,46.4257435],[30.0916576,46.4263456],[30.0910708,46.4271065],[30.0903644,46.4286006],[30.0900497,46.429437],[30.0895527,46.4306163],[30.0888875,46.4319162],[30.0878337,46.4332751],[30.0876285,46.4334464],[30.0869953,46.4339749],[30.0859937,46.4344296],[30.0857351,46.4345299],[30.0849594,46.4348308],[30.0833918,46.4349874],[30.0824843,46.4349136],[30.0811009,46.4345666],[30.0799717,46.4338288],[30.0792769,46.4329991],[30.0789149,46.4317934],[30.0788795,46.430546],[30.0790093,46.4290706],[30.0793321,46.4276764],[30.0795946,46.4264788],[30.0797518,46.4254225],[30.0797356,46.4248526],[30.0795537,46.4244893],[30.0791062,46.4241188],[30.0783978,46.4239025],[30.077604,46.4239777],[30.0775008,46.422643],[30.0771218,46.4201272],[30.075569,46.4149962],[30.0704287,46.4156607],[30.064271,46.4170634],[30.0554897,46.4214929],[30.0507537,46.4224357],[30.0219706,46.4051389],[30.0172051,46.4113045],[30.0153311,46.4121167],[29.9925745,46.3985664],[29.9918785,46.3986402],[29.9748327,46.3882757]]]}},{"type":"Feature","properties":{"entity_id":"osm-r1706630","jurisdiction":"MD","display_name":"Popeasca","display_type":"independent_village","admin_level":8,"tier":"local","legal_registry":"CUATM","legal_id":"8527","legal_type":"independent_village","parent_catalog_id":"osm-r65344","osm_relation_id":1706630,"legal_identity_status":"reconciled","geometry_source":"OpenStreetMap","geometry_precision":"master_coordinate_fidelity"},"geometry":{"type":"Polygon","coordinates":[[[29.5033921,46.6053757],[29.503866,46.6051474],[29.5079401,46.6033844],[29.5112589,46.6009645],[29.5129201,46.5998469],[29.5140272,46.5990226],[29.5151634,46.5983548],[29.5178229,46.5965707],[29.5203038,46.5947671],[29.5224323,46.5934983],[29.5243288,46.5922045],[29.5260376,46.5910431],[29.5274641,46.5900753],[29.5291188,46.5889975],[29.5303846,46.5882305],[29.5321854,46.5873648],[29.5336114,46.5868614],[29.5355135,46.5862854],[29.5384922,46.585403],[29.5399957,46.5849536],[29.5429028,46.5841198],[29.5449369,46.5835265],[29.546766,46.5829614],[29.5480522,46.5825707],[29.5492111,46.5821233],[29.5553515,46.5792657],[29.5570255,46.5784381],[29.557751,46.5781323],[29.5586131,46.5776867],[29.5597488,46.5775134],[29.5709873,46.5718582],[29.5744165,46.5708834],[29.5788101,46.5707725],[29.5957045,46.5713784],[29.5967329,46.575418],[29.6061453,46.6008497],[29.6089322,46.6064617],[29.6069181,46.6152283],[29.6064458,46.6189323],[29.6001535,46.6223084],[29.5939788,46.6256945],[29.5948262,46.6280879],[29.59182,46.6285163],[29.5899541,46.6283482],[29.5883484,46.6283482],[29.587538,46.6285666],[29.5847462,46.6289538],[29.5844649,46.6291643],[29.58392,46.6320579],[29.5833121,46.6337878],[29.5831221,46.6342316],[29.5829545,46.6346229],[29.5826392,46.6353593],[29.579723,46.6352395],[29.5790999,46.6359714],[29.5778757,46.6374093],[29.572441,46.6361175],[29.571613,46.6376121],[29.5703358,46.6375342],[29.5650796,46.636879],[29.5678108,46.6304408],[29.5650668,46.6300921],[29.5611705,46.629675],[29.5596414,46.6362435],[29.5552872,46.6357456],[29.5542159,46.6354895],[29.5536299,46.6358142],[29.5511918,46.639429],[29.5378358,46.6349327],[29.5378255,46.6343445],[29.5393636,46.6343985],[29.5404927,46.6343761],[29.5413496,46.6339812],[29.5425591,46.6332011],[29.5427865,46.63224],[29.5436393,46.631391],[29.543882,46.6307373],[29.5435567,46.6299826],[29.5427157,46.6291163],[29.5383951,46.6265063],[29.5310488,46.6220833],[29.5198716,46.615381],[29.5068067,46.6073645],[29.5035963,46.6055534],[29.5033921,46.6053757]]]}},{"type":"Feature","properties":{"entity_id":"osm-r1706631","jurisdiction":"MD","display_name":"Slobozia","display_type":"independent_village","admin_level":8,"tier":"local","legal_registry":"CUATM","legal_id":"8533","legal_type":"independent_village","parent_catalog_id":"osm-r65344","osm_relation_id":1706631,"legal_identity_status":"reconciled","geometry_source":"OpenStreetMap","geometry_precision":"master_coordinate_fidelity"},"geometry":{"type":"Polygon","coordinates":[[[29.684465,46.5182946],[29.6873523,46.5120376],[29.6874208,46.5118891],[29.6734609,46.5054492],[29.6723635,46.5049429],[29.6800757,46.4978564],[29.6810647,46.4963091],[29.6816548,46.4953858],[29.6824339,46.4934934],[29.6826397,46.4924511],[29.6828436,46.4900568],[29.6942043,46.4952148],[29.7017075,46.4772991],[29.7091244,46.4597436],[29.7175577,46.4630297],[29.7233382,46.465353],[29.7265413,46.4666841],[29.7267899,46.4668279],[29.7280132,46.4674186],[29.7295112,46.467987],[29.7321454,46.4691683],[29.7326592,46.4694298],[29.733781,46.4698639],[29.7356352,46.4706224],[29.7360689,46.4708425],[29.7376338,46.4716484],[29.740705,46.4727538],[29.7412898,46.472979],[29.7458201,46.474895],[29.7493943,46.4766988],[29.7534699,46.4783646],[29.7612589,46.4815713],[29.769151,46.4848292],[29.7933119,46.4949362],[29.7842827,46.5026065],[29.7814628,46.5112311],[29.77406,46.5103824],[29.7745274,46.5149595],[29.7626476,46.5147785],[29.7626476,46.5166187],[29.7631692,46.5176034],[29.7631298,46.5201178],[29.7620777,46.5208417],[29.7617964,46.5318876],[29.7485357,46.5317745],[29.7388315,46.5316536],[29.7291056,46.5313169],[29.7265394,46.5313459],[29.7249731,46.5314259],[29.7210924,46.5315725],[29.7156468,46.5317601],[29.7130672,46.5318561],[29.7065886,46.5320766],[29.7027291,46.5322201],[29.6924781,46.5325926],[29.6896706,46.5327117],[29.6969585,46.5160321],[29.684465,46.5182946]]]}},{"type":"Feature","properties":{"entity_id":"osm-r1706632","jurisdiction":"MD","display_name":"Tudora","display_type":"independent_village","admin_level":8,"tier":"local","legal_registry":"CUATM","legal_id":"8536","legal_type":"independent_village","parent_catalog_id":"osm-r65344","osm_relation_id":1706632,"legal_identity_status":"reconciled","geometry_source":"OpenStreetMap","geometry_precision":"master_coordinate_fidelity"},"geometry":{"type":"Polygon","coordinates":[[[30.0648491,46.4423201],[30.0641721,46.4429057],[30.0626906,46.4430947],[30.0611359,46.4432398],[30.0562118,46.4433494],[30.0523241,46.4436108],[30.0486811,46.4436687],[30.0460142,46.4436252],[30.0395451,46.4428071],[30.0361825,46.44228],[30.0332824,46.4419307],[30.0299076,46.4418243],[30.0250135,46.4419204],[30.0234713,46.4418776],[30.0225685,46.4420884],[30.0219553,46.442541],[30.0217966,46.4435865],[30.0220609,46.444691],[30.0226227,46.4459432],[30.0238438,46.4477775],[30.0254575,46.4498259],[30.0262706,46.4510093],[30.0265437,46.4518556],[30.0263599,46.4525572],[30.0260233,46.4530048],[30.0250741,46.4536949],[30.0238084,46.4542958],[30.0219264,46.454847],[30.0197731,46.4551191],[30.0175074,46.4552131],[30.0150327,46.4549331],[30.0123479,46.4543869],[30.010435,46.4538445],[30.0096176,46.4535577],[30.0088407,46.453378],[30.0082198,46.453515],[30.0061192,46.4543596],[30.0053498,46.4535475],[30.0051025,46.4533222],[30.0054778,46.452858],[30.0055128,46.4527335],[30.0056561,46.4522049],[30.0057397,46.4519203],[30.006071,46.4511714],[30.0061544,46.4508438],[30.0062563,46.4503266],[30.0063383,46.4497847],[30.0063893,46.4493496],[30.0064355,46.4487971],[30.0064958,46.4484192],[30.0065769,46.4482285],[30.0068441,46.4478941],[30.0070802,46.447585],[30.007602,46.4468697],[30.0077771,46.4466786],[30.0082036,46.4463683],[30.0097383,46.4452506],[30.0099742,46.4450912],[30.010599,46.444928],[30.0118908,46.4446345],[30.0135154,46.444262],[30.0154162,46.4437884],[30.0161159,46.4435914],[30.0167621,46.4433304],[30.0181981,46.4426607],[30.0194619,46.4420683],[30.0207144,46.4414739],[30.0210936,46.441332],[30.0214785,46.4412251],[30.0218031,46.4411704],[30.0226241,46.4411174],[30.0229613,46.4407902],[30.0229462,46.4406981],[30.0227273,46.4403429],[30.0223334,46.439529],[30.0220374,46.4389937],[30.0218344,46.4386371],[30.0213041,46.4379869],[30.0203596,46.4370416],[30.0203767,46.4368707],[30.0202879,46.4366652],[30.0198857,46.4361029],[30.0192947,46.4356804],[30.0187659,46.436133],[30.0181528,46.4365953],[30.0169037,46.4359903],[30.0170636,46.4357705],[30.0164112,46.4353405],[30.0151064,46.4344029],[30.0146196,46.4341073],[30.0136162,46.4352973],[30.0109288,46.433679],[30.0098661,46.434905],[30.0082862,46.4340212],[30.0057865,46.4314661],[30.0046931,46.4325018],[30.0042515,46.4330838],[30.0041646,46.4335973],[30.0036669,46.4343522],[30.0028334,46.4350596],[30.0020845,46.4358004],[30.0010338,46.4367239],[29.9987148,46.4387208],[29.9981462,46.438425],[29.9975126,46.4380756],[29.9965659,46.4375288],[29.9953431,46.4367889],[29.9948628,46.4364757],[29.9941089,46.4360595],[29.9936871,46.4358223],[29.9928111,46.4352794],[29.9920839,46.4348304],[29.991417,46.4344545],[29.9910006,46.43418],[29.990148,46.4336504],[29.9896889,46.4333499],[29.9891994,46.4330761],[29.9885013,46.4326599],[29.9868152,46.4316605],[29.9859577,46.4311718],[29.9849836,46.430623],[29.9838071,46.4299559],[29.9824076,46.4291536],[29.9814345,46.4286148],[29.9795796,46.4275976],[29.9788438,46.4277943],[29.978099,46.4275039],[29.9783988,46.4270726],[29.9785094,46.4269199],[29.9780596,46.4266649],[29.97628,46.4256285],[29.9753317,46.4250803],[29.974087,46.4243591],[29.973443,46.4239847],[29.9728475,46.423627],[29.9721572,46.4232272],[29.9715114,46.4228525],[29.9707048,46.4223894],[29.9689009,46.4213856],[29.9685459,46.4211909],[29.9669853,46.420307],[29.9663079,46.4199148],[29.9650203,46.4191625],[29.9638646,46.4184925],[29.9622186,46.4175475],[29.9609696,46.416844],[29.9594066,46.4159996],[29.9592068,46.4158862],[29.9592039,46.4158326],[29.9590814,46.4156671],[29.9588955,46.4155609],[29.9587118,46.4154438],[29.9583421,46.4152065],[29.957357,46.4146324],[29.9559047,46.4138177],[29.954919,46.4132545],[29.9536642,46.4125431],[29.9527704,46.4120765],[29.9520496,46.4117174],[29.9518477,46.4116371],[29.9515801,46.4115613],[29.9514204,46.4114977],[29.9512772,46.4114018],[29.9509865,46.4111468],[29.950743,46.4109135],[29.95043,46.4107366],[29.9494977,46.4102143],[29.9491365,46.4099986],[29.9490219,46.4098456],[29.9489032,46.4097327],[29.9455121,46.4077656],[29.9450006,46.4074677],[29.9440901,46.4069739],[29.942833,46.4062542],[29.9415268,46.4055114],[29.940139,46.4047312],[29.9390233,46.4041144],[29.9386094,46.4038883],[29.9383929,46.4037138],[29.9383287,46.4034834],[29.9383119,46.4033046],[29.9384684,46.4029488],[29.9387314,46.4024161],[29.938634,46.4023058],[29.9376264,46.4017706],[29.9391763,46.4004698],[29.9413842,46.3991023],[29.9428465,46.3984614],[29.9440438,46.3980147],[29.9451845,46.3975924],[29.9464697,46.397175],[29.9499914,46.3961461],[29.9509583,46.3957833],[29.952365,46.3953761],[29.9548832,46.3945832],[29.9564832,46.3940699],[29.9611033,46.3925265],[29.9642961,46.3915565],[29.970223,46.3897303],[29.9748327,46.3882757],[29.9918785,46.3986402],[29.9925745,46.3985664],[30.0153311,46.4121167],[30.0172051,46.4113045],[30.0219706,46.4051389],[30.0507537,46.4224357],[30.0554897,46.4214929],[30.064271,46.4170634],[30.0704287,46.4156607],[30.075569,46.4149962],[30.0771218,46.4201272],[30.0775008,46.422643],[30.077604,46.4239777],[30.0766588,46.4242164],[30.0749104,46.4247455],[30.072637,46.4254753],[30.0708738,46.4259329],[30.0680721,46.4261964],[30.0630614,46.426328],[30.0605797,46.4263181],[30.0593215,46.4263349],[30.0590353,46.4263387],[30.0577208,46.4267649],[30.0569858,46.4272695],[30.0561786,46.4285388],[30.0557407,46.4296245],[30.0555029,46.4306066],[30.0551859,46.432106],[30.0549534,46.4332828],[30.0550072,46.4340889],[30.0551891,46.4350116],[30.0557202,46.4355854],[30.056455,46.4362095],[30.0575176,46.4368086],[30.0615944,46.4386969],[30.0636743,46.4400917],[30.06482,46.4412954],[30.0650042,46.4418087],[30.0648491,46.4423201]]]}},{"type":"Feature","properties":{"entity_id":"osm-r1706633","jurisdiction":"MD","display_name":"Ștefan Vodă","display_type":"town","admin_level":8,"tier":"local","legal_registry":"CUATM","legal_id":"8501","legal_type":"town","parent_catalog_id":"osm-r65344","osm_relation_id":1706633,"legal_identity_status":"reconciled","geometry_source":"OpenStreetMap","geometry_precision":"master_coordinate_fidelity"},"geometry":{"type":"Polygon","coordinates":[[[29.6828436,46.4900568],[29.6826397,46.4924511],[29.6824339,46.4934934],[29.6816548,46.4953858],[29.6810647,46.4963091],[29.6800757,46.4978564],[29.6723635,46.5049429],[29.6734609,46.5054492],[29.6874208,46.5118891],[29.6873523,46.5120376],[29.684465,46.5182946],[29.6832144,46.5213653],[29.6831654,46.5214855],[29.6809458,46.5269351],[29.6770837,46.5364159],[29.676967,46.5367025],[29.676865,46.5369528],[29.6764813,46.5368482],[29.6749169,46.5364217],[29.6748352,46.5363994],[29.6336116,46.5251594],[29.6261288,46.5345242],[29.6225399,46.5386903],[29.6206109,46.5379805],[29.6143304,46.5356969],[29.6244241,46.5227651],[29.6227194,46.5180731],[29.6198931,46.5136277],[29.6178744,46.5120223],[29.6167529,46.5094906],[29.6162146,46.5048592],[29.6187716,46.5012465],[29.619938,46.4973864],[29.6194445,46.4963982],[29.6146444,46.4952864],[29.6016797,46.4906229],[29.6038778,46.4885535],[29.6063452,46.4854648],[29.6097618,46.4827255],[29.6128626,46.4808593],[29.6157119,46.4787936],[29.6260011,46.4836112],[29.6408627,46.4905429],[29.6646926,46.5015847],[29.6643079,46.5007302],[29.6675022,46.4914512],[29.6677323,46.4917131],[29.6681121,46.491881],[29.67263,46.4941548],[29.6740119,46.494862],[29.6748163,46.4952838],[29.6756076,46.4956947],[29.6756317,46.4956442],[29.6785236,46.4881811],[29.6786062,46.4881072],[29.6828436,46.4900568]]]}},{"type":"Feature","properties":{"entity_id":"osm-r1811531","jurisdiction":"MD","display_name":"Antonești","display_type":"independent_village","admin_level":8,"tier":"local","legal_registry":"CUATM","legal_id":"8512","legal_type":"independent_village","parent_catalog_id":"osm-r65344","osm_relation_id":1811531,"legal_identity_status":"reconciled","geometry_source":"OpenStreetMap","geometry_precision":"master_coordinate_fidelity"},"geometry":{"type":"Polygon","coordinates":[[[29.7933119,46.4949362],[29.7942758,46.4953275],[29.8072975,46.4857572],[29.8121834,46.4792589],[29.8175379,46.4816095],[29.8215696,46.4773156],[29.827097,46.4719819],[29.8290035,46.4702262],[29.8596427,46.4448614],[29.859962,46.4443482],[29.8612951,46.4406051],[29.8646306,46.4419449],[29.8619002,46.4462841],[29.8592401,46.4505989],[29.8578823,46.4532144],[29.8561766,46.4587572],[29.8554493,46.4634815],[29.8547565,46.4701138],[29.8515008,46.4762264],[29.8598535,46.4814945],[29.8599316,46.4823008],[29.865474,46.4855795],[29.8740283,46.4879888],[29.8739371,46.488083],[29.8742906,46.4882033],[29.8719159,46.4899964],[29.869684,46.4918551],[29.8690187,46.4923917],[29.8682471,46.493019],[29.8667456,46.4942383],[29.8662272,46.4946607],[29.8653906,46.4953403],[29.8640188,46.4964808],[29.8635211,46.4970573],[29.8629891,46.4976746],[29.8619069,46.4989292],[29.860012,46.5011914],[29.8592441,46.5020605],[29.8584749,46.5029894],[29.8574638,46.5042297],[29.8570476,46.5047784],[29.8562371,46.5058176],[29.8553185,46.5069664],[29.8540306,46.5085919],[29.8534167,46.5093756],[29.8529833,46.5099361],[29.8525078,46.51055],[29.8515436,46.5117417],[29.8507997,46.5126952],[29.8503338,46.513276],[29.8498511,46.5138898],[29.8492131,46.5146776],[29.8484331,46.5156427],[29.8477409,46.5164959],[29.8471029,46.5172912],[29.8464481,46.5181245],[29.8459617,46.5187374],[29.8453984,46.5194896],[29.8451986,46.5197389],[29.8448796,46.5200826],[29.8444968,46.5204711],[29.843807,46.5209772],[29.8433761,46.5212605],[29.8429307,46.5214278],[29.8421507,46.5217478],[29.8407398,46.5222511],[29.8393603,46.5226918],[29.8375883,46.5232798],[29.8352177,46.5241259],[29.8348494,46.5238143],[29.8343089,46.5234156],[29.8336395,46.5229381],[29.8329321,46.5224142],[29.8324331,46.5220633],[29.8320943,46.5218193],[29.8317655,46.5215635],[29.8310749,46.5210848],[29.8303413,46.5206165],[29.8296175,46.5201799],[29.8281445,46.5193862],[29.8277257,46.5191482],[29.8275149,46.5189454],[29.8270631,46.5189392],[29.8264132,46.5187333],[29.8262556,46.5186723],[29.8258788,46.5185155],[29.8250322,46.518107],[29.8243636,46.5177858],[29.823632,46.5174413],[29.8229574,46.5171524],[29.8223987,46.5168938],[29.8217201,46.5166002],[29.8210875,46.5163099],[29.8201554,46.5158501],[29.8192717,46.5154373],[29.8187328,46.5151758],[29.8176994,46.5147232],[29.8170168,46.5144302],[29.816563,46.5142432],[29.8160053,46.5139983],[29.8155006,46.5137741],[29.8150093,46.5135387],[29.8145052,46.5133195],[29.8140564,46.5131193],[29.8136636,46.5129336],[29.8131589,46.5126647],[29.8126892,46.5124012],[29.8122205,46.5121433],[29.8117107,46.5118427],[29.811224,46.5115518],[29.8105764,46.5111797],[29.8098899,46.5107883],[29.8086137,46.5100707],[29.8079715,46.5096978],[29.8071783,46.5092317],[29.805906,46.5085191],[29.8052114,46.5081029],[29.8047327,46.5078271],[29.8044891,46.5076697],[29.8040431,46.5073892],[29.8033794,46.5069755],[29.8026798,46.5065587],[29.8022281,46.5062739],[29.8019922,46.5060881],[29.8018183,46.5059231],[29.8013426,46.5057896],[29.8006809,46.505553],[29.7995576,46.5051581],[29.7992997,46.5056231],[29.796676,46.5093486],[29.7925747,46.5125513],[29.7814628,46.5112311],[29.7842827,46.5026065],[29.7933119,46.4949362]]]}},{"type":"Feature","properties":{"entity_id":"osm-r1811532","jurisdiction":"MD","display_name":"Olănești","display_type":"independent_village","admin_level":8,"tier":"local","legal_registry":"CUATM","legal_id":"8525","legal_type":"independent_village","parent_catalog_id":"osm-r65344","osm_relation_id":1811532,"legal_identity_status":"reconciled","geometry_source":"OpenStreetMap","geometry_precision":"master_coordinate_fidelity"},"geometry":{"type":"Polygon","coordinates":[[[29.9896692,46.485505],[29.9898887,46.4863922],[29.990321,46.4873656],[29.9913988,46.4885244],[29.9926175,46.489506],[29.9940685,46.490364],[29.9946656,46.490717],[29.9970162,46.4921392],[29.9990452,46.4934589],[30.0004011,46.494485],[30.0010609,46.4951972],[30.0010931,46.49581],[30.0008082,46.4962546],[30.0001452,46.4965858],[29.9993833,46.4967246],[29.9981594,46.4965359],[29.9967212,46.4959304],[29.9946995,46.495084],[29.9931697,46.4944485],[29.9916257,46.4938507],[29.9900382,46.4934935],[29.9887238,46.4934073],[29.9876895,46.4938549],[29.9870356,46.4948694],[29.9874749,46.4957672],[29.9887142,46.4967691],[29.9902912,46.4979725],[29.991464,46.4989686],[29.9920328,46.4997389],[29.9924479,46.5009685],[29.9923531,46.5017701],[29.9919481,46.5027705],[29.9896813,46.5065465],[29.9883193,46.5084161],[29.9874355,46.5095364],[29.9867551,46.5101853],[29.9857998,46.5104947],[29.9849352,46.5104714],[29.9840606,46.5100708],[29.9835488,46.5089464],[29.9830991,46.50766],[29.982864,46.5063187],[29.9826213,46.5053156],[29.9826207,46.5040464],[29.9827447,46.5024669],[29.9828075,46.5013546],[29.9829993,46.5004488],[29.9831104,46.4996356],[29.982816,46.499182],[29.9822926,46.4988684],[29.9817102,46.49883],[29.9808405,46.4992298],[29.9798591,46.4998024],[29.9785786,46.500364],[29.9767529,46.5010502],[29.9745435,46.5016725],[29.9730895,46.5019652],[29.9722918,46.5019523],[29.9716085,46.5018694],[29.9708869,46.5015926],[29.9703346,46.5008609],[29.969416,46.4985768],[29.9681384,46.4961117],[29.9667618,46.4944092],[29.9647875,46.4926044],[29.9632348,46.4916633],[29.9608287,46.4906299],[29.9591573,46.4902276],[29.9573212,46.4898731],[29.9550606,46.4897983],[29.9534562,46.4900468],[29.9529006,46.4903967],[29.9529183,46.4910711],[29.9535007,46.4917499],[29.9546664,46.4927845],[29.9555452,46.4939971],[29.9564078,46.4958615],[29.9578151,46.4979346],[29.9593213,46.499631],[29.9613013,46.5012733],[29.9622353,46.5020506],[29.9638753,46.5037681],[29.964698,46.5050041],[29.9652219,46.50648],[29.9650014,46.5076847],[29.9639112,46.5090204],[29.9626474,46.5096638],[29.961496,46.5099987],[29.9599677,46.510178],[29.9587777,46.509939],[29.9579677,46.5093882],[29.9577182,46.5065346],[29.9572555,46.5036848],[29.9564744,46.5020118],[29.9553889,46.5005696],[29.9540236,46.4992063],[29.9517702,46.4976049],[29.9492512,46.4962338],[29.946653,46.4951375],[29.9444051,46.494484],[29.9424939,46.4940935],[29.9399818,46.4937237],[29.9383491,46.4935968],[29.9371699,46.4937582],[29.9360782,46.494135],[29.9354132,46.4946773],[29.9350225,46.4953232],[29.9350767,46.4959235],[29.935851,46.4966084],[29.9369536,46.497236],[29.939446,46.4983406],[29.9430973,46.5000226],[29.9438146,46.5007483],[29.9439078,46.5013481],[29.9437634,46.5017639],[29.9432681,46.5021172],[29.9422252,46.5023036],[29.9410358,46.5020778],[29.9389443,46.5014758],[29.9355247,46.5009167],[29.9335616,46.5007804],[29.931434,46.5010334],[29.9291214,46.5015722],[29.9266347,46.5022035],[29.9248265,46.502813],[29.9238925,46.5034654],[29.9233294,46.5042067],[29.9232295,46.5048489],[29.9235181,46.5055132],[29.9242212,46.5064497],[29.9258157,46.5080997],[29.927857,46.5105188],[29.9283519,46.5115669],[29.928339,46.5121653],[29.928233,46.5125963],[29.9279206,46.5129076],[29.9272638,46.5130224],[29.9251152,46.5130886],[29.9207856,46.5130075],[29.914255,46.5127924],[29.9113998,46.5126932],[29.9097345,46.5128334],[29.9086352,46.5131004],[29.907675,46.5134991],[29.9063373,46.5143164],[29.9054424,46.5149971],[29.9049548,46.5156706],[29.9048743,46.516326],[29.905219,46.5169095],[29.9059493,46.5173948],[29.9070857,46.5178219],[29.909057,46.5182657],[29.9112867,46.5189468],[29.9124023,46.5196916],[29.9131605,46.5205105],[29.9134859,46.5210942],[29.9135179,46.5215879],[29.9129473,46.5220489],[29.911602,46.5225725],[29.9095036,46.5232521],[29.9059587,46.5240067],[29.9021002,46.5248172],[29.9001913,46.5253207],[29.8981495,46.525946],[29.8965407,46.5268064],[29.8958812,46.5273045],[29.8953382,46.5280988],[29.8950833,46.5287696],[29.8950462,46.5296114],[29.8954353,46.5304214],[29.8958381,46.5306667],[29.894565,46.5315654],[29.8912601,46.5309068],[29.8864112,46.5299498],[29.886041,46.5298937],[29.8858302,46.5288918],[29.8858857,46.5282505],[29.8870963,46.5268674],[29.8853124,46.5257605],[29.8846581,46.5253605],[29.8857721,46.5247694],[29.8873984,46.5228995],[29.888161,46.5218002],[29.8888157,46.5203498],[29.8888718,46.5199327],[29.8892566,46.5191631],[29.8900913,46.5179475],[29.8909718,46.5175431],[29.8918996,46.5170821],[29.8924631,46.5168162],[29.8930759,46.5165869],[29.8942616,46.5161555],[29.896692,46.515095],[29.8987675,46.5151433],[29.8974504,46.5127208],[29.8978566,46.5125508],[29.8981292,46.5124385],[29.8983651,46.5123393],[29.8985943,46.5122404],[29.89694,46.5105404],[29.8969124,46.5105119],[29.8945965,46.5081231],[29.8937278,46.507227],[29.8886709,46.5030101],[29.8875013,46.5020128],[29.8871907,46.5017432],[29.8867962,46.50143],[29.8863178,46.5010477],[29.8852687,46.5000985],[29.8843948,46.499387],[29.8834612,46.498529],[29.8832115,46.4983508],[29.8828631,46.4980962],[29.8823591,46.4976922],[29.8813975,46.4969341],[29.8805126,46.4962336],[29.8797006,46.4955822],[29.8792935,46.4954046],[29.8788271,46.4952184],[29.8781097,46.4949439],[29.8769636,46.494494],[29.8763124,46.4942294],[29.8753109,46.4938747],[29.8745978,46.4936068],[29.8740007,46.4933869],[29.8733571,46.4931448],[29.8728172,46.4929609],[29.8722839,46.4927548],[29.871758,46.4925749],[29.8712491,46.4923986],[29.8706786,46.4921779],[29.8698068,46.4919005],[29.869684,46.4918551],[29.8719159,46.4899964],[29.8742906,46.4882033],[29.8739371,46.488083],[29.8740283,46.4879888],[29.865474,46.4855795],[29.8599316,46.4823008],[29.8598535,46.4814945],[29.8515008,46.4762264],[29.8547565,46.4701138],[29.8554493,46.4634815],[29.8561766,46.4587572],[29.8578823,46.4532144],[29.8592401,46.4505989],[29.8619002,46.4462841],[29.8646306,46.4419449],[29.8753695,46.4321286],[29.8798512,46.429094],[29.8832975,46.4264754],[29.8837754,46.4283903],[29.8841859,46.4302518],[29.9647703,46.4797896],[29.9669824,46.4779943],[29.9691777,46.4768144],[29.9779056,46.4854053],[29.9896692,46.485505]]]}},{"type":"Feature","properties":{"entity_id":"osm-r1811533","jurisdiction":"MD","display_name":"Purcari","display_type":"commune","admin_level":8,"tier":"local","legal_registry":"CUATM","legal_id":"8528","legal_type":"commune","parent_catalog_id":"osm-r65344","osm_relation_id":1811533,"legal_identity_status":"reconciled","geometry_source":"OpenStreetMap","geometry_precision":"master_coordinate_fidelity"},"geometry":{"type":"Polygon","coordinates":[[[29.869684,46.4918551],[29.8698068,46.4919005],[29.8706786,46.4921779],[29.8712491,46.4923986],[29.871758,46.4925749],[29.8722839,46.4927548],[29.8728172,46.4929609],[29.8733571,46.4931448],[29.8740007,46.4933869],[29.8745978,46.4936068],[29.8753109,46.4938747],[29.8763124,46.4942294],[29.8769636,46.494494],[29.8781097,46.4949439],[29.8788271,46.4952184],[29.8792935,46.4954046],[29.8797006,46.4955822],[29.8805126,46.4962336],[29.8813975,46.4969341],[29.8823591,46.4976922],[29.8828631,46.4980962],[29.8832115,46.4983508],[29.8834612,46.498529],[29.8843948,46.499387],[29.8852687,46.5000985],[29.8863178,46.5010477],[29.8867962,46.50143],[29.8871907,46.5017432],[29.8875013,46.5020128],[29.8886709,46.5030101],[29.8937278,46.507227],[29.8945965,46.5081231],[29.8969124,46.5105119],[29.89694,46.5105404],[29.8985943,46.5122404],[29.8983651,46.5123393],[29.8981292,46.5124385],[29.8978566,46.5125508],[29.8974504,46.5127208],[29.8987675,46.5151433],[29.896692,46.515095],[29.8942616,46.5161555],[29.8930759,46.5165869],[29.8924631,46.5168162],[29.8918996,46.5170821],[29.8909718,46.5175431],[29.8900913,46.5179475],[29.8892566,46.5191631],[29.8888718,46.5199327],[29.8888157,46.5203498],[29.888161,46.5218002],[29.8873984,46.5228995],[29.8857721,46.5247694],[29.8846581,46.5253605],[29.8853124,46.5257605],[29.8870963,46.5268674],[29.8858857,46.5282505],[29.8858302,46.5288918],[29.886041,46.5298937],[29.8864112,46.5299498],[29.8912601,46.5309068],[29.894565,46.5315654],[29.8958381,46.5306667],[29.8962228,46.530901],[29.8972727,46.5309687],[29.8985375,46.5310872],[29.9003865,46.5312788],[29.9018701,46.5316083],[29.902379,46.5319635],[29.9025636,46.5324974],[29.9022183,46.5330999],[29.9007449,46.5342839],[29.8991425,46.535535],[29.896571,46.5373328],[29.8948546,46.5383609],[29.8941388,46.5388794],[29.8935117,46.539486],[29.8928109,46.5403855],[29.8921572,46.5416599],[29.89142,46.5431167],[29.8904759,46.5448164],[29.8896337,46.5458905],[29.8891332,46.5464592],[29.8882926,46.5471038],[29.8877485,46.547431],[29.8874427,46.5475375],[29.8870284,46.5475898],[29.8865644,46.5475484],[29.8860462,46.5473917],[29.8853681,46.5469788],[29.8847013,46.5464116],[29.8840986,46.5458207],[29.8831444,46.5448698],[29.8821728,46.5435336],[29.8813997,46.542421],[29.880967,46.5421124],[29.8805117,46.5418894],[29.8799942,46.5418307],[29.8795673,46.5418538],[29.8791638,46.5419332],[29.8787659,46.542114],[29.878404,46.5423828],[29.8780988,46.5427295],[29.8777458,46.5433658],[29.8773984,46.5441345],[29.8767977,46.5454199],[29.8759653,46.5467104],[29.8747512,46.5484375],[29.8728932,46.5513573],[29.8714356,46.5534946],[29.8710419,46.5544124],[29.8710284,46.5546407],[29.8713343,46.5554909],[29.8727804,46.5574083],[29.8742026,46.5588644],[29.8750167,46.5595146],[29.8757355,46.5597259],[29.876979,46.5598436],[29.8787006,46.5596648],[29.8803404,46.5594113],[29.8807787,46.559068],[29.8809492,46.5586408],[29.8809317,46.558061],[29.8798191,46.5560126],[29.8794168,46.554727],[29.8795107,46.5540667],[29.8802139,46.5536974],[29.8813533,46.5534559],[29.8831761,46.5533102],[29.8852909,46.5530025],[29.8883119,46.5522274],[29.8906392,46.5512852],[29.8929056,46.5504828],[29.8942923,46.5503242],[29.8950648,46.5505492],[29.8954135,46.5508296],[29.8957862,46.5518239],[29.8959446,46.5534009],[29.8950434,46.55602],[29.8941421,46.5568315],[29.8913419,46.5579455],[29.8898721,46.558698],[29.8880052,46.5600997],[29.8857844,46.5622464],[29.8845058,46.5635408],[29.8835159,46.5636777],[29.8817674,46.5630497],[29.8797382,46.5622889],[29.8770786,46.5617773],[29.8748436,46.5617586],[29.871661,46.5620263],[29.8672478,46.5629958],[29.8636964,46.5641899],[29.8617355,46.5650155],[29.8606876,46.5657673],[29.8597428,46.5669406],[29.859062,46.5681351],[29.8591239,46.5685581],[29.8592424,46.5689633],[29.8594839,46.5692075],[29.8597115,46.56939],[29.8599436,46.5694877],[29.8602313,46.5695077],[29.8606775,46.5694689],[29.8625465,46.5692861],[29.864864,46.5690691],[29.8670404,46.5688695],[29.8695091,46.5687348],[29.8720639,46.5686467],[29.8725754,46.5687405],[29.8730845,46.5689065],[29.8734364,46.5690965],[29.8736378,46.5693958],[29.873697,46.5696369],[29.8736562,46.5698354],[29.873503,46.5700744],[29.8732786,46.5702613],[29.872914,46.5704553],[29.872514,46.5705988],[29.8720763,46.5706539],[29.8714131,46.5706188],[29.8704249,46.5705128],[29.8691232,46.570373],[29.8679394,46.570324],[29.8667455,46.5703379],[29.8654068,46.5704681],[29.8647279,46.5705844],[29.8640911,46.5707297],[29.863443,46.5709095],[29.8628609,46.5711553],[29.8623879,46.571375],[29.8619606,46.5716414],[29.8615724,46.5719102],[29.8612148,46.5722139],[29.861012,46.5724655],[29.8609069,46.5727346],[29.8608525,46.573206],[29.8613656,46.5738157],[29.863956,46.5749589],[29.8696315,46.5767826],[29.8738562,46.5780704],[29.8765308,46.5789957],[29.8775885,46.5797839],[29.8781186,46.5812379],[29.8780885,46.5827554],[29.8773735,46.5843878],[29.8758495,46.586048],[29.8740395,46.5871614],[29.8733961,46.5873527],[29.8727378,46.5875231],[29.872237,46.587598],[29.8716179,46.5876465],[29.8709425,46.5875466],[29.8705068,46.5873025],[29.8701731,46.5870648],[29.8700107,46.5865948],[29.8700556,46.5860619],[29.8702977,46.5842408],[29.8709287,46.5824435],[29.8716823,46.5807965],[29.871445,46.579906],[29.870293,46.5793415],[29.8681615,46.5788231],[29.8657999,46.5785179],[29.8629022,46.5782204],[29.8603208,46.5782433],[29.8586412,46.5787222],[29.8576005,46.5782509],[29.8561771,46.5776024],[29.8557766,46.5773312],[29.8556855,46.5772767],[29.8555821,46.5772234],[29.8554832,46.5771814],[29.855316,46.5771154],[29.8551084,46.5770327],[29.8546743,46.5768561],[29.8532571,46.5762732],[29.8521438,46.5757875],[29.8508276,46.5752274],[29.8498416,46.5748115],[29.8494674,46.5746458],[29.8489374,46.5744377],[29.8484575,46.5742372],[29.8478625,46.5739913],[29.8474152,46.5738005],[29.8472201,46.5737142],[29.8469338,46.5735147],[29.8466275,46.5733783],[29.8460125,46.5731106],[29.8455345,46.5729081],[29.8445383,46.5724554],[29.8439507,46.5721912],[29.8434099,46.5719497],[29.8421083,46.571375],[29.8416411,46.5711609],[29.8408594,46.5708134],[29.8401155,46.5704978],[29.8383884,46.5697554],[29.8378637,46.5695318],[29.8373216,46.569298],[29.8367906,46.5690881],[29.8364948,46.5689821],[29.8357674,46.5686446],[29.8349691,46.568315],[29.8337544,46.5677873],[29.831191,46.5666572],[29.82995,46.5661218],[29.8294844,46.5659136],[29.8284551,46.5654868],[29.8282657,46.5654007],[29.8256561,46.5636076],[29.8238554,46.5622288],[29.8226585,46.5607529],[29.8168904,46.5533372],[29.7955269,46.5245443],[29.7886885,46.5155974],[29.7925747,46.5125513],[29.796676,46.5093486],[29.7992997,46.5056231],[29.7995576,46.5051581],[29.8006809,46.505553],[29.8013426,46.5057896],[29.8018183,46.5059231],[29.8019922,46.5060881],[29.8022281,46.5062739],[29.8026798,46.5065587],[29.8033794,46.5069755],[29.8040431,46.5073892],[29.8044891,46.5076697],[29.8047327,46.5078271],[29.8052114,46.5081029],[29.805906,46.5085191],[29.8071783,46.5092317],[29.8079715,46.5096978],[29.8086137,46.5100707],[29.8098899,46.5107883],[29.8105764,46.5111797],[29.811224,46.5115518],[29.8117107,46.5118427],[29.8122205,46.5121433],[29.8126892,46.5124012],[29.8131589,46.5126647],[29.8136636,46.5129336],[29.8140564,46.5131193],[29.8145052,46.5133195],[29.8150093,46.5135387],[29.8155006,46.5137741],[29.8160053,46.5139983],[29.816563,46.5142432],[29.8170168,46.5144302],[29.8176994,46.5147232],[29.8187328,46.5151758],[29.8192717,46.5154373],[29.8201554,46.5158501],[29.8210875,46.5163099],[29.8217201,46.5166002],[29.8223987,46.5168938],[29.8229574,46.5171524],[29.823632,46.5174413],[29.8243636,46.5177858],[29.8250322,46.518107],[29.8258788,46.5185155],[29.8262556,46.5186723],[29.8264132,46.5187333],[29.8270631,46.5189392],[29.8275149,46.5189454],[29.8277257,46.5191482],[29.8281445,46.5193862],[29.8296175,46.5201799],[29.8303413,46.5206165],[29.8310749,46.5210848],[29.8317655,46.5215635],[29.8320943,46.5218193],[29.8324331,46.5220633],[29.8329321,46.5224142],[29.8336395,46.5229381],[29.8343089,46.5234156],[29.8348494,46.5238143],[29.8352177,46.5241259],[29.8375883,46.5232798],[29.8393603,46.5226918],[29.8407398,46.5222511],[29.8421507,46.5217478],[29.8429307,46.5214278],[29.8433761,46.5212605],[29.843807,46.5209772],[29.8444968,46.5204711],[29.8448796,46.5200826],[29.8451986,46.5197389],[29.8453984,46.5194896],[29.8459617,46.5187374],[29.8464481,46.5181245],[29.8471029,46.5172912],[29.8477409,46.5164959],[29.8484331,46.5156427],[29.8492131,46.5146776],[29.8498511,46.5138898],[29.8503338,46.513276],[29.8507997,46.5126952],[29.8515436,46.5117417],[29.8525078,46.51055],[29.8529833,46.5099361],[29.8534167,46.5093756],[29.8540306,46.5085919],[29.8553185,46.5069664],[29.8562371,46.5058176],[29.8570476,46.5047784],[29.8574638,46.5042297],[29.8584749,46.5029894],[29.8592441,46.5020605],[29.860012,46.5011914],[29.8619069,46.4989292],[29.8629891,46.4976746],[29.8635211,46.4970573],[29.8640188,46.4964808],[29.8653906,46.4953403],[29.8662272,46.4946607],[29.8667456,46.4942383],[29.8682471,46.493019],[29.8690187,46.4923917],[29.869684,46.4918551]]]}},{"type":"Feature","properties":{"entity_id":"osm-r1811552","jurisdiction":"MD","display_name":"Cioburciu","display_type":"independent_village","admin_level":8,"tier":"local","legal_registry":"CUATM","legal_id":"8516","legal_type":"independent_village","parent_catalog_id":"osm-r65344","osm_relation_id":1811552,"legal_identity_status":"reconciled","geometry_source":"OpenStreetMap","geometry_precision":"master_coordinate_fidelity"},"geometry":{"type":"Polygon","coordinates":[[[29.684465,46.5182946],[29.6969585,46.5160321],[29.6896706,46.5327117],[29.6924781,46.5325926],[29.7027291,46.5322201],[29.7065886,46.5320766],[29.7130672,46.5318561],[29.7156468,46.5317601],[29.7210924,46.5315725],[29.7249731,46.5314259],[29.7265394,46.5313459],[29.7291056,46.5313169],[29.7388315,46.5316536],[29.7485357,46.5317745],[29.7534145,46.5470817],[29.7449211,46.5478825],[29.7412224,46.5415227],[29.7343044,46.54939],[29.7347838,46.5516981],[29.7279343,46.5542417],[29.7277289,46.5549482],[29.7226602,46.5558902],[29.7263768,46.5633278],[29.7265083,46.5657088],[29.7321194,46.5805954],[29.7321194,46.5826743],[29.7342674,46.5825538],[29.7352201,46.5819426],[29.7375552,46.5804447],[29.7392339,46.5800842],[29.7428156,46.5793901],[29.7474623,46.5788176],[29.7479445,46.5777931],[29.7482075,46.5768892],[29.7532484,46.5758683],[29.7549018,46.575879],[29.7553949,46.5764064],[29.7541346,46.5777247],[29.754847,46.5791183],[29.7565456,46.5795326],[29.7589567,46.5842404],[29.7611416,46.5842185],[29.7627073,46.5837568],[29.7636691,46.5858974],[29.7668995,46.5847917],[29.7675379,46.5850435],[29.7669879,46.5856208],[29.7668436,46.5866179],[29.7670214,46.5881014],[29.766899,46.58906],[29.7659597,46.5895435],[29.7639038,46.5896714],[29.7555286,46.5901904],[29.7501709,46.5906566],[29.7442745,46.5916329],[29.7372477,46.5936567],[29.7326558,46.5950489],[29.7291275,46.5962644],[29.7259513,46.5978692],[29.7234883,46.5991166],[29.722609,46.5997002],[29.7221201,46.6004176],[29.7221361,46.6007654],[29.7221726,46.6015584],[29.7224556,46.6022667],[29.7228401,46.6025282],[29.7231814,46.6027085],[29.7236096,46.6027224],[29.7240149,46.6026792],[29.7250516,46.6022359],[29.7269326,46.6011479],[29.7284328,46.6006217],[29.7302164,46.6005191],[29.7318957,46.6011194],[29.7331517,46.6018772],[29.733851,46.602778],[29.7340779,46.6041513],[29.7342723,46.6052926],[29.7345185,46.6066438],[29.7350335,46.60814],[29.7354197,46.6086118],[29.7360098,46.6089582],[29.7365034,46.6090613],[29.7371685,46.609054],[29.7377694,46.6090245],[29.7384882,46.6088329],[29.7391105,46.608538],[29.7401833,46.6077715],[29.741503,46.607005],[29.7427261,46.6067691],[29.7440028,46.6068281],[29.7455907,46.607204],[29.7478945,46.6082821],[29.7500812,46.6097489],[29.7509156,46.6108664],[29.7509212,46.6116942],[29.7503845,46.6123684],[29.7492453,46.6130422],[29.7475693,46.613497],[29.7475944,46.6139835],[29.7485793,46.6143098],[29.7500851,46.6140948],[29.7515041,46.6140117],[29.7528395,46.6142459],[29.754166,46.6147337],[29.755009,46.6153455],[29.7556249,46.6159837],[29.7557218,46.6168872],[29.7548094,46.6173738],[29.7533349,46.6177972],[29.7515168,46.6180129],[29.7500195,46.6184327],[29.7480836,46.6190737],[29.7459017,46.6202485],[29.7437838,46.6216702],[29.7424867,46.622822],[29.741681,46.623727],[29.7413223,46.6245493],[29.7416085,46.6250968],[29.7422932,46.6254445],[29.743753,46.6257333],[29.7463397,46.6259134],[29.7483524,46.6256447],[29.7505386,46.6251138],[29.7537787,46.6238085],[29.7576776,46.6217414],[29.7604389,46.6203713],[29.7619859,46.620092],[29.7632364,46.620227],[29.7637208,46.6207886],[29.7637466,46.6217103],[29.7631142,46.622977],[29.7620451,46.6243213],[29.7608218,46.6253134],[29.7590507,46.6264026],[29.7558119,46.6281484],[29.7528811,46.6289716],[29.7515032,46.6294685],[29.7515155,46.6300421],[29.7520823,46.6307014],[29.7533131,46.6311796],[29.7558829,46.6325951],[29.7578103,46.6339981],[29.7592797,46.6346533],[29.7612613,46.6345885],[29.7683895,46.633533],[29.7740959,46.633205],[29.7772051,46.6327791],[29.7781077,46.6330036],[29.7788816,46.6338196],[29.7792842,46.6351114],[29.7789871,46.6362343],[29.7774514,46.638649],[29.7759559,46.6403316],[29.7750145,46.6408112],[29.7733961,46.6407232],[29.7718251,46.6399895],[29.7699519,46.638204],[29.7693551,46.6373066],[29.768545,46.6372127],[29.7674872,46.6377521],[29.7636728,46.6414773],[29.7618288,46.6402695],[29.76246,46.6390087],[29.757697,46.6345957],[29.7547129,46.6337288],[29.7513271,46.6314827],[29.7462772,46.6299852],[29.7443261,46.6280542],[29.7432931,46.6277389],[29.7386852,46.6350113],[29.7355254,46.6399977],[29.7329062,46.6441306],[29.7267086,46.6301034],[29.716953,46.6321132],[29.7106979,46.6179252],[29.696754,46.6206935],[29.697715,46.6135172],[29.6950523,46.6137695],[29.6939505,46.6092283],[29.691196,46.6098905],[29.6918344,46.6078776],[29.6876995,46.6070549],[29.6866105,46.6093266],[29.6855677,46.6111281],[29.6684815,46.6025843],[29.6689376,46.601985],[29.6692875,46.6014794],[29.6694681,46.6010357],[29.6694701,46.6006158],[29.6695327,46.6003634],[29.6695707,46.5999587],[29.6694515,46.5996606],[29.6690978,46.5990273],[29.6701331,46.5946285],[29.6693171,46.5946177],[29.6709082,46.5854823],[29.6741837,46.5570491],[29.6762531,46.5409465],[29.676865,46.5369528],[29.676967,46.5367025],[29.6770837,46.5364159],[29.6809458,46.5269351],[29.6831654,46.5214855],[29.6832144,46.5213653],[29.684465,46.5182946]]]}},{"type":"Feature","properties":{"entity_id":"osm-r1811553","jurisdiction":"MD","display_name":"Feștelița","display_type":"independent_village","admin_level":8,"tier":"local","legal_registry":"CUATM","legal_id":"8520","legal_type":"independent_village","parent_catalog_id":"osm-r65344","osm_relation_id":1811553,"legal_identity_status":"reconciled","geometry_source":"OpenStreetMap","geometry_precision":"master_coordinate_fidelity"},"geometry":{"type":"Polygon","coordinates":[[[29.6206109,46.5379805],[29.616708,46.5428251],[29.6003689,46.5626924],[29.6005158,46.5671114],[29.5985325,46.5713784],[29.5957045,46.5713784],[29.5788101,46.5707725],[29.5807567,46.5680961],[29.5757251,46.5664296],[29.5380675,46.5533996],[29.5351005,46.5524477],[29.5342116,46.5523193],[29.5306965,46.5509471],[29.5185452,46.5468021],[29.5197647,46.5419178],[29.5282005,46.5288908],[29.5284778,46.5262191],[29.5300368,46.5266238],[29.5402084,46.5103315],[29.5433499,46.5112349],[29.5472134,46.5128172],[29.5517929,46.50484],[29.5620454,46.5084296],[29.5622093,46.5084865],[29.5603013,46.5172474],[29.5677412,46.5197328],[29.5704244,46.5207861],[29.5998404,46.5308517],[29.6143304,46.5356969],[29.6206109,46.5379805]]]}},{"type":"Feature","properties":{"entity_id":"osm-r1811554","jurisdiction":"MD","display_name":"Răscăieți","display_type":"commune","admin_level":8,"tier":"local","legal_registry":"CUATM","legal_id":"8530","legal_type":"commune","parent_catalog_id":"osm-r65344","osm_relation_id":1811554,"legal_identity_status":"reconciled","geometry_source":"OpenStreetMap","geometry_precision":"master_coordinate_fidelity"},"geometry":{"type":"Polygon","coordinates":[[[29.7485357,46.5317745],[29.7617964,46.5318876],[29.7620777,46.5208417],[29.7631298,46.5201178],[29.7631692,46.5176034],[29.7626476,46.5166187],[29.7626476,46.5147785],[29.7745274,46.5149595],[29.77406,46.5103824],[29.7814628,46.5112311],[29.7925747,46.5125513],[29.7886885,46.5155974],[29.7955269,46.5245443],[29.8168904,46.5533372],[29.8226585,46.5607529],[29.8238554,46.5622288],[29.8256561,46.5636076],[29.8282657,46.5654007],[29.8284551,46.5654868],[29.8294844,46.5659136],[29.82995,46.5661218],[29.831191,46.5666572],[29.8337544,46.5677873],[29.8349691,46.568315],[29.8357674,46.5686446],[29.8364948,46.5689821],[29.8367906,46.5690881],[29.8373216,46.569298],[29.8378637,46.5695318],[29.8383884,46.5697554],[29.8401155,46.5704978],[29.8408594,46.5708134],[29.8416411,46.5711609],[29.8421083,46.571375],[29.8434099,46.5719497],[29.8439507,46.5721912],[29.8445383,46.5724554],[29.8455345,46.5729081],[29.8460125,46.5731106],[29.8466275,46.5733783],[29.8469338,46.5735147],[29.8472201,46.5737142],[29.8474152,46.5738005],[29.8478625,46.5739913],[29.8484575,46.5742372],[29.8489374,46.5744377],[29.8494674,46.5746458],[29.8498416,46.5748115],[29.8508276,46.5752274],[29.8521438,46.5757875],[29.8532571,46.5762732],[29.8546743,46.5768561],[29.8551084,46.5770327],[29.855316,46.5771154],[29.8554832,46.5771814],[29.8555821,46.5772234],[29.8556855,46.5772767],[29.8557766,46.5773312],[29.8561771,46.5776024],[29.8576005,46.5782509],[29.8586412,46.5787222],[29.8564006,46.579621],[29.8546122,46.5805975],[29.8536334,46.581539],[29.8531816,46.5835458],[29.8529727,46.5847493],[29.8528499,46.5854564],[29.8523755,46.5870778],[29.8514006,46.5884105],[29.8505122,46.589015],[29.84959,46.5891332],[29.8486504,46.5889285],[29.8469075,46.5878391],[29.8440646,46.585821],[29.8392271,46.5828417],[29.8348149,46.5810118],[29.8320525,46.5802622],[29.8311036,46.5802775],[29.8299399,46.5802963],[29.8292664,46.5805143],[29.827901,46.5809564],[29.8272147,46.5812291],[29.8265856,46.5822169],[29.8267121,46.583662],[29.8277548,46.5852467],[29.8292465,46.5862285],[29.8320416,46.5872087],[29.835748,46.5883685],[29.8369513,46.5893044],[29.8381932,46.591228],[29.8387444,46.5932928],[29.8391431,46.5953424],[29.8391785,46.5955775],[29.8392446,46.5960162],[29.8384351,46.5963038],[29.8377872,46.5961814],[29.8376543,46.5961563],[29.8350158,46.5954396],[29.8344042,46.5953424],[29.8336252,46.5952489],[29.8328099,46.5954206],[29.8320632,46.5959426],[29.8316749,46.5973428],[29.8311512,46.5991873],[29.8301121,46.600821],[29.8282991,46.6021644],[29.8271917,46.6027008],[29.8265613,46.6030061],[29.8261386,46.6030539],[29.825438,46.6031331],[29.8250604,46.6030617],[29.8240693,46.6028742],[29.8230129,46.6021811],[29.8228505,46.6020746],[29.8221639,46.6010834],[29.8222055,46.6001441],[29.8231995,46.5980916],[29.8237068,46.5964938],[29.8236707,46.5947443],[29.8224608,46.5918775],[29.8202175,46.5889556],[29.8182193,46.5870682],[29.8162846,46.5857551],[29.8150176,46.5853943],[29.8143823,46.5854684],[29.8138701,46.5857736],[29.8134098,46.5868385],[29.812913,46.588245],[29.8128873,46.5883177],[29.8123684,46.5906495],[29.8124278,46.592478],[29.8133109,46.5946098],[29.8149999,46.5971677],[29.816756,46.5995042],[29.8170434,46.6004895],[29.8166259,46.6009012],[29.8160216,46.601268],[29.8134749,46.6023968],[29.8091623,46.604076],[29.8063761,46.6049802],[29.8058517,46.6051721],[29.8039404,46.6054225],[29.8030275,46.6053944],[29.8021585,46.6052095],[29.8013699,46.6049964],[29.8005717,46.6046706],[29.7998679,46.6042372],[29.7992201,46.6036687],[29.7986421,46.6029454],[29.7985214,46.6025842],[29.7984557,46.6022307],[29.7985442,46.6019263],[29.7987869,46.6016462],[29.7991723,46.601437],[29.7998947,46.6013274],[29.8006263,46.6014237],[29.8026632,46.6018906],[29.8041205,46.6022261],[29.8052103,46.6021217],[29.805621,46.6013915],[29.8057727,46.5999295],[29.8057911,46.5995485],[29.8058794,46.5977208],[29.8069181,46.5945842],[29.8093322,46.5904836],[29.8097528,46.5891218],[29.8097384,46.5884276],[29.8095357,46.5878391],[29.8092288,46.5873806],[29.808756,46.5870968],[29.808224,46.5869929],[29.8078072,46.5870083],[29.8075068,46.5871115],[29.8072278,46.5873696],[29.8069858,46.5877149],[29.8066344,46.5886949],[29.8056172,46.5903018],[29.8044804,46.5916905],[29.8026229,46.5928461],[29.8005585,46.5939173],[29.7988203,46.5948056],[29.7979389,46.5951115],[29.7968546,46.5949641],[29.7956192,46.5940467],[29.7946474,46.5925059],[29.7943654,46.5911742],[29.7945482,46.5891885],[29.7953365,46.587289],[29.7967558,46.5858754],[29.7975111,46.5848721],[29.7975277,46.5834249],[29.7971697,46.5823548],[29.7965151,46.5815201],[29.7953023,46.5813085],[29.7943526,46.5818609],[29.7934202,46.5832201],[29.7927125,46.5834683],[29.7918302,46.5832891],[29.7914433,46.5826889],[29.7908953,46.5818387],[29.7908054,46.5816992],[29.7900683,46.5798778],[29.7892731,46.5794289],[29.7881934,46.5792821],[29.7857607,46.5798676],[29.7838823,46.5800496],[29.7820797,46.5798504],[29.77869,46.5805959],[29.7744721,46.5823627],[29.7702942,46.5841073],[29.7675379,46.5850435],[29.7668995,46.5847917],[29.7636691,46.5858974],[29.7627073,46.5837568],[29.7611416,46.5842185],[29.7589567,46.5842404],[29.7565456,46.5795326],[29.754847,46.5791183],[29.7541346,46.5777247],[29.7553949,46.5764064],[29.7549018,46.575879],[29.7532484,46.5758683],[29.7482075,46.5768892],[29.7479445,46.5777931],[29.7474623,46.5788176],[29.7428156,46.5793901],[29.7392339,46.5800842],[29.7375552,46.5804447],[29.7352201,46.5819426],[29.7342674,46.5825538],[29.7321194,46.5826743],[29.7321194,46.5805954],[29.7265083,46.5657088],[29.7263768,46.5633278],[29.7226602,46.5558902],[29.7277289,46.5549482],[29.7279343,46.5542417],[29.7347838,46.5516981],[29.7343044,46.54939],[29.7412224,46.5415227],[29.7449211,46.5478825],[29.7534145,46.5470817],[29.7485357,46.5317745]]]}},{"type":"Feature","properties":{"entity_id":"osm-r1811555","jurisdiction":"MD","display_name":"Talmaza","display_type":"independent_village","admin_level":8,"tier":"local","legal_registry":"CUATM","legal_id":"8535","legal_type":"independent_village","parent_catalog_id":"osm-r65344","osm_relation_id":1811555,"legal_identity_status":"reconciled","geometry_source":"OpenStreetMap","geometry_precision":"master_coordinate_fidelity"},"geometry":{"type":"Polygon","coordinates":[[[29.7740497,46.6559019],[29.7731132,46.6558821],[29.7714918,46.654928],[29.7680392,46.6527566],[29.7645601,46.6514525],[29.7606481,46.649934],[29.7567538,46.6477354],[29.7554612,46.6478232],[29.7549891,46.6488396],[29.7552823,46.6519666],[29.7565415,46.6549881],[29.7606823,46.6595086],[29.7641315,46.6645206],[29.7646094,46.6652795],[29.7645923,46.6659117],[29.7634627,46.6682887],[29.7616841,46.6691954],[29.7593919,46.6693691],[29.7570997,46.6694414],[29.7478386,46.6688687],[29.7454099,46.6681889],[29.7438947,46.6658281],[29.7421316,46.6650819],[29.7402798,46.665268],[29.7381343,46.6669769],[29.7358244,46.669224],[29.7319412,46.6711263],[29.7295986,46.6719911],[29.727738,46.6723402],[29.7259846,46.6719844],[29.7237547,46.6710211],[29.7225526,46.6699006],[29.7222832,46.6688711],[29.7222712,46.6680183],[29.7230795,46.6664689],[29.7256039,46.6646162],[29.726901,46.6633559],[29.727107,46.6627918],[29.726902,46.6620482],[29.7259627,46.6607284],[29.7245378,46.6598957],[29.722933,46.6590678],[29.7190227,46.6576322],[29.717852,46.6574746],[29.7168083,46.65764],[29.7154573,46.6581776],[29.7089742,46.6629397],[29.7060372,46.6648306],[29.704596,46.665228],[29.7024187,46.6654506],[29.7002912,46.6655688],[29.6991694,46.665818],[29.6987554,46.6662129],[29.6986461,46.6667624],[29.6988229,46.6675506],[29.7011911,46.6733079],[29.7014822,46.6749463],[29.7012353,46.6762932],[29.7006184,46.6773139],[29.6997518,46.6781212],[29.6980419,46.6788868],[29.696856,46.6791656],[29.6959573,46.6791335],[29.695181,46.6789559],[29.6945078,46.6784939],[29.6942208,46.6780727],[29.694217,46.6773796],[29.6945362,46.6764278],[29.6945079,46.6757829],[29.6944652,46.6750505],[29.6939841,46.6742015],[29.6931311,46.6733801],[29.6912882,46.6722591],[29.6889333,46.6719399],[29.6866068,46.6717956],[29.6848244,46.6719677],[29.6831038,46.6723854],[29.6818028,46.6728414],[29.6806224,46.6735208],[29.679704,46.674344],[29.6788702,46.6753684],[29.6781834,46.6761263],[29.6773678,46.6765952],[29.6763052,46.6767807],[29.6749112,46.6767857],[29.6728298,46.6764905],[29.6692419,46.6756813],[29.667416,46.6753965],[29.6666625,46.6754284],[29.6661183,46.6756017],[29.6655396,46.676017],[29.665244,46.676442],[29.6650345,46.6769128],[29.665217,46.6775446],[29.6620874,46.6760918],[29.6596972,46.6756817],[29.6515835,46.6764763],[29.6494618,46.6770023],[29.6470434,46.676999],[29.6454803,46.6767804],[29.6455502,46.6764437],[29.6358144,46.6704488],[29.6332832,46.6644189],[29.626138,46.664884],[29.6260227,46.6634388],[29.6259168,46.6615677],[29.6255262,46.6573512],[29.6251714,46.6545121],[29.6200743,46.65464],[29.6195963,46.6499343],[29.6184561,46.648775],[29.6101731,46.650599],[29.6122686,46.6420516],[29.6123567,46.6416921],[29.6124125,46.6414646],[29.6117019,46.6411878],[29.6111668,46.6410599],[29.608571,46.6393485],[29.6068321,46.638202],[29.6045169,46.6381906],[29.6040324,46.637897],[29.6037033,46.637037],[29.6001535,46.6223084],[29.6064458,46.6189323],[29.6069181,46.6152283],[29.6089322,46.6064617],[29.6061453,46.6008497],[29.5967329,46.575418],[29.5957045,46.5713784],[29.5985325,46.5713784],[29.6005158,46.5671114],[29.6003689,46.5626924],[29.616708,46.5428251],[29.6206109,46.5379805],[29.6225399,46.5386903],[29.6261288,46.5345242],[29.6336116,46.5251594],[29.6748352,46.5363994],[29.6749169,46.5364217],[29.6764813,46.5368482],[29.676865,46.5369528],[29.6762531,46.5409465],[29.6741837,46.5570491],[29.6709082,46.5854823],[29.6693171,46.5946177],[29.6701331,46.5946285],[29.6690978,46.5990273],[29.6694515,46.5996606],[29.6695707,46.5999587],[29.6695327,46.6003634],[29.6694701,46.6006158],[29.6694681,46.6010357],[29.6692875,46.6014794],[29.6689376,46.601985],[29.6684815,46.6025843],[29.6855677,46.6111281],[29.6866105,46.6093266],[29.6876995,46.6070549],[29.6918344,46.6078776],[29.691196,46.6098905],[29.6939505,46.6092283],[29.6950523,46.6137695],[29.697715,46.6135172],[29.696754,46.6206935],[29.7106979,46.6179252],[29.716953,46.6321132],[29.7267086,46.6301034],[29.7329062,46.6441306],[29.7355254,46.6399977],[29.7386852,46.6350113],[29.7432931,46.6277389],[29.7443261,46.6280542],[29.7462772,46.6299852],[29.7513271,46.6314827],[29.7547129,46.6337288],[29.757697,46.6345957],[29.76246,46.6390087],[29.7618288,46.6402695],[29.7636728,46.6414773],[29.7613397,46.6436274],[29.7589553,46.6456807],[29.758053,46.6465877],[29.7584282,46.6473816],[29.7606024,46.6478898],[29.7648007,46.6478785],[29.7693307,46.6482681],[29.7723162,46.6487439],[29.7742103,46.6495143],[29.7753686,46.6505998],[29.7755885,46.6526398],[29.7745785,46.6554735],[29.7740497,46.6559019]]]}}]}