{"type":"FeatureCollection","metadata":{"schema_version":1,"contract":"actual-public-geometry-chunk-v1","mode":"ACTUAL","jurisdiction":"MD","tier":"local","root_entity_id":"osm-r1692123","feature_count":11,"geometry_source":"OpenStreetMap","geometry_precision":"master_coordinate_fidelity"},"features":[{"type":"Feature","properties":{"entity_id":"osm-r19001620","jurisdiction":"MD","display_name":"Corjova","display_type":"commune","admin_level":8,"tier":"local","legal_registry":"CUATM","legal_id":"3816","legal_type":"commune","parent_catalog_id":"osm-r1692123","osm_relation_id":19001620,"legal_identity_status":"reconciled","geometry_source":"OpenStreetMap","geometry_precision":"master_coordinate_fidelity"},"geometry":{"type":"Polygon","coordinates":[[[29.2214749,47.3206572],[29.2168954,47.3231814],[29.2156558,47.3228181],[29.2038664,47.3191033],[29.2034464,47.3189568],[29.1930842,47.3155423],[29.1819718,47.3122175],[29.1768036,47.3106166],[29.1744863,47.3098052],[29.1745484,47.3096766],[29.1718841,47.3089363],[29.1720283,47.308728],[29.1690648,47.3076801],[29.1676946,47.3071857],[29.1673653,47.307049],[29.1672997,47.3070233],[29.1617395,47.3048457],[29.1607802,47.3044699],[29.1593567,47.3039124],[29.1587679,47.3036833],[29.1563419,47.3027393],[29.1530759,47.3015315],[29.1499275,47.3002473],[29.1477384,47.299497],[29.1470365,47.2992451],[29.1444152,47.2984811],[29.1443145,47.2984517],[29.1351501,47.2957503],[29.1323601,47.2949453],[29.1291988,47.2939905],[29.128911,47.2939148],[29.1276852,47.2939041],[29.1258654,47.2939055],[29.1252048,47.2939008],[29.124252,47.2938981],[29.123692,47.2939088],[29.1230505,47.293939],[29.1230675,47.2940183],[29.1231237,47.2947305],[29.1231874,47.2952334],[29.1231188,47.2953239],[29.1215257,47.2948112],[29.1207001,47.2956686],[29.1203482,47.2960423],[29.1203197,47.2960735],[29.1192188,47.2972623],[29.1171604,47.296561],[29.1166995,47.2964005],[29.11638,47.296294],[29.1152533,47.2959384],[29.1151918,47.2959188],[29.114083,47.2971394],[29.1138105,47.2970409],[29.1135269,47.2973607],[29.1133748,47.2975321],[29.1133361,47.2975757],[29.1129929,47.2979626],[29.1128301,47.2979002],[29.1126496,47.2981403],[29.1125018,47.2983165],[29.1124333,47.2984035],[29.1123413,47.2985257],[29.1122749,47.2986064],[29.1119868,47.2989648],[29.1119482,47.2989535],[29.1119181,47.2989448],[29.111034,47.2986876],[29.1106295,47.2985699],[29.1105411,47.2985426],[29.110427,47.2985074],[29.1100504,47.2984035],[29.1025193,47.2945943],[29.1123666,47.2864168],[29.118644,47.2811685],[29.1215444,47.2789627],[29.1231653,47.2779284],[29.1234649,47.2776948],[29.1235734,47.277576],[29.1247444,47.2763452],[29.1251991,47.2758786],[29.126681,47.2743579],[29.1281371,47.2725438],[29.1289025,47.2713329],[29.1319667,47.2688204],[29.1356538,47.2662376],[29.1362244,47.2674958],[29.1366311,47.2678433],[29.1369112,47.2681566],[29.1374767,47.2685978],[29.1386128,47.2694844],[29.1387686,47.2696492],[29.1389795,47.2698723],[29.1390262,47.2699224],[29.1389599,47.2699927],[29.1389684,47.2700676],[29.1392744,47.2702707],[29.1393757,47.2703122],[29.139517,47.2703107],[29.1396722,47.270309],[29.13995,47.2705087],[29.1400615,47.2705912],[29.1397132,47.2708025],[29.1393104,47.2710814],[29.1391763,47.271199],[29.1391302,47.2713042],[29.1391503,47.2713579],[29.1396986,47.2717033],[29.1399563,47.2719143],[29.1401078,47.2720075],[29.1407635,47.2723876],[29.1413073,47.2726875],[29.141682,47.2728466],[29.1418381,47.2729622],[29.14204,47.2730709],[29.142418,47.2732821],[29.1415951,47.2739392],[29.1413772,47.2740866],[29.1410266,47.2742856],[29.1396925,47.2751388],[29.1412449,47.2762526],[29.1421992,47.27677],[29.1410281,47.2776731],[29.1432068,47.2789873],[29.1432872,47.2789276],[29.1442874,47.2781707],[29.1455977,47.2791622],[29.1471257,47.2802926],[29.1473692,47.279655],[29.1479606,47.2799525],[29.1490383,47.2803352],[29.1495441,47.2805914],[29.1499252,47.2808785],[29.1504393,47.2812346],[29.1510987,47.2813451],[29.1511475,47.2818241],[29.1511174,47.282219],[29.1509891,47.28237],[29.151732,47.2825703],[29.1528094,47.2828386],[29.1536144,47.2831206],[29.1539325,47.2832004],[29.1568522,47.2841683],[29.1569615,47.2841719],[29.1577063,47.2835922],[29.1592286,47.2846806],[29.1608644,47.2833074],[29.1613701,47.2830077],[29.1614273,47.2830696],[29.1625868,47.2821219],[29.162846,47.2820432],[29.1630751,47.2819972],[29.1633149,47.2818477],[29.1639801,47.2813766],[29.1650246,47.2806143],[29.165887,47.2809122],[29.1682772,47.2787728],[29.1684832,47.2785884],[29.1726759,47.2811493],[29.1722091,47.2815334],[29.1709672,47.2826005],[29.1700755,47.2835176],[29.1692631,47.2844359],[29.1696436,47.2845914],[29.1870751,47.2912673],[29.2015433,47.2967656],[29.2035756,47.2975378],[29.2037425,47.3007601],[29.2037654,47.3014658],[29.2039255,47.3022723],[29.20428,47.3036758],[29.2048746,47.3051336],[29.2054921,47.3063588],[29.2063444,47.3075249],[29.2068867,47.3083026],[29.2070306,47.3085089],[29.2076682,47.3092598],[29.2084667,47.3099381],[29.2085316,47.3102911],[29.209378,47.3109875],[29.2105915,47.3119548],[29.2214749,47.3206572]]]}},{"type":"Feature","properties":{"entity_id":"osm-r19008286","jurisdiction":"MD","display_name":"Cocieri","display_type":"commune","admin_level":8,"tier":"local","legal_registry":"CUATM","legal_id":"3810","legal_type":"commune","parent_catalog_id":"osm-r1692123","osm_relation_id":19008286,"legal_identity_status":"reconciled","geometry_source":"OpenStreetMap","geometry_precision":"master_coordinate_fidelity"},"geometry":{"type":"Polygon","coordinates":[[[29.3373839,47.3704093],[29.3366744,47.3732468],[29.3362834,47.3754154],[29.3359262,47.3772343],[29.3357683,47.3771979],[29.3241797,47.3745293],[29.3216896,47.3739513],[29.3127096,47.3717801],[29.3116282,47.3714938],[29.3108162,47.3712788],[29.3097456,47.3709596],[29.3053944,47.3738571],[29.3018167,47.3764183],[29.3016068,47.3762572],[29.2952608,47.3712732],[29.2951149,47.3711672],[29.2899551,47.3671092],[29.2846587,47.362851],[29.2800686,47.359139],[29.2799378,47.3590351],[29.2776254,47.357197],[29.2746378,47.3548222],[29.2692067,47.3505047],[29.267227,47.3516481],[29.2638619,47.348908],[29.2621676,47.3474413],[29.262085,47.3473698],[29.2582577,47.3495929],[29.2554677,47.3473446],[29.255251,47.3474637],[29.2550326,47.3475877],[29.2531071,47.3487039],[29.2500245,47.3504758],[29.2498337,47.3505854],[29.2444063,47.3463455],[29.2378636,47.3412303],[29.2366745,47.3402575],[29.2339101,47.3380681],[29.2314356,47.3361838],[29.2281455,47.3335465],[29.2279252,47.3333626],[29.2276263,47.3332018],[29.2251159,47.3322246],[29.2247854,47.3321045],[29.2186221,47.3297348],[29.2178822,47.3295144],[29.2174432,47.3294427],[29.216939,47.3293931],[29.2162763,47.3293636],[29.214973,47.329355],[29.2129827,47.3294273],[29.2110457,47.32909],[29.207225,47.3279096],[29.2002767,47.3251633],[29.1940392,47.3229107],[29.1940914,47.3228562],[29.1911635,47.3216469],[29.1893917,47.3203539],[29.1889852,47.3202161],[29.1843343,47.3195105],[29.1831228,47.3193948],[29.1819926,47.3194168],[29.1811307,47.3195216],[29.1807242,47.3196098],[29.1800574,47.3199019],[29.1794313,47.319968],[29.1790167,47.319968],[29.1786428,47.3199326],[29.1696763,47.3166159],[29.169192,47.3164276],[29.165383,47.3148399],[29.1608929,47.3131197],[29.1558826,47.3111774],[29.1560437,47.3109712],[29.1549709,47.3106119],[29.146969,47.3075561],[29.1468435,47.3075693],[29.146114,47.3074129],[29.1454542,47.3073474],[29.1443544,47.3073219],[29.1436678,47.307351],[29.1431475,47.3074456],[29.1421711,47.3077038],[29.1395104,47.3085441],[29.1377133,47.309137],[29.1369109,47.3092899],[29.1360758,47.3093817],[29.1334617,47.3095293],[29.1331927,47.3095534],[29.1301197,47.3097875],[29.1298747,47.3100474],[29.1243078,47.3145142],[29.1242682,47.3145474],[29.1241893,47.3146175],[29.1229199,47.3156768],[29.1207581,47.3174261],[29.1191072,47.3187972],[29.1186729,47.3191168],[29.1185962,47.319179],[29.1184955,47.3191252],[29.117813,47.3187608],[29.1176681,47.3187135],[29.1170351,47.3185572],[29.116665,47.3184371],[29.1157786,47.317989],[29.115694,47.3179462],[29.1152821,47.3183082],[29.1148608,47.3186924],[29.1146194,47.3188911],[29.1145506,47.3188786],[29.1145204,47.3188999],[29.1144789,47.3189291],[29.1145028,47.318983],[29.1143863,47.319075],[29.1143399,47.3191174],[29.1138111,47.3196009],[29.1134951,47.3194074],[29.1134249,47.3193645],[29.1132579,47.3194933],[29.1128516,47.3198202],[29.1127482,47.3199034],[29.1125429,47.32006],[29.1123733,47.3201954],[29.1120411,47.3204557],[29.111529,47.3208563],[29.111023,47.321246],[29.1107031,47.3214978],[29.1099624,47.3220789],[29.1099009,47.3221247],[29.1092253,47.3226283],[29.1091537,47.3226817],[29.1082911,47.3233246],[29.1082008,47.3233998],[29.1075262,47.3239617],[29.1074736,47.3240055],[29.1067335,47.324622],[29.1066792,47.3246672],[29.1061016,47.3251483],[29.1060166,47.3252191],[29.1055478,47.3249249],[29.105492,47.3248898],[29.1044519,47.324237],[29.10439,47.3241996],[29.1033964,47.3235992],[29.1033394,47.3235648],[29.1022645,47.3229154],[29.1021845,47.322867],[29.1012508,47.3223028],[29.1011834,47.3222621],[29.1010569,47.3221857],[29.1001649,47.3216285],[29.0998707,47.3214861],[29.0995904,47.3213689],[29.0994084,47.3212929],[29.0993691,47.3213523],[29.0991976,47.3216114],[29.0977635,47.3237781],[29.097531,47.3241294],[29.0973069,47.3244016],[29.0967511,47.3248321],[29.0916748,47.3285705],[29.0915899,47.3286309],[29.0915209,47.32868],[29.0900801,47.3297049],[29.0884529,47.3310896],[29.0882191,47.3312839],[29.0866584,47.3325811],[29.0865544,47.3326675],[29.0864144,47.3327839],[29.084835,47.3343028],[29.0847891,47.334347],[29.0845593,47.3345679],[29.0838884,47.3343518],[29.0829001,47.3340335],[29.0826381,47.3340311],[29.0824357,47.3340322],[29.0821343,47.3340339],[29.0816302,47.333896],[29.081392,47.3338308],[29.0812299,47.3337852],[29.0809078,47.3336946],[29.0806404,47.3336278],[29.0768764,47.3326873],[29.0791619,47.3278465],[29.0862062,47.3143677],[29.0865569,47.3136957],[29.0905459,47.3082462],[29.0961519,47.3009805],[29.0982668,47.2987502],[29.1002662,47.2966501],[29.1025193,47.2945943],[29.1100504,47.2984035],[29.110427,47.2985074],[29.1105411,47.2985426],[29.1106295,47.2985699],[29.111034,47.2986876],[29.1119181,47.2989448],[29.1119482,47.2989535],[29.1119868,47.2989648],[29.1122749,47.2986064],[29.1123413,47.2985257],[29.1124333,47.2984035],[29.1125018,47.2983165],[29.1126496,47.2981403],[29.1128301,47.2979002],[29.1129929,47.2979626],[29.1133361,47.2975757],[29.1133748,47.2975321],[29.1135269,47.2973607],[29.1138105,47.2970409],[29.114083,47.2971394],[29.1151918,47.2959188],[29.1152533,47.2959384],[29.11638,47.296294],[29.1166995,47.2964005],[29.1171604,47.296561],[29.1192188,47.2972623],[29.1203197,47.2960735],[29.1203482,47.2960423],[29.1207001,47.2956686],[29.1215257,47.2948112],[29.1231188,47.2953239],[29.1231874,47.2952334],[29.1231237,47.2947305],[29.1230675,47.2940183],[29.1230505,47.293939],[29.123692,47.2939088],[29.124252,47.2938981],[29.1252048,47.2939008],[29.1258654,47.2939055],[29.1276852,47.2939041],[29.128911,47.2939148],[29.1291988,47.2939905],[29.1323601,47.2949453],[29.1351501,47.2957503],[29.1443145,47.2984517],[29.1444152,47.2984811],[29.1470365,47.2992451],[29.1477384,47.299497],[29.1499275,47.3002473],[29.1530759,47.3015315],[29.1563419,47.3027393],[29.1587679,47.3036833],[29.1593567,47.3039124],[29.1607802,47.3044699],[29.1617395,47.3048457],[29.1672997,47.3070233],[29.1673653,47.307049],[29.1676946,47.3071857],[29.1690648,47.3076801],[29.1720283,47.308728],[29.1718841,47.3089363],[29.1745484,47.3096766],[29.1744863,47.3098052],[29.1768036,47.3106166],[29.1819718,47.3122175],[29.1930842,47.3155423],[29.2034464,47.3189568],[29.2038664,47.3191033],[29.2156558,47.3228181],[29.2168954,47.3231814],[29.2214749,47.3206572],[29.2249452,47.3234697],[29.2252787,47.3231569],[29.2311173,47.3278834],[29.2312382,47.3279751],[29.2331581,47.3295126],[29.2390373,47.3261706],[29.2450873,47.3310922],[29.2559344,47.3397861],[29.2587365,47.3420953],[29.258927,47.3419866],[29.2686295,47.3364452],[29.2762515,47.3424958],[29.2766872,47.3428329],[29.2818391,47.3444254],[29.2850975,47.3454355],[29.2876236,47.3462591],[29.2903584,47.3470581],[29.2944686,47.3483137],[29.300833,47.3503841],[29.3054187,47.3518426],[29.3099753,47.3533676],[29.318701,47.3561964],[29.3229282,47.35765],[29.3266511,47.3590454],[29.3269022,47.3591372],[29.3295693,47.3602228],[29.3313503,47.3608114],[29.3337858,47.3614728],[29.3348908,47.3617489],[29.3376696,47.3625774],[29.3374584,47.3642421],[29.3366396,47.3679404],[29.3366166,47.3681499],[29.3364894,47.3693065],[29.3368971,47.3702365],[29.3373839,47.3704093]]]}},{"type":"Feature","properties":{"entity_id":"osm-r19008287","jurisdiction":"MD","display_name":"Molovata Nouă","display_type":"commune","admin_level":8,"tier":"local","legal_registry":"CUATM","legal_id":"3839","legal_type":"commune","parent_catalog_id":"osm-r1692123","osm_relation_id":19008287,"legal_identity_status":"reconciled","geometry_source":"OpenStreetMap","geometry_precision":"master_coordinate_fidelity"},"geometry":{"type":"MultiPolygon","coordinates":[[[[29.169192,47.3164276],[29.1696763,47.3166159],[29.1786428,47.3199326],[29.1790167,47.319968],[29.1794313,47.319968],[29.1800574,47.3199019],[29.1807242,47.3196098],[29.1811307,47.3195216],[29.1819926,47.3194168],[29.1831228,47.3193948],[29.1843343,47.3195105],[29.1889852,47.3202161],[29.1893917,47.3203539],[29.1911635,47.3216469],[29.1940914,47.3228562],[29.1940392,47.3229107],[29.2002767,47.3251633],[29.207225,47.3279096],[29.2110457,47.32909],[29.2129827,47.3294273],[29.214973,47.329355],[29.2162763,47.3293636],[29.216939,47.3293931],[29.2174432,47.3294427],[29.2178822,47.3295144],[29.2186221,47.3297348],[29.2247854,47.3321045],[29.2251159,47.3322246],[29.2276263,47.3332018],[29.2279252,47.3333626],[29.2281455,47.3335465],[29.2314356,47.3361838],[29.2339101,47.3380681],[29.2366745,47.3402575],[29.2378636,47.3412303],[29.2444063,47.3463455],[29.2498337,47.3505854],[29.2500245,47.3504758],[29.2531071,47.3487039],[29.2550326,47.3475877],[29.255251,47.3474637],[29.2554677,47.3473446],[29.2582577,47.3495929],[29.258363,47.3496749],[29.2640884,47.3542957],[29.2636682,47.3545407],[29.2588413,47.3573545],[29.2587133,47.3574291],[29.2602701,47.3586351],[29.2603923,47.3587309],[29.2581495,47.3600484],[29.2575073,47.3604257],[29.2528465,47.3631615],[29.2483757,47.3657407],[29.2480804,47.3656783],[29.2477376,47.3651721],[29.2471641,47.365551],[29.2465122,47.3650743],[29.2459649,47.3642969],[29.2459909,47.3637826],[29.2463559,47.3622145],[29.246355,47.3613554],[29.2463059,47.3605679],[29.2462276,47.3604621],[29.2460152,47.3604498],[29.2458751,47.3605644],[29.2456077,47.36116],[29.2455907,47.3619141],[29.2453045,47.3622803],[29.244701,47.3622298],[29.2440871,47.3619623],[29.2436332,47.3619109],[29.2407335,47.3628796],[29.2402855,47.3627606],[29.23981,47.3623939],[29.2390522,47.3613719],[29.23875,47.3609103],[29.2372542,47.3602798],[29.2369262,47.3600187],[29.2367542,47.3597839],[29.2368979,47.3592168],[29.2375645,47.3579333],[29.2380741,47.3570991],[29.2389218,47.355235],[29.2394396,47.354313],[29.2393967,47.3540118],[29.2297056,47.3517205],[29.2293558,47.3502086],[29.2253414,47.3506886],[29.2248091,47.3489337],[29.2225973,47.3494021],[29.2219318,47.3472951],[29.2217674,47.346825],[29.2213904,47.3464159],[29.2208902,47.3460904],[29.2203762,47.345921],[29.2201316,47.3458633],[29.2198675,47.3454641],[29.2194186,47.3450001],[29.2189806,47.3446217],[29.2185101,47.3443536],[29.2176886,47.3440392],[29.2146159,47.3431972],[29.2140819,47.3431068],[29.2116516,47.3431428],[29.2108813,47.3432555],[29.2102506,47.3434519],[29.2098576,47.3437612],[29.2070244,47.3442354],[29.2069571,47.3439437],[29.2067869,47.3434739],[29.2065056,47.3432099],[29.2058339,47.3429899],[29.2051877,47.3429668],[29.2046251,47.3432093],[29.2033649,47.3450477],[29.1982853,47.3440794],[29.1961222,47.343667],[29.193741,47.3424472],[29.1922048,47.3427912],[29.1883639,47.3418316],[29.1894281,47.3405234],[29.1895061,47.3404319],[29.1895865,47.3403407],[29.1885814,47.3397542],[29.1869568,47.3394132],[29.1820112,47.3385097],[29.1753361,47.3366301],[29.1740943,47.3362269],[29.1738295,47.3361409],[29.1746411,47.338365],[29.1743343,47.3384183],[29.1688879,47.3372595],[29.1687402,47.3370808],[29.1654095,47.3364711],[29.1649963,47.3364019],[29.1604818,47.3382981],[29.1588887,47.3365821],[29.157142,47.3350533],[29.1529331,47.3323264],[29.1413033,47.3283119],[29.1358216,47.3272201],[29.1321182,47.3268651],[29.1281159,47.326814],[29.1251597,47.3273073],[29.1227639,47.3280792],[29.1173201,47.3315446],[29.1152141,47.33337],[29.113674,47.3352544],[29.1070827,47.3445698],[29.1032289,47.3490898],[29.0987313,47.3532052],[29.0959423,47.3552449],[29.0922082,47.3568103],[29.08854,47.3572896],[29.0843117,47.357508],[29.0805676,47.3574405],[29.077075,47.3568051],[29.075042,47.3562289],[29.072715,47.3550028],[29.0719521,47.3546008],[29.0707482,47.3528122],[29.0704049,47.351605],[29.0705788,47.3502977],[29.0719521,47.344017],[29.073086,47.3410012],[29.075042,47.3365722],[29.0768764,47.3326873],[29.0806404,47.3336278],[29.0809078,47.3336946],[29.0812299,47.3337852],[29.081392,47.3338308],[29.0816302,47.333896],[29.0821343,47.3340339],[29.0824357,47.3340322],[29.0826381,47.3340311],[29.0829001,47.3340335],[29.0838884,47.3343518],[29.0845593,47.3345679],[29.0847891,47.334347],[29.084835,47.3343028],[29.0864144,47.3327839],[29.0865544,47.3326675],[29.0866584,47.3325811],[29.0882191,47.3312839],[29.0884529,47.3310896],[29.0900801,47.3297049],[29.0915209,47.32868],[29.0915899,47.3286309],[29.0916748,47.3285705],[29.0967511,47.3248321],[29.0973069,47.3244016],[29.097531,47.3241294],[29.0977635,47.3237781],[29.0991976,47.3216114],[29.0993691,47.3213523],[29.0994084,47.3212929],[29.0995904,47.3213689],[29.0998707,47.3214861],[29.1001649,47.3216285],[29.1010569,47.3221857],[29.1011834,47.3222621],[29.1012508,47.3223028],[29.1021845,47.322867],[29.1022645,47.3229154],[29.1033394,47.3235648],[29.1033964,47.3235992],[29.10439,47.3241996],[29.1044519,47.324237],[29.105492,47.3248898],[29.1055478,47.3249249],[29.1060166,47.3252191],[29.1061016,47.3251483],[29.1066792,47.3246672],[29.1067335,47.324622],[29.1074736,47.3240055],[29.1075262,47.3239617],[29.1082008,47.3233998],[29.1082911,47.3233246],[29.1091537,47.3226817],[29.1092253,47.3226283],[29.1099009,47.3221247],[29.1099624,47.3220789],[29.1107031,47.3214978],[29.111023,47.321246],[29.111529,47.3208563],[29.1120411,47.3204557],[29.1123733,47.3201954],[29.1125429,47.32006],[29.1127482,47.3199034],[29.1128516,47.3198202],[29.1132579,47.3194933],[29.1134249,47.3193645],[29.1134951,47.3194074],[29.1138111,47.3196009],[29.1143399,47.3191174],[29.1143863,47.319075],[29.1145028,47.318983],[29.1144789,47.3189291],[29.1145204,47.3188999],[29.1145506,47.3188786],[29.1146194,47.3188911],[29.1148608,47.3186924],[29.1152821,47.3183082],[29.115694,47.3179462],[29.1157786,47.317989],[29.116665,47.3184371],[29.1170351,47.3185572],[29.1176681,47.3187135],[29.117813,47.3187608],[29.1184955,47.3191252],[29.1185962,47.319179],[29.1186729,47.3191168],[29.1191072,47.3187972],[29.1207581,47.3174261],[29.1229199,47.3156768],[29.1241893,47.3146175],[29.1242682,47.3145474],[29.1243078,47.3145142],[29.1298747,47.3100474],[29.1301197,47.3097875],[29.1331927,47.3095534],[29.1334617,47.3095293],[29.1360758,47.3093817],[29.1369109,47.3092899],[29.1377133,47.309137],[29.1395104,47.3085441],[29.1421711,47.3077038],[29.1431475,47.3074456],[29.1436678,47.307351],[29.1443544,47.3073219],[29.1454542,47.3073474],[29.146114,47.3074129],[29.1468435,47.3075693],[29.146969,47.3075561],[29.1549709,47.3106119],[29.1560437,47.3109712],[29.1558826,47.3111774],[29.1608929,47.3131197],[29.165383,47.3148399],[29.169192,47.3164276]]],[[[29.2252787,47.3231569],[29.2297285,47.318768],[29.2368928,47.3244479],[29.2369991,47.3245343],[29.2390373,47.3261706],[29.2331581,47.3295126],[29.2312382,47.3279751],[29.2311173,47.3278834],[29.2252787,47.3231569]]]]}},{"type":"Feature","properties":{"entity_id":"osm-r19013513","jurisdiction":"MD","display_name":"Doroțcaia","display_type":"independent_village","admin_level":8,"tier":"local","legal_registry":"CUATM","legal_id":"3828","legal_type":"independent_village","parent_catalog_id":"osm-r1692123","osm_relation_id":19013513,"legal_identity_status":"reconciled","geometry_source":"OpenStreetMap","geometry_precision":"master_coordinate_fidelity"},"geometry":{"type":"Polygon","coordinates":[[[29.1859006,47.1608256],[29.1920167,47.1625152],[29.1978721,47.1631272],[29.2010322,47.1634474],[29.2028668,47.1634591],[29.2043378,47.1633225],[29.2069698,47.162785],[29.2092866,47.1621157],[29.2141293,47.1607203],[29.2180921,47.1589018],[29.2196801,47.1578366],[29.2231698,47.1542438],[29.2244514,47.1512608],[29.2248044,47.1481328],[29.2250657,47.1461649],[29.2255088,47.1451697],[29.2263089,47.1444705],[29.2273922,47.1441938],[29.2288028,47.1442551],[29.2296854,47.1444922],[29.2304226,47.1448447],[29.231632,47.1459292],[29.2333719,47.1481317],[29.2376615,47.1515622],[29.2393889,47.1532257],[29.2403384,47.1547724],[29.2409017,47.1560857],[29.2415669,47.1580409],[29.2415883,47.1591206],[29.2412972,47.1600477],[29.2406628,47.1608872],[29.2399055,47.161752],[29.2394627,47.1622365],[29.2386946,47.1628924],[29.2373689,47.1635977],[29.2361871,47.163907],[29.2331385,47.1643623],[29.2301704,47.1650441],[29.2289638,47.165482],[29.228221,47.1660948],[29.2276499,47.1667952],[29.2276108,47.1676511],[29.2278292,47.1684195],[29.2285516,47.1691933],[29.2297914,47.1694379],[29.231117,47.1694491],[29.2355802,47.1688078],[29.2450179,47.1656596],[29.2485385,47.1636047],[29.2490089,47.1633301],[29.2507717,47.1636868],[29.2514546,47.163604],[29.2520608,47.1634397],[29.2522024,47.1636236],[29.2524263,47.1638722],[29.2531265,47.1645707],[29.2531317,47.1646473],[29.2530975,47.1647287],[29.2530183,47.1647846],[29.2529626,47.1647993],[29.2523502,47.1649089],[29.2518753,47.1650165],[29.2516994,47.1651105],[29.2516512,47.1652017],[29.2516951,47.1652527],[29.2517276,47.1653376],[29.2519362,47.1655226],[29.2520923,47.1655414],[29.2522381,47.1657255],[29.2522624,47.1659331],[29.2521444,47.1661384],[29.2519015,47.1663012],[29.2517245,47.1663153],[29.2515544,47.1663555],[29.2514434,47.166464],[29.2512386,47.1667282],[29.2511033,47.1668887],[29.2511004,47.1669659],[29.2511162,47.1671334],[29.2511241,47.1672662],[29.2510339,47.1673417],[29.250784,47.1675257],[29.2500854,47.1680522],[29.2492941,47.1688072],[29.2481489,47.1697698],[29.2468718,47.1704209],[29.2451019,47.1716524],[29.2437068,47.1726999],[29.2432268,47.1730464],[29.2457626,47.1747917],[29.2459907,47.1748628],[29.2462836,47.1749316],[29.2464546,47.175028],[29.2465501,47.1751655],[29.2465644,47.1753693],[29.2465166,47.1755273],[29.2451239,47.176619],[29.2446371,47.1769271],[29.2491189,47.1799363],[29.2498853,47.180532],[29.2499383,47.1805732],[29.2500487,47.180659],[29.2437491,47.1848848],[29.2415702,47.1863784],[29.2418276,47.1891411],[29.2441186,47.1881892],[29.2488772,47.1901354],[29.2507915,47.1877603],[29.2551037,47.1841479],[29.25744,47.1838938],[29.2597236,47.1880236],[29.2622414,47.1869508],[29.2676441,47.1839551],[29.2677897,47.1840643],[29.2702561,47.1860956],[29.271413,47.1870463],[29.2725204,47.1878703],[29.2728061,47.1880713],[29.2732866,47.1883256],[29.274359,47.1890075],[29.2758363,47.1896314],[29.2821241,47.1906965],[29.2826059,47.1911528],[29.283042,47.1918957],[29.2868403,47.1961026],[29.2869096,47.196185],[29.2923946,47.2003433],[29.294836,47.202194],[29.292132,47.2088266],[29.2927803,47.2112773],[29.2949058,47.2116685],[29.2954391,47.2117666],[29.2954807,47.2137232],[29.2967095,47.2134118],[29.297427,47.2159886],[29.2985746,47.2179327],[29.2993774,47.2203647],[29.2993146,47.2237801],[29.2990198,47.2253447],[29.2996121,47.2294824],[29.3034558,47.2285719],[29.3073371,47.2275206],[29.3082612,47.2272141],[29.3130083,47.2254143],[29.3165714,47.2288017],[29.3215895,47.2334546],[29.325346,47.2371472],[29.328307,47.2402403],[29.3286529,47.2406129],[29.3288997,47.2406526],[29.3296994,47.2407465],[29.3299455,47.2407922],[29.3301987,47.2408595],[29.3303607,47.2409501],[29.3306603,47.2412215],[29.3309976,47.2415686],[29.3315972,47.2421856],[29.3324565,47.2430353],[29.3328815,47.2434556],[29.3337076,47.2443034],[29.3350571,47.2457175],[29.3378919,47.2487982],[29.3382409,47.2486474],[29.3439102,47.2461801],[29.3440014,47.2461405],[29.3442269,47.2460424],[29.3442671,47.246087],[29.3443541,47.2461858],[29.3447379,47.2465403],[29.3461284,47.2482344],[29.3469906,47.2492987],[29.3480553,47.2505867],[29.349568,47.2524073],[29.3500723,47.253019],[29.351982,47.2555095],[29.3558029,47.2602503],[29.3561416,47.2606806],[29.3603006,47.2659641],[29.3633916,47.26977],[29.3631836,47.2698425],[29.3556259,47.2727515],[29.3510852,47.2744992],[29.3512929,47.2747625],[29.350994,47.2748863],[29.3405888,47.2789707],[29.3395362,47.2793442],[29.339316,47.2791007],[29.3390968,47.2788466],[29.3332999,47.2719611],[29.33137,47.2696676],[29.3234648,47.2602238],[29.3221288,47.2586474],[29.3220006,47.2584961],[29.3217972,47.2585705],[29.3172608,47.2602571],[29.3138905,47.2563251],[29.3135683,47.2559493],[29.3100297,47.2518206],[29.3098057,47.251937],[29.3096389,47.2520324],[29.3041953,47.2551836],[29.3040759,47.2550762],[29.3016897,47.2529917],[29.298793,47.250654],[29.293686,47.2468159],[29.2900251,47.2441428],[29.2831605,47.2390054],[29.2785297,47.2355902],[29.2782225,47.2353868],[29.2690676,47.2293816],[29.2657822,47.2272264],[29.2627087,47.225338],[29.2613202,47.2243836],[29.2609199,47.2226984],[29.2599988,47.2208938],[29.2590556,47.2194732],[29.2585285,47.2179039],[29.2580713,47.2167712],[29.2560901,47.2173307],[29.2557649,47.2173417],[29.2557649,47.217176],[29.2562257,47.2162976],[29.2565036,47.2148835],[29.257251,47.2132612],[29.2559797,47.2134562],[29.2523706,47.212509],[29.2519544,47.211441],[29.250867,47.2088441],[29.250361,47.2089708],[29.2497858,47.2097999],[29.2490596,47.210585],[29.2464928,47.2141673],[29.2461676,47.2142912],[29.2458424,47.2144298],[29.2451704,47.2144579],[29.2443226,47.2148072],[29.2426918,47.2151834],[29.2424561,47.2152171],[29.2423068,47.215368],[29.2419928,47.2151806],[29.2373655,47.2122206],[29.2348533,47.2105987],[29.2346259,47.2104631],[29.2333743,47.2098037],[29.2329575,47.209609],[29.2327621,47.2090869],[29.2328011,47.208547],[29.2326579,47.2081134],[29.23271,47.2076355],[29.2330617,47.2068037],[29.2327762,47.2066154],[29.2328793,47.2063877],[29.2335958,47.2049717],[29.2337521,47.2041752],[29.2336741,47.2033653],[29.232966,47.2030154],[29.2335668,47.2009452],[29.2320433,47.2000122],[29.2314854,47.1988167],[29.2314854,47.1984813],[29.2316142,47.1982772],[29.2312708,47.1981897],[29.2311206,47.1984959],[29.2304125,47.2000559],[29.2295328,47.2026364],[29.2288121,47.2039661],[29.2287396,47.2040969],[29.2285886,47.2043712],[29.2275587,47.2075491],[29.2265072,47.2094149],[29.22434,47.2125343],[29.2226019,47.2129715],[29.2215505,47.2135108],[29.2210676,47.2138096],[29.2209496,47.2138416],[29.2203054,47.2140081],[29.2197643,47.2140727],[29.219444,47.2140474],[29.2192881,47.2139908],[29.2190679,47.2138784],[29.2188095,47.21368],[29.218166,47.2129046],[29.2176392,47.2122316],[29.2176794,47.2118802],[29.2185004,47.209962],[29.2200998,47.2066983],[29.2205223,47.2056806],[29.2210024,47.2045977],[29.2226156,47.2041541],[29.2237487,47.203045],[29.2252981,47.2018759],[29.2136594,47.1945354],[29.210636,47.1927403],[29.2035876,47.1881119],[29.1915233,47.1804329],[29.1792032,47.1726051],[29.1795442,47.1725075],[29.1797417,47.1723611],[29.1832147,47.1689967],[29.183311,47.1688896],[29.1841508,47.1679453],[29.1854367,47.1665488],[29.1861325,47.1657633],[29.1869631,47.164886],[29.1877226,47.1640498],[29.1848407,47.1628343],[29.1846339,47.1620221],[29.1842319,47.1616402],[29.1854418,47.1614723],[29.1859006,47.1608256]]]}},{"type":"Feature","properties":{"entity_id":"osm-r19013514","jurisdiction":"MD","display_name":"Pîrîta","display_type":"independent_village","admin_level":8,"tier":"local","legal_registry":"CUATM","legal_id":"3842","legal_type":"independent_village","parent_catalog_id":"osm-r1692123","osm_relation_id":19013514,"legal_identity_status":"reconciled","geometry_source":"OpenStreetMap","geometry_precision":"master_coordinate_fidelity"},"geometry":{"type":"MultiPolygon","coordinates":[[[[29.0850771,47.0919584],[29.0866649,47.0909814],[29.0879574,47.0902297],[29.0895841,47.0894645],[29.0920905,47.0886186],[29.0954882,47.087858],[29.0978741,47.0877732],[29.1043395,47.0879049],[29.1091489,47.0882199],[29.1114332,47.088271],[29.1125754,47.0881983],[29.1137072,47.0879993],[29.1143844,47.0877355],[29.1149528,47.0873487],[29.1154804,47.0868187],[29.1156923,47.0862675],[29.115822,47.085927],[29.1158297,47.0855809],[29.1156663,47.0849829],[29.1133852,47.0824429],[29.112059,47.080721],[29.111589,47.0795079],[29.1116267,47.0787226],[29.1124554,47.0780427],[29.116652,47.0757802],[29.1190866,47.0749816],[29.1206138,47.0748098],[29.1221528,47.0748177],[29.1224191,47.0748513],[29.1234093,47.0749879],[29.1247011,47.0752909],[29.1257875,47.0759278],[29.1265773,47.0767378],[29.1274512,47.0780902],[29.1279648,47.0797167],[29.1294714,47.0859024],[29.1319014,47.0907139],[29.1344955,47.0944539],[29.1358822,47.0960401],[29.1370146,47.0969337],[29.138866,47.0979873],[29.1406538,47.0985648],[29.1440095,47.099221],[29.1471744,47.0997763],[29.1501606,47.1004599],[29.1518537,47.101117],[29.1526099,47.1015818],[29.1532177,47.1021332],[29.1535884,47.1027266],[29.1536835,47.1035507],[29.153526,47.1042322],[29.1531253,47.1052687],[29.153611,47.1118265],[29.1539586,47.1137699],[29.1557567,47.1175427],[29.1568116,47.1194719],[29.1589226,47.1227006],[29.1601396,47.1242338],[29.1614866,47.1253893],[29.1624291,47.1259796],[29.1633477,47.1264068],[29.1647165,47.1268168],[29.166418,47.1269718],[29.1681794,47.1267924],[29.1696418,47.1263079],[29.1708846,47.1256431],[29.1716472,47.1251211],[29.172194,47.1245664],[29.1729578,47.1231026],[29.1735829,47.1212317],[29.1745707,47.1175416],[29.1751736,47.1115993],[29.174808,47.1092601],[29.1745421,47.1073622],[29.1749865,47.1053049],[29.1754587,47.1048312],[29.1763599,47.1046269],[29.1770696,47.1046208],[29.177724,47.1048519],[29.1784633,47.1056188],[29.1797916,47.1072515],[29.1808864,47.1086188],[29.1824902,47.1101307],[29.1845925,47.1123429],[29.1866164,47.1149791],[29.1885205,47.1181863],[29.1890209,47.1193241],[29.1892817,47.1205597],[29.188988,47.1227781],[29.1882635,47.1254573],[29.1870115,47.128479],[29.1863831,47.1305392],[29.1857547,47.1357473],[29.1833951,47.1432438],[29.18081,47.1485248],[29.1798246,47.1516295],[29.1797351,47.1541338],[29.1800506,47.1566348],[29.1807497,47.1581332],[29.1822052,47.1595129],[29.1833525,47.1601293],[29.1845597,47.1605421],[29.1859006,47.1608256],[29.1854418,47.1614723],[29.1842319,47.1616402],[29.1846339,47.1620221],[29.1848407,47.1628343],[29.1877226,47.1640498],[29.1869631,47.164886],[29.1861325,47.1657633],[29.1854367,47.1665488],[29.1841508,47.1679453],[29.183311,47.1688896],[29.1832147,47.1689967],[29.1789841,47.1669697],[29.171344,47.163235],[29.1694977,47.1622093],[29.1671279,47.161293],[29.1654204,47.1604634],[29.1639702,47.1593793],[29.1632188,47.1589009],[29.163142,47.1588599],[29.1630413,47.1588389],[29.1629433,47.1588279],[29.163028,47.1586841],[29.1631712,47.1585783],[29.1640828,47.1579657],[29.1649372,47.1573815],[29.1649491,47.1571669],[29.164945,47.1571272],[29.1649124,47.1567364],[29.1648429,47.1561352],[29.1647552,47.1550085],[29.1650057,47.1520295],[29.163037,47.1504808],[29.1630081,47.1504663],[29.1629788,47.1504449],[29.162871,47.1503724],[29.1627225,47.1502631],[29.1625332,47.1501063],[29.1624464,47.1500325],[29.162301,47.1498889],[29.1621828,47.1498012],[29.1620547,47.1497322],[29.1615613,47.1493585],[29.1612671,47.149128],[29.1611047,47.1490067],[29.1609529,47.148898],[29.1606373,47.1486389],[29.160274,47.1483304],[29.1599437,47.1480592],[29.1597281,47.1478863],[29.1593078,47.1475141],[29.1591873,47.1474074],[29.1583699,47.1468183],[29.1581442,47.1466703],[29.1580494,47.146587],[29.1580361,47.1465229],[29.1580395,47.1464924],[29.1579732,47.1464264],[29.1578759,47.1463295],[29.1577839,47.146263],[29.1576928,47.1462121],[29.1574067,47.1459937],[29.1566416,47.1453935],[29.1548351,47.1439924],[29.1547816,47.1439513],[29.1521059,47.1418766],[29.149477,47.139838],[29.1493864,47.1397687],[29.1466523,47.1376767],[29.1465922,47.1376307],[29.1440268,47.1356677],[29.1439516,47.1356101],[29.1435902,47.1353336],[29.1413675,47.1336129],[29.1413014,47.1335617],[29.1386134,47.1314808],[29.1385493,47.1314311],[29.1370462,47.1302675],[29.1369768,47.1302137],[29.135729,47.1292477],[29.1356672,47.1291999],[29.1343673,47.1281934],[29.1342976,47.1281395],[29.1330535,47.1271762],[29.1329924,47.1271289],[29.1316442,47.126085],[29.1315801,47.1260354],[29.1313331,47.1258442],[29.1303071,47.125072],[29.1302517,47.1250303],[29.1292603,47.1242841],[29.1292076,47.1242445],[29.1282189,47.1235003],[29.1281628,47.1234581],[29.1274626,47.1229311],[29.12635,47.1220619],[29.1261372,47.1218957],[29.1255864,47.1214653],[29.1255468,47.1214344],[29.1242962,47.1204574],[29.1242313,47.1205006],[29.1241232,47.1205719],[29.12407,47.120607],[29.1234583,47.1210106],[29.1206965,47.1226487],[29.1206583,47.1226714],[29.120055,47.1230292],[29.1177813,47.1243883],[29.1175926,47.1245011],[29.1175112,47.1245498],[29.1174022,47.1246149],[29.1167102,47.1240482],[29.1166722,47.1240171],[29.115842,47.1233373],[29.1157987,47.1233017],[29.1149682,47.1226217],[29.1149319,47.122592],[29.1141079,47.1219171],[29.1140648,47.1218818],[29.1133135,47.1212666],[29.1132714,47.1212321],[29.112749,47.1208043],[29.1121578,47.1203202],[29.1116577,47.1199106],[29.1115772,47.1198447],[29.1113577,47.1197382],[29.1113081,47.1197124],[29.1110428,47.1195745],[29.1110377,47.119827],[29.1110038,47.119873],[29.1097773,47.1205629],[29.107623,47.1216162],[29.1060356,47.122334],[29.1046504,47.1229009],[29.1045307,47.1228013],[29.1043848,47.1226798],[29.1034301,47.1218852],[29.103369,47.1218343],[29.1031271,47.121633],[29.1008386,47.119703],[29.1007836,47.1196565],[29.0976068,47.1169464],[29.097552,47.1168715],[29.0958232,47.1133712],[29.095782,47.1132905],[29.0945045,47.1107084],[29.0944643,47.110637],[29.0938414,47.1094017],[29.0931657,47.1080801],[29.0931299,47.1079991],[29.0918965,47.1054204],[29.0918642,47.1053538],[29.0917518,47.1051499],[29.0905883,47.1027807],[29.0905496,47.1026985],[29.0892952,47.100122],[29.0892564,47.1000546],[29.0887695,47.0990995],[29.0879736,47.097465],[29.087943,47.0974029],[29.0876104,47.0967294],[29.0872994,47.096083],[29.0872546,47.095991],[29.0861863,47.093819],[29.0854744,47.0926249],[29.0850771,47.0919584]]],[[[29.2101413,47.2236208],[29.2105192,47.2232962],[29.2137371,47.2208874],[29.2218889,47.21445],[29.2209496,47.2138416],[29.2210676,47.2138096],[29.2215505,47.2135108],[29.2226019,47.2129715],[29.22434,47.2125343],[29.2265072,47.2094149],[29.2275587,47.2075491],[29.2285886,47.2043712],[29.2287396,47.2040969],[29.2288121,47.2039661],[29.2295328,47.2026364],[29.2304125,47.2000559],[29.2311206,47.1984959],[29.2312708,47.1981897],[29.2316142,47.1982772],[29.2314854,47.1984813],[29.2314854,47.1988167],[29.2320433,47.2000122],[29.2335668,47.2009452],[29.232966,47.2030154],[29.2336741,47.2033653],[29.2337521,47.2041752],[29.2335958,47.2049717],[29.2328793,47.2063877],[29.2327762,47.2066154],[29.2330617,47.2068037],[29.23271,47.2076355],[29.2326579,47.2081134],[29.2328011,47.208547],[29.2327621,47.2090869],[29.2329575,47.209609],[29.2333743,47.2098037],[29.2346259,47.2104631],[29.2348533,47.2105987],[29.2373655,47.2122206],[29.2419928,47.2151806],[29.2423068,47.215368],[29.2424561,47.2152171],[29.2426918,47.2151834],[29.2443226,47.2148072],[29.2451704,47.2144579],[29.2458424,47.2144298],[29.2461676,47.2142912],[29.2464928,47.2141673],[29.2490596,47.210585],[29.2497858,47.2097999],[29.250361,47.2089708],[29.250867,47.2088441],[29.2519544,47.211441],[29.2523706,47.212509],[29.2559797,47.2134562],[29.257251,47.2132612],[29.2565036,47.2148835],[29.2562257,47.2162976],[29.2557649,47.217176],[29.2557649,47.2173417],[29.2560901,47.2173307],[29.2580713,47.2167712],[29.2585285,47.2179039],[29.2590556,47.2194732],[29.2599988,47.2208938],[29.2609199,47.2226984],[29.2613202,47.2243836],[29.2614753,47.2247933],[29.2601219,47.2249047],[29.2592196,47.2243476],[29.2581943,47.2249882],[29.257169,47.2256845],[29.2542918,47.2280356],[29.2524478,47.2293645],[29.252425,47.2305127],[29.2518834,47.2309345],[29.2515995,47.2318377],[29.2514201,47.232066],[29.2514201,47.2322385],[29.2516443,47.232827],[29.2510465,47.2333902],[29.2508971,47.2337149],[29.2508821,47.2340345],[29.2510241,47.2346383],[29.2512034,47.2351203],[29.2514949,47.2354348],[29.2516219,47.2357088],[29.2514052,47.2361857],[29.2514995,47.2366728],[29.251815,47.2374024],[29.2521601,47.2391964],[29.252022,47.2395244],[29.2510755,47.2408163],[29.2492811,47.2480506],[29.249069,47.2490415],[29.2505195,47.2503199],[29.2501731,47.2505502],[29.2493707,47.2507656],[29.2483279,47.2506622],[29.2472874,47.2504596],[29.2464518,47.2501712],[29.2457671,47.2497237],[29.2443873,47.2495251],[29.2435321,47.2496161],[29.242739,47.2498403],[29.2425136,47.2499769],[29.2423954,47.2504788],[29.2394575,47.2473259],[29.2377893,47.2458989],[29.236696,47.2443959],[29.2321935,47.2408662],[29.2291134,47.2417898],[29.228689,47.2417124],[29.2279279,47.2393253],[29.227677,47.2388935],[29.2299392,47.2373629],[29.2250915,47.2339721],[29.224988,47.2336225],[29.2226064,47.2320111],[29.2225316,47.2319607],[29.2101413,47.2236208]]]]}},{"type":"Feature","properties":{"entity_id":"osm-r19013515","jurisdiction":"MD","display_name":"Coșnița","display_type":"commune","admin_level":8,"tier":"local","legal_registry":"CUATM","legal_id":"3818","legal_type":"commune","parent_catalog_id":"osm-r1692123","osm_relation_id":19013515,"legal_identity_status":"reconciled","geometry_source":"OpenStreetMap","geometry_precision":"master_coordinate_fidelity"},"geometry":{"type":"MultiPolygon","coordinates":[[[[29.2209496,47.2138416],[29.2218889,47.21445],[29.2137371,47.2208874],[29.2105192,47.2232962],[29.2101413,47.2236208],[29.2096679,47.223294],[29.2059767,47.2207109],[29.2023628,47.218113],[29.200453,47.2166955],[29.2025165,47.2149465],[29.1994769,47.2129116],[29.1951005,47.2110657],[29.1901542,47.2089793],[29.189991,47.2089105],[29.1899233,47.2089097],[29.1897013,47.2089069],[29.1894643,47.210365],[29.1883874,47.2134349],[29.1868466,47.2164745],[29.1852123,47.2164886],[29.1850197,47.2149923],[29.1842906,47.2143216],[29.1842549,47.2120221],[29.182005,47.2117784],[29.181549,47.2117323],[29.1803082,47.2115946],[29.1801922,47.2084652],[29.1783885,47.2033137],[29.1751925,47.197708],[29.1720227,47.1930399],[29.1695203,47.1894852],[29.1662367,47.1859004],[29.1624076,47.183128],[29.158531,47.1811696],[29.156609,47.1790315],[29.1559444,47.1785917],[29.1522251,47.1739675],[29.1470249,47.1657685],[29.1431958,47.1620955],[29.1383184,47.1584141],[29.1315186,47.1537298],[29.1282458,47.1524383],[29.1244319,47.1522085],[29.1203606,47.1515117],[29.1122332,47.1506224],[29.1088925,47.1497892],[29.1080038,47.1496281],[29.103955,47.1486338],[29.1030237,47.1481802],[29.1007229,47.1466903],[29.1001736,47.1462002],[29.0996505,47.1455952],[29.0992147,47.1450136],[29.0982767,47.1427244],[29.0973307,47.1386352],[29.0946922,47.1343144],[29.0904167,47.1293459],[29.0847023,47.1242703],[29.0817786,47.1221711],[29.0785014,47.1203863],[29.07087,47.1157857],[29.0696267,47.1148561],[29.0673556,47.1128616],[29.0663806,47.1115674],[29.0658847,47.1108097],[29.065447,47.1096226],[29.0653513,47.1088646],[29.0652655,47.1082325],[29.0652856,47.1076005],[29.0655603,47.106781],[29.0659621,47.1060624],[29.0665785,47.1054292],[29.068499,47.1039567],[29.0694525,47.103075],[29.0720699,47.1001843],[29.0756022,47.0977069],[29.0797613,47.0948376],[29.0826722,47.093261],[29.0842464,47.0924084],[29.0850771,47.0919584],[29.0854744,47.0926249],[29.0861863,47.093819],[29.0872546,47.095991],[29.0872994,47.096083],[29.0876104,47.0967294],[29.087943,47.0974029],[29.0879736,47.097465],[29.0887695,47.0990995],[29.0892564,47.1000546],[29.0892952,47.100122],[29.0905496,47.1026985],[29.0905883,47.1027807],[29.0917518,47.1051499],[29.0918642,47.1053538],[29.0918965,47.1054204],[29.0931299,47.1079991],[29.0931657,47.1080801],[29.0938414,47.1094017],[29.0944643,47.110637],[29.0945045,47.1107084],[29.095782,47.1132905],[29.0958232,47.1133712],[29.097552,47.1168715],[29.0976068,47.1169464],[29.1007836,47.1196565],[29.1008386,47.119703],[29.1031271,47.121633],[29.103369,47.1218343],[29.1034301,47.1218852],[29.1043848,47.1226798],[29.1045307,47.1228013],[29.1046504,47.1229009],[29.1060356,47.122334],[29.107623,47.1216162],[29.1097773,47.1205629],[29.1110038,47.119873],[29.1110377,47.119827],[29.1110428,47.1195745],[29.1113081,47.1197124],[29.1113577,47.1197382],[29.1115772,47.1198447],[29.1116577,47.1199106],[29.1121578,47.1203202],[29.112749,47.1208043],[29.1132714,47.1212321],[29.1133135,47.1212666],[29.1140648,47.1218818],[29.1141079,47.1219171],[29.1149319,47.122592],[29.1149682,47.1226217],[29.1157987,47.1233017],[29.115842,47.1233373],[29.1166722,47.1240171],[29.1167102,47.1240482],[29.1174022,47.1246149],[29.1175112,47.1245498],[29.1175926,47.1245011],[29.1177813,47.1243883],[29.120055,47.1230292],[29.1206583,47.1226714],[29.1206965,47.1226487],[29.1234583,47.1210106],[29.12407,47.120607],[29.1241232,47.1205719],[29.1242313,47.1205006],[29.1242962,47.1204574],[29.1255468,47.1214344],[29.1255864,47.1214653],[29.1261372,47.1218957],[29.12635,47.1220619],[29.1274626,47.1229311],[29.1281628,47.1234581],[29.1282189,47.1235003],[29.1292076,47.1242445],[29.1292603,47.1242841],[29.1302517,47.1250303],[29.1303071,47.125072],[29.1313331,47.1258442],[29.1315801,47.1260354],[29.1316442,47.126085],[29.1329924,47.1271289],[29.1330535,47.1271762],[29.1342976,47.1281395],[29.1343673,47.1281934],[29.1356672,47.1291999],[29.135729,47.1292477],[29.1369768,47.1302137],[29.1370462,47.1302675],[29.1385493,47.1314311],[29.1386134,47.1314808],[29.1413014,47.1335617],[29.1413675,47.1336129],[29.1435902,47.1353336],[29.1439516,47.1356101],[29.1440268,47.1356677],[29.1465922,47.1376307],[29.1466523,47.1376767],[29.1493864,47.1397687],[29.149477,47.139838],[29.1521059,47.1418766],[29.1547816,47.1439513],[29.1548351,47.1439924],[29.1566416,47.1453935],[29.1574067,47.1459937],[29.1576928,47.1462121],[29.1577839,47.146263],[29.1578759,47.1463295],[29.1579732,47.1464264],[29.1580395,47.1464924],[29.1580361,47.1465229],[29.1580494,47.146587],[29.1581442,47.1466703],[29.1583699,47.1468183],[29.1591873,47.1474074],[29.1593078,47.1475141],[29.1597281,47.1478863],[29.1599437,47.1480592],[29.160274,47.1483304],[29.1606373,47.1486389],[29.1609529,47.148898],[29.1611047,47.1490067],[29.1612671,47.149128],[29.1615613,47.1493585],[29.1620547,47.1497322],[29.1621828,47.1498012],[29.162301,47.1498889],[29.1624464,47.1500325],[29.1625332,47.1501063],[29.1627225,47.1502631],[29.162871,47.1503724],[29.1629788,47.1504449],[29.1630081,47.1504663],[29.163037,47.1504808],[29.1650057,47.1520295],[29.1647552,47.1550085],[29.1648429,47.1561352],[29.1649124,47.1567364],[29.164945,47.1571272],[29.1649491,47.1571669],[29.1649372,47.1573815],[29.1640828,47.1579657],[29.1631712,47.1585783],[29.163028,47.1586841],[29.1629433,47.1588279],[29.1630413,47.1588389],[29.163142,47.1588599],[29.1632188,47.1589009],[29.1639702,47.1593793],[29.1654204,47.1604634],[29.1671279,47.161293],[29.1694977,47.1622093],[29.171344,47.163235],[29.1789841,47.1669697],[29.1832147,47.1689967],[29.1797417,47.1723611],[29.1795442,47.1725075],[29.1792032,47.1726051],[29.1915233,47.1804329],[29.2035876,47.1881119],[29.210636,47.1927403],[29.2136594,47.1945354],[29.2252981,47.2018759],[29.2237487,47.203045],[29.2226156,47.2041541],[29.2210024,47.2045977],[29.2205223,47.2056806],[29.2200998,47.2066983],[29.2185004,47.209962],[29.2176794,47.2118802],[29.2176392,47.2122316],[29.218166,47.2129046],[29.2188095,47.21368],[29.2190679,47.2138784],[29.2192881,47.2139908],[29.219444,47.2140474],[29.2197643,47.2140727],[29.2203054,47.2140081],[29.2209496,47.2138416]]],[[[29.2613202,47.2243836],[29.2627087,47.225338],[29.2657822,47.2272264],[29.2690676,47.2293816],[29.2782225,47.2353868],[29.2785297,47.2355902],[29.2831605,47.2390054],[29.2900251,47.2441428],[29.293686,47.2468159],[29.2882472,47.2500302],[29.2842878,47.2523792],[29.283099,47.2530845],[29.2828675,47.2532218],[29.2824676,47.252907],[29.2734907,47.2579288],[29.262556,47.2491985],[29.2579962,47.2455558],[29.2558137,47.2474151],[29.2544499,47.246858],[29.2534863,47.2477782],[29.2529367,47.2484616],[29.2524654,47.2488909],[29.2512223,47.2497714],[29.2505195,47.2503199],[29.249069,47.2490415],[29.2492811,47.2480506],[29.2510755,47.2408163],[29.252022,47.2395244],[29.2521601,47.2391964],[29.251815,47.2374024],[29.2514995,47.2366728],[29.2514052,47.2361857],[29.2516219,47.2357088],[29.2514949,47.2354348],[29.2512034,47.2351203],[29.2510241,47.2346383],[29.2508821,47.2340345],[29.2508971,47.2337149],[29.2510465,47.2333902],[29.2516443,47.232827],[29.2514201,47.2322385],[29.2514201,47.232066],[29.2515995,47.2318377],[29.2518834,47.2309345],[29.252425,47.2305127],[29.2524478,47.2293645],[29.2542918,47.2280356],[29.257169,47.2256845],[29.2581943,47.2249882],[29.2592196,47.2243476],[29.2601219,47.2249047],[29.2614753,47.2247933],[29.2613202,47.2243836]]]]}},{"type":"Feature","properties":{"entity_id":"osm-r19090911","jurisdiction":"MD","display_name":"Holercani","display_type":"independent_village","admin_level":8,"tier":"local","legal_registry":"CUATM","legal_id":"3835","legal_type":"independent_village","parent_catalog_id":"osm-r1692123","osm_relation_id":19090911,"legal_identity_status":"reconciled","geometry_source":"OpenStreetMap","geometry_precision":"master_coordinate_fidelity"},"geometry":{"type":"Polygon","coordinates":[[[29.023505,47.3271266],[29.0236371,47.3270046],[29.0246099,47.3243908],[29.0250944,47.3229898],[29.0255409,47.3216802],[29.0256778,47.3212612],[29.0256826,47.3211266],[29.0259609,47.3200345],[29.0265412,47.3167272],[29.0266213,47.3154077],[29.026791,47.3132879],[29.0268586,47.3123814],[29.0269447,47.3118698],[29.0270163,47.3113403],[29.0274579,47.3113765],[29.0278257,47.3114067],[29.0281938,47.3114369],[29.0285621,47.3114672],[29.0289305,47.3114974],[29.0289809,47.3115016],[29.0292991,47.3115276],[29.0296679,47.3115579],[29.0300367,47.3115881],[29.0302654,47.3116069],[29.030406,47.3116158],[29.0307321,47.3116363],[29.0314661,47.3116826],[29.0318311,47.3117055],[29.0318586,47.3117072],[29.0319083,47.311711],[29.0322717,47.3117384],[29.0326346,47.3117657],[29.0329972,47.311793],[29.0332151,47.3118094],[29.0333594,47.3118199],[29.0336791,47.3118431],[29.0343351,47.3118907],[29.034401,47.3118955],[29.0347611,47.3119225],[29.0351209,47.3119494],[29.0354802,47.3119763],[29.0358727,47.3120056],[29.0359296,47.3120098],[29.0360215,47.3120167],[29.0365893,47.3120639],[29.0369478,47.3120938],[29.037203,47.312115],[29.0373059,47.3121279],[29.0379324,47.312206],[29.0380735,47.3122276],[29.038611,47.3123643],[29.0394024,47.3097587],[29.0396505,47.3085545],[29.0397011,47.3083087],[29.0398077,47.3075179],[29.0398888,47.3068023],[29.0401099,47.3056314],[29.0401974,47.3050905],[29.0446576,47.3044705],[29.04565,47.304352],[29.0458326,47.3043249],[29.0461409,47.3042936],[29.0465265,47.3042545],[29.0466966,47.3042373],[29.046729,47.3042344],[29.047271,47.3041851],[29.0475035,47.304164],[29.0481503,47.3041112],[29.0482577,47.3041022],[29.0487146,47.304064],[29.0491445,47.3040281],[29.0491515,47.3040276],[29.0495709,47.3039912],[29.0499743,47.3039563],[29.0503633,47.3039226],[29.050456,47.3039145],[29.0504955,47.303911],[29.0505359,47.3039076],[29.0507393,47.30389],[29.0511829,47.3038515],[29.0514579,47.303826],[29.0518021,47.3037941],[29.0521365,47.303763],[29.0524623,47.3037329],[29.0528002,47.3037014],[29.0530911,47.3036707],[29.0536909,47.3036071],[29.0539806,47.3035764],[29.0542028,47.3035528],[29.0542639,47.3035462],[29.0548136,47.3034863],[29.0550804,47.3034573],[29.0553421,47.3034288],[29.0555991,47.3034008],[29.0560998,47.3033464],[29.056167,47.3033391],[29.0563442,47.3033192],[29.056585,47.3032921],[29.0568217,47.3032655],[29.0570329,47.3032417],[29.0570547,47.3032399],[29.0572827,47.3032211],[29.057731,47.3031839],[29.0579515,47.3031656],[29.0581697,47.3031475],[29.0583855,47.3031296],[29.0585175,47.3031187],[29.0585991,47.3031124],[29.0588102,47.3030963],[29.0592821,47.3030895],[29.0596771,47.3031538],[29.0598883,47.303186],[29.0602162,47.3021542],[29.0603768,47.301671],[29.0606774,47.3008236],[29.0607835,47.3007104],[29.0616151,47.3001773],[29.0630047,47.2993489],[29.0640889,47.2986659],[29.0652638,47.2980023],[29.0676135,47.2967294],[29.0685293,47.2962361],[29.0693438,47.2958142],[29.0704795,47.295167],[29.0713398,47.2946929],[29.0728146,47.2938916],[29.0742187,47.2931185],[29.0788325,47.2905803],[29.0798397,47.2900166],[29.0798338,47.2900783],[29.0797679,47.29077],[29.0796946,47.291408],[29.0796195,47.2924413],[29.0793877,47.2943366],[29.0794775,47.2945011],[29.0794487,47.2947416],[29.0794379,47.2948073],[29.0780117,47.2949914],[29.0778125,47.2950496],[29.0775513,47.2952042],[29.0773783,47.2953553],[29.0772826,47.2954649],[29.0765678,47.2962483],[29.0760667,47.2969624],[29.0758899,47.2972795],[29.0758874,47.2980077],[29.0753019,47.2986733],[29.0750085,47.2989561],[29.0743763,47.2994249],[29.0738704,47.299762],[29.0737955,47.2998804],[29.0742791,47.3006828],[29.0747847,47.301592],[29.0748699,47.3019296],[29.0750997,47.3023103],[29.0751248,47.3023411],[29.0752695,47.3024986],[29.075515,47.3026521],[29.0759003,47.3028227],[29.076665,47.3031743],[29.0773943,47.3034485],[29.0778382,47.3037719],[29.078393,47.3040877],[29.0784528,47.3041181],[29.078562,47.3041736],[29.0792609,47.3044889],[29.0807645,47.3052656],[29.0808216,47.3052815],[29.0806799,47.3054758],[29.080609,47.3064139],[29.0806368,47.3064891],[29.0809017,47.3065768],[29.081066,47.3064728],[29.0811793,47.3063864],[29.081289,47.3062976],[29.0814554,47.3062232],[29.0815686,47.30618],[29.0816465,47.3061632],[29.0816465,47.3061032],[29.0815757,47.3060504],[29.0816182,47.3058752],[29.0816593,47.3057402],[29.0905459,47.3082462],[29.0865569,47.3136957],[29.0862062,47.3143677],[29.0791619,47.3278465],[29.0768764,47.3326873],[29.075042,47.3365722],[29.073086,47.3410012],[29.0698134,47.3400741],[29.0652041,47.3410247],[29.0581687,47.3424753],[29.0579554,47.3425286],[29.0578805,47.3425484],[29.0576776,47.3426019],[29.0575018,47.3426481],[29.0573414,47.3426903],[29.057183,47.3427321],[29.057025,47.3427737],[29.0568672,47.3428154],[29.0567098,47.3428568],[29.0565538,47.3428978],[29.0565526,47.3428981],[29.0563946,47.3429375],[29.056236,47.3429769],[29.0560802,47.3430156],[29.0559295,47.3430531],[29.0557834,47.3430895],[29.0556053,47.3431337],[29.0555032,47.3431588],[29.0553686,47.343192],[29.055237,47.3432244],[29.0551082,47.3432561],[29.0549803,47.3432876],[29.054853,47.343319],[29.0547265,47.3433502],[29.0546468,47.3433698],[29.0546006,47.3433815],[29.0544754,47.3434132],[29.0543509,47.3434447],[29.0542272,47.3434761],[29.054104,47.3435072],[29.0539818,47.3435381],[29.0538605,47.3435688],[29.0537404,47.3435992],[29.0536341,47.3436261],[29.0536215,47.3436293],[29.0535035,47.3436591],[29.0533865,47.3436885],[29.0532707,47.3437178],[29.0531554,47.3437469],[29.0530403,47.3437759],[29.0529258,47.3438047],[29.0528116,47.3438335],[29.0526979,47.3438622],[29.0526879,47.3438648],[29.0525837,47.3438892],[29.0524695,47.3439161],[29.0523558,47.343943],[29.0522418,47.3439698],[29.0513331,47.3442135],[29.0511668,47.3442555],[29.0510121,47.3442945],[29.0508683,47.3443309],[29.0506088,47.3443963],[29.0504444,47.3444378],[29.0498287,47.3445932],[29.0496272,47.344644],[29.0495043,47.3446733],[29.0492542,47.3447326],[29.0491422,47.3447592],[29.0490423,47.3447836],[29.0488554,47.3448291],[29.0486867,47.3448703],[29.0485312,47.3449082],[29.0483866,47.3449434],[29.0482508,47.3449765],[29.0481224,47.3450079],[29.0481131,47.34501],[29.048,47.3450393],[29.0479694,47.3450472],[29.0475603,47.3450454],[29.0466884,47.3451468],[29.0441212,47.3452668],[29.0416743,47.3453643],[29.0392174,47.3454172],[29.036712,47.3454356],[29.0354471,47.3454964],[29.0337245,47.3455796],[29.032289,47.3455912],[29.0314256,47.345626],[29.0307858,47.3456596],[29.0302598,47.3456834],[29.0301438,47.3456474],[29.0300254,47.3456586],[29.0299072,47.34567],[29.0297891,47.3456812],[29.0296711,47.3456925],[29.02963,47.3456964],[29.0295557,47.3456954],[29.0294393,47.3456938],[29.029325,47.3456923],[29.0292106,47.3456908],[29.029096,47.3456893],[29.0289815,47.3456878],[29.0287517,47.3456847],[29.0286366,47.3456832],[29.0285213,47.3456816],[29.028406,47.3456801],[29.0283961,47.3456799],[29.0282565,47.3456801],[29.0278844,47.3456629],[29.0278099,47.3456594],[29.0274823,47.3456443],[29.0274307,47.3456419],[29.0271542,47.3456207],[29.0268248,47.3455954],[29.0267177,47.3455872],[29.0264943,47.3455694],[29.0263437,47.3455575],[29.0261596,47.3455429],[29.0260115,47.3455333],[29.0256794,47.3455118],[29.0255283,47.345502],[29.0254795,47.3454989],[29.0251953,47.3454785],[29.0249522,47.3454611],[29.0248675,47.3454559],[29.0247769,47.3454506],[29.0247226,47.3454475],[29.0244433,47.3454315],[29.0241099,47.3454122],[29.0238297,47.3453961],[29.0237767,47.3453931],[29.0234437,47.3453744],[29.0227789,47.3453371],[29.0225055,47.3453217],[29.0224471,47.3453182],[29.0223716,47.3453136],[29.0220396,47.3452935],[29.0217076,47.3452734],[29.0215837,47.3452659],[29.0213761,47.3452561],[29.0210458,47.3452405],[29.0207163,47.3452249],[29.020525,47.3452159],[29.0203873,47.3452063],[29.0200987,47.3451861],[29.0200373,47.34482],[29.0199143,47.3447959],[29.018934,47.344856],[29.0179539,47.3448735],[29.0179139,47.3448781],[29.017604,47.3428693],[29.0174034,47.3412806],[29.0174012,47.3404498],[29.0173995,47.3398046],[29.0176888,47.3390915],[29.0178674,47.3387954],[29.0178596,47.3384266],[29.0176893,47.3373328],[29.0176137,47.3359528],[29.0174488,47.3358565],[29.0174347,47.3357654],[29.0174272,47.3355707],[29.0174128,47.3354691],[29.0171907,47.3339037],[29.0171462,47.3335645],[29.0170101,47.3325267],[29.016992,47.3320234],[29.0170576,47.3316394],[29.0171809,47.3313469],[29.0171999,47.3313547],[29.0172809,47.3313879],[29.0173325,47.3314091],[29.0204579,47.3320244],[29.0204819,47.3320292],[29.0205684,47.3320467],[29.0207401,47.3320722],[29.0207776,47.3320777],[29.0209172,47.332098],[29.0211094,47.3312618],[29.0211621,47.3310347],[29.0213086,47.3304181],[29.0215049,47.3297443],[29.0215186,47.3296974],[29.0215476,47.3295979],[29.0217463,47.3291978],[29.0218062,47.3291142],[29.0221377,47.3286517],[29.0222991,47.3284611],[29.0223664,47.3283817],[29.0226405,47.328058],[29.0228697,47.3277967],[29.0229112,47.3277494],[29.0230751,47.3275626],[29.023505,47.3271266]]]}},{"type":"Feature","properties":{"entity_id":"osm-r19090912","jurisdiction":"MD","display_name":"Ustia","display_type":"independent_village","admin_level":8,"tier":"local","legal_registry":"CUATM","legal_id":"3844","legal_type":"independent_village","parent_catalog_id":"osm-r1692123","osm_relation_id":19090912,"legal_identity_status":"reconciled","geometry_source":"OpenStreetMap","geometry_precision":"master_coordinate_fidelity"},"geometry":{"type":"Polygon","coordinates":[[[29.0755735,47.2584324],[29.0755349,47.2571866],[29.0750658,47.2561616],[29.0741852,47.2552394],[29.0723944,47.2536063],[29.068948,47.2499423],[29.0670989,47.2484323],[29.0658293,47.2475694],[29.0640609,47.2464975],[29.0632768,47.2462764],[29.063515,47.2454749],[29.0632235,47.2446717],[29.0631108,47.2442157],[29.0630489,47.2437649],[29.0630219,47.2434825],[29.0630703,47.2428142],[29.0637984,47.2426374],[29.0656182,47.2422887],[29.0658152,47.2423026],[29.0661568,47.2422506],[29.0663569,47.2422814],[29.0691906,47.2418508],[29.0696724,47.2418608],[29.0706005,47.2420222],[29.0710673,47.2419628],[29.0716505,47.2420467],[29.0724742,47.2421306],[29.072889,47.2420517],[29.0738541,47.2421299],[29.0746316,47.242098],[29.0755021,47.2418006],[29.0761387,47.2414845],[29.0769119,47.2412193],[29.0778505,47.2409716],[29.0788651,47.240602],[29.0793213,47.2404187],[29.0792226,47.2402678],[29.0795482,47.2371893],[29.0796541,47.2359592],[29.0795335,47.235842],[29.0795382,47.2356797],[29.0794797,47.2354995],[29.0795205,47.2351778],[29.0795976,47.2348742],[29.0798202,47.2342864],[29.0799161,47.2342109],[29.0799719,47.2340925],[29.0800259,47.2337281],[29.0800193,47.233206],[29.080005,47.2325519],[29.0801201,47.231559],[29.0801962,47.2309664],[29.0802023,47.2304092],[29.0803434,47.2293852],[29.0804189,47.2287436],[29.0805317,47.2284928],[29.0805157,47.2277087],[29.0806989,47.2274486],[29.0808501,47.2272196],[29.0810328,47.2268104],[29.0814632,47.2257926],[29.0816889,47.2252962],[29.0818264,47.2249173],[29.0819742,47.2244163],[29.0820902,47.2239595],[29.0821398,47.2235938],[29.0820855,47.2231234],[29.0820922,47.2227698],[29.0823592,47.2211061],[29.082397,47.2208142],[29.0825226,47.2198426],[29.082592,47.2193065],[29.0826148,47.2190685],[29.0826944,47.2190771],[29.0827201,47.2188458],[29.0833163,47.2189047],[29.083682,47.2189237],[29.0844998,47.218966],[29.0854395,47.2190146],[29.0864574,47.2190674],[29.0875764,47.2191252],[29.0888907,47.2191933],[29.0889795,47.2191791],[29.0895842,47.219192],[29.0904302,47.2192218],[29.0908403,47.2192333],[29.0922707,47.2193227],[29.0987407,47.2199935],[29.0989822,47.2200357],[29.1004027,47.2202012],[29.1021894,47.2203967],[29.1065142,47.220889],[29.1073153,47.2209837],[29.1081257,47.2210705],[29.1081374,47.2210365],[29.1085909,47.2209173],[29.1090321,47.2211376],[29.1088343,47.2213717],[29.1071109,47.2238684],[29.1057486,47.2256769],[29.1059335,47.2257532],[29.1107815,47.2265324],[29.1163503,47.22741],[29.1198027,47.2279761],[29.1229725,47.228462],[29.1272355,47.2291346],[29.1301273,47.2296014],[29.1297013,47.2308195],[29.1284139,47.234281],[29.1278129,47.2360176],[29.127663,47.2363951],[29.1271053,47.2376859],[29.1269297,47.23816],[29.1260747,47.2405579],[29.1256181,47.2401],[29.1254645,47.2402002],[29.1243204,47.2394941],[29.1242028,47.2393808],[29.12381,47.2389012],[29.1236209,47.2387133],[29.1230867,47.2383126],[29.1229441,47.2381915],[29.1226956,47.237951],[29.1225836,47.2378157],[29.1224217,47.2376856],[29.1223094,47.2375283],[29.1222101,47.2373529],[29.1221372,47.2371733],[29.1221668,47.2369761],[29.1224124,47.2365664],[29.1224383,47.2365273],[29.122913,47.2359051],[29.1230512,47.2357022],[29.1230348,47.2354652],[29.1230649,47.235307],[29.1231261,47.2350526],[29.123119,47.2349606],[29.1230476,47.234899],[29.1228988,47.234861],[29.12232,47.2350627],[29.12205,47.2350814],[29.121797,47.2350479],[29.1213642,47.2348666],[29.1209421,47.2347072],[29.1199853,47.2344322],[29.1196942,47.234302],[29.1194676,47.2342684],[29.1192105,47.234261],[29.118266,47.2340259],[29.1178587,47.2338834],[29.1176635,47.2337796],[29.1175864,47.2337271],[29.1174939,47.2335126],[29.117403,47.2334121],[29.1172735,47.2333949],[29.1171578,47.2334137],[29.1170749,47.2334712],[29.1170418,47.2335244],[29.1167339,47.2336714],[29.116459,47.2337611],[29.1161174,47.2338023],[29.1159117,47.2337906],[29.1151623,47.2336502],[29.1143556,47.2335022],[29.1138253,47.2333825],[29.1136501,47.2333486],[29.1133667,47.2333503],[29.1129414,47.233287],[29.1126188,47.2332099],[29.1122237,47.2330944],[29.1117055,47.2328905],[29.1116014,47.2327902],[29.1113715,47.2325155],[29.1110721,47.2323063],[29.110832,47.2321368],[29.1107007,47.2319846],[29.1104967,47.2316607],[29.1104188,47.2315522],[29.1102236,47.2314474],[29.1099847,47.2313738],[29.109798,47.231353],[29.1095449,47.2313196],[29.1092864,47.2312021],[29.1090528,47.2310805],[29.1088848,47.2310426],[29.1086721,47.2310529],[29.1080205,47.2309779],[29.1076711,47.230874],[29.1075155,47.230766],[29.1074171,47.2306526],[29.1072341,47.2304776],[29.1071231,47.2303033],[29.106802,47.2304503],[29.1064876,47.2305443],[29.1061416,47.2305854],[29.1058446,47.2305562],[29.1049742,47.2304786],[29.1042578,47.2303819],[29.1038032,47.230362],[29.103558,47.2305166],[29.1032845,47.2305672],[29.1029457,47.230544],[29.1026814,47.2305467],[29.102484,47.231276],[29.1020096,47.2323832],[29.1016702,47.2334786],[29.1016318,47.2335708],[29.1016003,47.233638],[29.1018919,47.2336973],[29.1027132,47.2339473],[29.103204,47.2340843],[29.1038375,47.2342385],[29.1044704,47.2343486],[29.104851,47.2343633],[29.1059718,47.2343874],[29.1071919,47.2344809],[29.1073599,47.2345238],[29.1080667,47.2348836],[29.108527,47.2351568],[29.1090145,47.2354828],[29.1097812,47.2359262],[29.1101777,47.2361428],[29.1109933,47.2365158],[29.1121605,47.2370387],[29.1129126,47.2373811],[29.1131785,47.2374935],[29.1133669,47.2376324],[29.1137328,47.2378671],[29.1143095,47.2381576],[29.1147452,47.238449],[29.1151347,47.2386916],[29.1158686,47.2390951],[29.1161742,47.2393263],[29.1165262,47.2396131],[29.1168128,47.2398444],[29.1173364,47.2404463],[29.1176172,47.2406816],[29.1179041,47.2409388],[29.1182293,47.2412048],[29.1190153,47.241652],[29.1195274,47.2418369],[29.1202665,47.2421833],[29.1208568,47.2424957],[29.1214231,47.2428782],[29.1218905,47.2432303],[29.1222732,47.2436955],[29.1237749,47.2451294],[29.1247511,47.2461892],[29.125561,47.2468559],[29.1261861,47.2471979],[29.1281114,47.2479357],[29.1288544,47.2483443],[29.1292139,47.2486573],[29.1294313,47.2491029],[29.129452,47.2496324],[29.1291657,47.2500597],[29.1288786,47.2504381],[29.1286353,47.2507305],[29.1285173,47.2509762],[29.1285265,47.251319],[29.1287205,47.2516974],[29.1294799,47.2523171],[29.1300001,47.2525434],[29.1305207,47.2527972],[29.1309595,47.2529965],[29.131416,47.253165],[29.1318398,47.2532511],[29.1321726,47.2532581],[29.1325047,47.253207],[29.1329426,47.2530113],[29.1336329,47.2525263],[29.1343939,47.2522887],[29.1351931,47.252204],[29.1357984,47.2520807],[29.1359191,47.2524317],[29.1370846,47.2521],[29.1389879,47.2512336],[29.1411452,47.2502033],[29.1421179,47.2496674],[29.1424381,47.2494173],[29.1427619,47.249103],[29.14317,47.2487085],[29.1434692,47.2482443],[29.1437928,47.2479115],[29.1445881,47.2472359],[29.1455771,47.2462713],[29.1462917,47.2456115],[29.147255,47.2447388],[29.1477104,47.2444868],[29.1488297,47.2448533],[29.1480497,47.2458823],[29.1476205,47.2479101],[29.1471514,47.2524687],[29.1471055,47.2529149],[29.1446715,47.257429],[29.1432842,47.2585493],[29.1386873,47.2633759],[29.1356538,47.2662376],[29.1319667,47.2688204],[29.1289025,47.2713329],[29.1281371,47.2725438],[29.126681,47.2743579],[29.1251991,47.2758786],[29.1247444,47.2763452],[29.1235734,47.277576],[29.1234649,47.2776948],[29.1231653,47.2779284],[29.1215444,47.2789627],[29.118644,47.2811685],[29.1123666,47.2864168],[29.1025193,47.2945943],[29.1002662,47.2966501],[29.0982668,47.2987502],[29.0961519,47.3009805],[29.0905459,47.3082462],[29.0816593,47.3057402],[29.0816182,47.3058752],[29.0815757,47.3060504],[29.0816465,47.3061032],[29.0816465,47.3061632],[29.0815686,47.30618],[29.0814554,47.3062232],[29.081289,47.3062976],[29.0811793,47.3063864],[29.081066,47.3064728],[29.0809017,47.3065768],[29.0806368,47.3064891],[29.080609,47.3064139],[29.0806799,47.3054758],[29.0808216,47.3052815],[29.0807645,47.3052656],[29.0792609,47.3044889],[29.078562,47.3041736],[29.0784528,47.3041181],[29.078393,47.3040877],[29.0778382,47.3037719],[29.0773943,47.3034485],[29.076665,47.3031743],[29.0759003,47.3028227],[29.075515,47.3026521],[29.0752695,47.3024986],[29.0751248,47.3023411],[29.0750997,47.3023103],[29.0748699,47.3019296],[29.0747847,47.301592],[29.0742791,47.3006828],[29.0737955,47.2998804],[29.0738704,47.299762],[29.0743763,47.2994249],[29.0750085,47.2989561],[29.0753019,47.2986733],[29.0758874,47.2980077],[29.0758899,47.2972795],[29.0760667,47.2969624],[29.0765678,47.2962483],[29.0772826,47.2954649],[29.0773783,47.2953553],[29.0775513,47.2952042],[29.0778125,47.2950496],[29.0780117,47.2949914],[29.0794379,47.2948073],[29.0794487,47.2947416],[29.0794775,47.2945011],[29.0793877,47.2943366],[29.0796195,47.2924413],[29.0796946,47.291408],[29.0797679,47.29077],[29.0798338,47.2900783],[29.0798397,47.2900166],[29.0798183,47.2897055],[29.0801589,47.2893739],[29.0802421,47.2887296],[29.0802719,47.2884988],[29.0803773,47.2869305],[29.0808494,47.2799032],[29.0810442,47.2774156],[29.0814615,47.2729183],[29.0817468,47.2696518],[29.0818679,47.2686629],[29.081996,47.2682794],[29.0820187,47.2680653],[29.0819719,47.2672569],[29.081961,47.2669655],[29.0819274,47.2666074],[29.0822698,47.2628381],[29.0822819,47.262684],[29.0825248,47.2596026],[29.0825124,47.2585443],[29.08061,47.2584605],[29.0755735,47.2584324]]]}},{"type":"Feature","properties":{"entity_id":"osm-r19090941","jurisdiction":"MD","display_name":"Oxentea","display_type":"independent_village","admin_level":8,"tier":"local","legal_registry":"CUATM","legal_id":"3841","legal_type":"independent_village","parent_catalog_id":"osm-r1692123","osm_relation_id":19090941,"legal_identity_status":"reconciled","geometry_source":"OpenStreetMap","geometry_precision":"master_coordinate_fidelity"},"geometry":{"type":"MultiPolygon","coordinates":[[[[29.0296796,47.3778975],[29.0297153,47.3779876],[29.0298507,47.3781044],[29.0316618,47.3800554],[29.0316867,47.3802722],[29.0327907,47.3820152],[29.0330863,47.382671],[29.0326755,47.3828743],[29.0321349,47.3830751],[29.0318816,47.3831559],[29.0313247,47.3833584],[29.031088,47.383462],[29.0311463,47.3837364],[29.0313082,47.3839646],[29.0314221,47.3842091],[29.0312492,47.3846051],[29.0311,47.3847334],[29.0308777,47.3847887],[29.0304932,47.3848123],[29.0303551,47.3848724],[29.029994,47.3851976],[29.0294477,47.3856236],[29.029172,47.3857868],[29.0286465,47.386186],[29.0279011,47.3866639],[29.027083,47.3872503],[29.0268615,47.3874362],[29.0261529,47.3879114],[29.0258635,47.3880749],[29.0255736,47.3882024],[29.0245865,47.388815],[29.0242792,47.3890006],[29.0237747,47.3892754],[29.0234556,47.389463],[29.0231052,47.3896939],[29.022613,47.3898021],[29.0223406,47.3898618],[29.0216789,47.3900355],[29.02128,47.3901879],[29.0210297,47.3903087],[29.0200685,47.3908181],[29.0199112,47.3909267],[29.020576,47.3915686],[29.0229085,47.393587],[29.0234171,47.394034],[29.0239431,47.3944713],[29.0241974,47.3947365],[29.0251426,47.3954701],[29.0253268,47.3955931],[29.0254828,47.3956167],[29.0260226,47.3955752],[29.0265628,47.3954961],[29.027128,47.3954797],[29.0282504,47.3953581],[29.0295578,47.395245],[29.0296789,47.3952063],[29.029744,47.3951379],[29.0299752,47.3949112],[29.0301084,47.3946901],[29.0302573,47.3944884],[29.0304879,47.3942371],[29.0306181,47.3940801],[29.0308289,47.3937895],[29.0316675,47.3939999],[29.0324303,47.3941751],[29.0328582,47.3942983],[29.0337685,47.3945497],[29.0342192,47.3946478],[29.03469,47.394737],[29.0350072,47.3947884],[29.0355986,47.3948571],[29.0359315,47.3949089],[29.0363262,47.3949619],[29.0360832,47.3953137],[29.035521,47.3959285],[29.0351812,47.3963171],[29.0348811,47.3966966],[29.0343816,47.3973759],[29.0340041,47.3979279],[29.0337474,47.398268],[29.0335258,47.3985751],[29.0334009,47.3984934],[29.0314596,47.3978828],[29.030761,47.3976791],[29.0303195,47.3975227],[29.0302173,47.3974912],[29.0301022,47.3974906],[29.0299795,47.3979601],[29.0295808,47.3993395],[29.0293251,47.4002677],[29.0291567,47.4009669],[29.0290747,47.4015227],[29.0290347,47.4022813],[29.0289992,47.4024737],[29.0290165,47.402658],[29.028914,47.4035554],[29.0288781,47.4037067],[29.0285954,47.403739],[29.0278573,47.4038712],[29.0270866,47.4040345],[29.0257574,47.4043426],[29.0254112,47.4043897],[29.0253372,47.4046869],[29.0253263,47.4049858],[29.0253572,47.4053254],[29.0254112,47.405657],[29.0253628,47.4069237],[29.0253458,47.4085346],[29.0253018,47.408858],[29.0192136,47.408255],[29.0186755,47.406845],[29.0177328,47.4040357],[29.017632,47.4036431],[29.0179735,47.4016734],[29.0182063,47.4003267],[29.0188181,47.4003389],[29.0191037,47.3994195],[29.0193199,47.3984553],[29.0193397,47.397889],[29.0191768,47.3969391],[29.0193024,47.3956834],[29.0194495,47.3946587],[29.0192596,47.3944989],[29.0180743,47.3943326],[29.0182888,47.3934284],[29.0185201,47.3922829],[29.0184543,47.3911965],[29.0184613,47.3902814],[29.0183626,47.3896173],[29.0183508,47.389215],[29.0179321,47.3877351],[29.0175126,47.3870253],[29.0169746,47.3855809],[29.0170821,47.384674],[29.017489,47.3836505],[29.0171934,47.381646],[29.0173985,47.3801254],[29.0174154,47.3780298],[29.0190919,47.3780451],[29.0217097,47.3779803],[29.0230198,47.3779847],[29.024437,47.3781431],[29.0275481,47.3779981],[29.0296796,47.3778975]]],[[[29.0836484,47.4070787],[29.0797977,47.409769],[29.07756,47.411617],[29.0757128,47.4147361],[29.0724767,47.413883],[29.0682277,47.4126353],[29.06989,47.4105281],[29.0707307,47.4094658],[29.0707757,47.4094111],[29.0709125,47.409294],[29.0715672,47.4089165],[29.0719683,47.4086643],[29.0720579,47.4086008],[29.0727021,47.4079646],[29.0726658,47.4079549],[29.0720108,47.4077718],[29.0715051,47.4076304],[29.0713185,47.4075783],[29.0710497,47.4075083],[29.071031,47.4075034],[29.0701687,47.4072788],[29.0690786,47.4069814],[29.0688042,47.4069065],[29.0680665,47.4067052],[29.0674779,47.4065446],[29.0669735,47.406407],[29.0669208,47.4063926],[29.0667669,47.4063504],[29.0660192,47.4061465],[29.0660097,47.406144],[29.0657559,47.4060773],[29.065679,47.4060571],[29.0655476,47.4060213],[29.0655027,47.4060091],[29.0652239,47.4059339],[29.0649701,47.4058655],[29.0648801,47.4058412],[29.0647162,47.4057975],[29.0644619,47.4057297],[29.0642074,47.4056619],[29.0638256,47.4055601],[29.0637906,47.4055508],[29.0635711,47.4054915],[29.0633163,47.4054227],[29.0629087,47.4053125],[29.0627806,47.405278],[29.0625253,47.405209],[29.0624546,47.40519],[29.0622692,47.4051412],[29.0620128,47.4050737],[29.0617565,47.4050062],[29.0615001,47.4049387],[29.0612734,47.4048789],[29.0612436,47.404871],[29.0609871,47.4048032],[29.0604739,47.4046675],[29.0603136,47.4046252],[29.0602193,47.4045936],[29.0601749,47.4045787],[29.0601259,47.4045505],[29.0600221,47.4044904],[29.059647,47.4043982],[29.0596698,47.4045266],[29.0598729,47.405593],[29.0600125,47.4064266],[29.060153,47.4073559],[29.0601512,47.4077646],[29.0601288,47.4081506],[29.0600872,47.4084503],[29.0600991,47.4084908],[29.0551863,47.4072591],[29.053883,47.4069552],[29.0537072,47.4069407],[29.0462117,47.4050466],[29.0458035,47.4047007],[29.0462576,47.4039004],[29.0470575,47.4022582],[29.0471401,47.4018725],[29.047262,47.4016646],[29.0486849,47.4020973],[29.0494687,47.4022638],[29.0501614,47.4011619],[29.0507277,47.4001428],[29.051898,47.3983551],[29.0526652,47.3971904],[29.0534593,47.395936],[29.0542901,47.3946128],[29.0551983,47.3933121],[29.0558206,47.3924219],[29.0572595,47.3902562],[29.0572933,47.3901183],[29.058051,47.3889687],[29.0585082,47.3883033],[29.0624514,47.3879996],[29.06327,47.3879199],[29.0639174,47.3878306],[29.0641893,47.3876649],[29.064805,47.3864271],[29.0646649,47.3864115],[29.0639925,47.3864758],[29.0633349,47.3865505],[29.0628446,47.3865695],[29.0623538,47.3866514],[29.0618138,47.3867102],[29.0612761,47.3867501],[29.0601644,47.3868777],[29.0597978,47.386939],[29.059591,47.3872361],[29.0593144,47.3873076],[29.0591676,47.3874169],[29.0571637,47.3875479],[29.0567675,47.3875879],[29.0563829,47.3876035],[29.0557844,47.3876447],[29.0552614,47.3876988],[29.0545829,47.3876839],[29.0539476,47.387639],[29.0534953,47.3876281],[29.0531418,47.3875978],[29.052602,47.3875685],[29.0519349,47.3875131],[29.0509455,47.387384],[29.0504052,47.387317],[29.0498965,47.3872418],[29.049539,47.3872007],[29.0492729,47.3871779],[29.0477349,47.3857092],[29.047395,47.3856521],[29.0470629,47.3855625],[29.0457755,47.3851585],[29.0432314,47.3843317],[29.0429297,47.3841957],[29.0428363,47.3841221],[29.0427386,47.3840287],[29.0425999,47.3837894],[29.0424804,47.3837829],[29.0423414,47.383783],[29.04225,47.3838061],[29.0425768,47.3831344],[29.0528732,47.3826064],[29.0556165,47.3824864],[29.0583919,47.3822466],[29.060943,47.38192],[29.0623086,47.3817775],[29.0624691,47.3820625],[29.0640284,47.3818447],[29.0646629,47.3819063],[29.0652913,47.382054],[29.0665957,47.3821025],[29.0663581,47.3827375],[29.0663109,47.3831408],[29.0664117,47.3835795],[29.0692148,47.383165],[29.0712492,47.3829844],[29.0816185,47.381757],[29.0868806,47.3812473],[29.1028948,47.3799258],[29.1075797,47.3795625],[29.1085862,47.3795631],[29.1084704,47.3791073],[29.1110323,47.3726835],[29.1183473,47.373935],[29.1192553,47.3726287],[29.1202876,47.3715473],[29.1223142,47.3684529],[29.1237745,47.3689263],[29.124425,47.3676818],[29.1406494,47.3710524],[29.1447717,47.3731435],[29.1354668,47.3805279],[29.1232789,47.3879665],[29.1097176,47.3947068],[29.096328,47.4014463],[29.0941141,47.4024952],[29.0836484,47.4070787]]]]}},{"type":"Feature","properties":{"entity_id":"osm-r19090942","jurisdiction":"MD","display_name":"Molovata","display_type":"independent_village","admin_level":8,"tier":"local","legal_registry":"CUATM","legal_id":"3838","legal_type":"independent_village","parent_catalog_id":"osm-r1692123","osm_relation_id":19090942,"legal_identity_status":"reconciled","geometry_source":"OpenStreetMap","geometry_precision":"master_coordinate_fidelity"},"geometry":{"type":"Polygon","coordinates":[[[29.1227639,47.3280792],[29.1251597,47.3273073],[29.1281159,47.326814],[29.1321182,47.3268651],[29.1358216,47.3272201],[29.1413033,47.3283119],[29.1529331,47.3323264],[29.157142,47.3350533],[29.1588887,47.3365821],[29.1604818,47.3382981],[29.1622775,47.3411811],[29.1641343,47.346227],[29.161216,47.3552985],[29.1567528,47.3622756],[29.1468394,47.3715042],[29.1447717,47.3731435],[29.1406494,47.3710524],[29.124425,47.3676818],[29.1237745,47.3689263],[29.1223142,47.3684529],[29.1202876,47.3715473],[29.1192553,47.3726287],[29.1183473,47.373935],[29.1110323,47.3726835],[29.1084704,47.3791073],[29.1085862,47.3795631],[29.1075797,47.3795625],[29.1028948,47.3799258],[29.0868806,47.3812473],[29.0816185,47.381757],[29.0712492,47.3829844],[29.0692148,47.383165],[29.0664117,47.3835795],[29.0663109,47.3831408],[29.0663581,47.3827375],[29.0665957,47.3821025],[29.0652913,47.382054],[29.0646629,47.3819063],[29.0640284,47.3818447],[29.0624691,47.3820625],[29.0623086,47.3817775],[29.060943,47.38192],[29.0583919,47.3822466],[29.0556165,47.3824864],[29.0528732,47.3826064],[29.0425768,47.3831344],[29.04225,47.3838061],[29.0420064,47.3835837],[29.0418428,47.3834693],[29.0417283,47.3833546],[29.0416091,47.3831759],[29.041445,47.3828815],[29.0411393,47.3823868],[29.0410737,47.3822591],[29.0408389,47.3819074],[29.0405851,47.3814998],[29.0404841,47.3813377],[29.0403626,47.3811495],[29.0403217,47.3810508],[29.0400784,47.3806473],[29.0399173,47.3804683],[29.0395087,47.3801475],[29.0384848,47.379442],[29.0378333,47.3789688],[29.0373389,47.3786027],[29.0367111,47.3781565],[29.0360955,47.377787],[29.0355108,47.3773991],[29.0351318,47.3771177],[29.0345882,47.376711],[29.0344351,47.376607],[29.0337962,47.3761727],[29.0311976,47.3744181],[29.0295887,47.373174],[29.0291929,47.3728757],[29.029104,47.3729459],[29.0289909,47.3731538],[29.0287906,47.3734124],[29.0286064,47.373671],[29.0285204,47.3738214],[29.028471,47.3739426],[29.028489,47.3741026],[29.0289504,47.3754913],[29.0291527,47.3761677],[29.0294664,47.377083],[29.0295779,47.3774161],[29.0296796,47.3778975],[29.0275481,47.3779981],[29.024437,47.3781431],[29.0230198,47.3779847],[29.0217097,47.3779803],[29.0190919,47.3780451],[29.0174154,47.3780298],[29.0093306,47.3776371],[29.0058326,47.3775293],[29.004286,47.3774486],[29.0018765,47.3773497],[28.9985181,47.3772264],[28.9975999,47.3770483],[28.9907952,47.3766779],[28.9916979,47.3748135],[28.9927683,47.3727522],[28.9928343,47.3724832],[28.9933351,47.3720899],[28.9931786,47.3718334],[28.9933205,47.371062],[28.99334,47.3702537],[28.9928963,47.3694967],[28.9928681,47.3692639],[28.9929916,47.3689982],[28.9934602,47.3684327],[28.9944559,47.367331],[28.995554,47.365588],[28.9970631,47.3634403],[28.9972409,47.3627719],[28.9976136,47.3621994],[28.9984394,47.3623024],[29.0001702,47.3625089],[29.002086,47.3626816],[29.0032518,47.3626518],[29.0045201,47.3625619],[29.0051375,47.3626165],[29.0069495,47.3630224],[29.0089847,47.3641696],[29.0099047,47.3646064],[29.0113335,47.3651493],[29.0124866,47.3659074],[29.0155318,47.3674311],[29.0176852,47.3670047],[29.0176523,47.3662626],[29.0167538,47.3660924],[29.0164736,47.364886],[29.0161354,47.3642206],[29.0158961,47.3633739],[29.0154344,47.3617127],[29.015324,47.3613482],[29.0151197,47.3605503],[29.0178196,47.3604933],[29.0180774,47.3604856],[29.0194395,47.3604445],[29.0208178,47.3604031],[29.0208984,47.360405],[29.0218057,47.3603978],[29.0226391,47.360391],[29.0243055,47.3603775],[29.0246747,47.3603746],[29.0247666,47.3603739],[29.0248214,47.3603735],[29.0258191,47.3603819],[29.0270158,47.360392],[29.02813,47.3604014],[29.0282162,47.3604021],[29.0290594,47.3604207],[29.0299721,47.3604409],[29.0303714,47.3604498],[29.0305041,47.3604527],[29.0316267,47.3604465],[29.0332614,47.3604506],[29.0335923,47.3604671],[29.0338212,47.3604698],[29.0346872,47.3604798],[29.0355511,47.3604897],[29.0364087,47.3604996],[29.037248,47.3605093],[29.0380851,47.3605189],[29.0383099,47.3605215],[29.0383696,47.3605213],[29.0389876,47.36052],[29.0398428,47.3605181],[29.04013,47.3605175],[29.0404179,47.3605169],[29.0412866,47.3605149],[29.0418514,47.3605137],[29.0429953,47.3605319],[29.0430812,47.3605333],[29.0433385,47.3605374],[29.0435681,47.3605411],[29.0429505,47.361516],[29.0426976,47.3620829],[29.0426105,47.3624147],[29.0425869,47.362677],[29.0425947,47.363214],[29.0426891,47.3662427],[29.0427593,47.3682722],[29.0430246,47.3682747],[29.0463617,47.368554],[29.0474797,47.3686477],[29.0500915,47.3688753],[29.0501962,47.3688484],[29.0546903,47.3691966],[29.0549597,47.3693008],[29.0551748,47.369306],[29.0555034,47.3692276],[29.0557566,47.3692244],[29.0566418,47.3692958],[29.0569791,47.3692665],[29.0589487,47.3688392],[29.059559,47.3686846],[29.0606558,47.3684207],[29.0613962,47.368279],[29.0618806,47.3682261],[29.0625823,47.3681948],[29.0638172,47.3681426],[29.0648297,47.3680804],[29.0657273,47.3680252],[29.0659405,47.368019],[29.066101,47.3680143],[29.0664663,47.3680387],[29.0665981,47.3680475],[29.0674542,47.3681049],[29.0679557,47.3671771],[29.0680998,47.3669643],[29.0685623,47.3662808],[29.0692773,47.3653953],[29.0693211,47.3653475],[29.0693561,47.3653093],[29.0693992,47.365263],[29.0698043,47.3648288],[29.0699559,47.3646663],[29.0703077,47.3642891],[29.0706746,47.3638958],[29.0710589,47.3634838],[29.071207,47.363325],[29.0724359,47.3618677],[29.0725443,47.3617346],[29.0734749,47.3605925],[29.0734619,47.3605474],[29.077075,47.3568051],[29.0805676,47.3574405],[29.0843117,47.357508],[29.08854,47.3572896],[29.0922082,47.3568103],[29.0959423,47.3552449],[29.0987313,47.3532052],[29.1032289,47.3490898],[29.1070827,47.3445698],[29.113674,47.3352544],[29.1152141,47.33337],[29.1173201,47.3315446],[29.1227639,47.3280792]]]}},{"type":"Feature","properties":{"entity_id":"osm-r19090943","jurisdiction":"MD","display_name":"Marcăuți","display_type":"independent_village","admin_level":8,"tier":"local","legal_registry":"CUATM","legal_id":"3837","legal_type":"independent_village","parent_catalog_id":"osm-r1692123","osm_relation_id":19090943,"legal_identity_status":"reconciled","geometry_source":"OpenStreetMap","geometry_precision":"master_coordinate_fidelity"},"geometry":{"type":"Polygon","coordinates":[[[29.077075,47.3568051],[29.0734619,47.3605474],[29.0734749,47.3605925],[29.0725443,47.3617346],[29.0724359,47.3618677],[29.071207,47.363325],[29.0710589,47.3634838],[29.0706746,47.3638958],[29.0703077,47.3642891],[29.0699559,47.3646663],[29.0698043,47.3648288],[29.0693992,47.365263],[29.0693561,47.3653093],[29.0693211,47.3653475],[29.0692773,47.3653953],[29.0685623,47.3662808],[29.0680998,47.3669643],[29.0679557,47.3671771],[29.0674542,47.3681049],[29.0665981,47.3680475],[29.0664663,47.3680387],[29.066101,47.3680143],[29.0659405,47.368019],[29.0657273,47.3680252],[29.0648297,47.3680804],[29.0638172,47.3681426],[29.0625823,47.3681948],[29.0618806,47.3682261],[29.0613962,47.368279],[29.0606558,47.3684207],[29.059559,47.3686846],[29.0589487,47.3688392],[29.0569791,47.3692665],[29.0566418,47.3692958],[29.0557566,47.3692244],[29.0555034,47.3692276],[29.0551748,47.369306],[29.0549597,47.3693008],[29.0546903,47.3691966],[29.0501962,47.3688484],[29.0500915,47.3688753],[29.0474797,47.3686477],[29.0463617,47.368554],[29.0430246,47.3682747],[29.0427593,47.3682722],[29.0426891,47.3662427],[29.0425947,47.363214],[29.0425869,47.362677],[29.0426105,47.3624147],[29.0426976,47.3620829],[29.0429505,47.361516],[29.0435681,47.3605411],[29.0433385,47.3605374],[29.0430812,47.3605333],[29.0429953,47.3605319],[29.0418514,47.3605137],[29.0412866,47.3605149],[29.0404179,47.3605169],[29.04013,47.3605175],[29.0398428,47.3605181],[29.0389876,47.36052],[29.0383696,47.3605213],[29.0383099,47.3605215],[29.0380851,47.3605189],[29.037248,47.3605093],[29.0364087,47.3604996],[29.0355511,47.3604897],[29.0346872,47.3604798],[29.0338212,47.3604698],[29.0335923,47.3604671],[29.0332614,47.3604506],[29.0316267,47.3604465],[29.0305041,47.3604527],[29.0303714,47.3604498],[29.0299721,47.3604409],[29.0290594,47.3604207],[29.0282162,47.3604021],[29.02813,47.3604014],[29.0270158,47.360392],[29.0258191,47.3603819],[29.0248214,47.3603735],[29.0247666,47.3603739],[29.0246747,47.3603746],[29.0243055,47.3603775],[29.0226391,47.360391],[29.0218057,47.3603978],[29.0208984,47.360405],[29.0208178,47.3604031],[29.0194395,47.3604445],[29.0180774,47.3604856],[29.0178196,47.3604933],[29.0151197,47.3605503],[29.0148861,47.3602887],[29.0149526,47.3593863],[29.0149946,47.3583761],[29.0150543,47.3579012],[29.0151428,47.3561628],[29.0151727,47.3548132],[29.0152284,47.3541822],[29.0151623,47.3536675],[29.0151468,47.3523322],[29.0151422,47.3519398],[29.0150714,47.3512714],[29.0150792,47.3510334],[29.0151485,47.3506761],[29.0151154,47.3480734],[29.0152017,47.3470686],[29.0152162,47.3464997],[29.0152286,47.3464177],[29.0152597,47.3463377],[29.0153153,47.3462709],[29.0154849,47.3461199],[29.0179139,47.3448781],[29.0179539,47.3448735],[29.018934,47.344856],[29.0199143,47.3447959],[29.0200373,47.34482],[29.0200987,47.3451861],[29.0203873,47.3452063],[29.020525,47.3452159],[29.0207163,47.3452249],[29.0210458,47.3452405],[29.0213761,47.3452561],[29.0215837,47.3452659],[29.0217076,47.3452734],[29.0220396,47.3452935],[29.0223716,47.3453136],[29.0224471,47.3453182],[29.0225055,47.3453217],[29.0227789,47.3453371],[29.0234437,47.3453744],[29.0237767,47.3453931],[29.0238297,47.3453961],[29.0241099,47.3454122],[29.0244433,47.3454315],[29.0247226,47.3454475],[29.0247769,47.3454506],[29.0248675,47.3454559],[29.0249522,47.3454611],[29.0251953,47.3454785],[29.0254795,47.3454989],[29.0255283,47.345502],[29.0256794,47.3455118],[29.0260115,47.3455333],[29.0261596,47.3455429],[29.0263437,47.3455575],[29.0264943,47.3455694],[29.0267177,47.3455872],[29.0268248,47.3455954],[29.0271542,47.3456207],[29.0274307,47.3456419],[29.0274823,47.3456443],[29.0278099,47.3456594],[29.0278844,47.3456629],[29.0282565,47.3456801],[29.0283961,47.3456799],[29.028406,47.3456801],[29.0285213,47.3456816],[29.0286366,47.3456832],[29.0287517,47.3456847],[29.0289815,47.3456878],[29.029096,47.3456893],[29.0292106,47.3456908],[29.029325,47.3456923],[29.0294393,47.3456938],[29.0295557,47.3456954],[29.02963,47.3456964],[29.0296711,47.3456925],[29.0297891,47.3456812],[29.0299072,47.34567],[29.0300254,47.3456586],[29.0301438,47.3456474],[29.0302598,47.3456834],[29.0307858,47.3456596],[29.0314256,47.345626],[29.032289,47.3455912],[29.0337245,47.3455796],[29.0354471,47.3454964],[29.036712,47.3454356],[29.0392174,47.3454172],[29.0416743,47.3453643],[29.0441212,47.3452668],[29.0466884,47.3451468],[29.0475603,47.3450454],[29.0479694,47.3450472],[29.048,47.3450393],[29.0481131,47.34501],[29.0481224,47.3450079],[29.0482508,47.3449765],[29.0483866,47.3449434],[29.0485312,47.3449082],[29.0486867,47.3448703],[29.0488554,47.3448291],[29.0490423,47.3447836],[29.0491422,47.3447592],[29.0492542,47.3447326],[29.0495043,47.3446733],[29.0496272,47.344644],[29.0498287,47.3445932],[29.0504444,47.3444378],[29.0506088,47.3443963],[29.0508683,47.3443309],[29.0510121,47.3442945],[29.0511668,47.3442555],[29.0513331,47.3442135],[29.0522418,47.3439698],[29.0523558,47.343943],[29.0524695,47.3439161],[29.0525837,47.3438892],[29.0526879,47.3438648],[29.0526979,47.3438622],[29.0528116,47.3438335],[29.0529258,47.3438047],[29.0530403,47.3437759],[29.0531554,47.3437469],[29.0532707,47.3437178],[29.0533865,47.3436885],[29.0535035,47.3436591],[29.0536215,47.3436293],[29.0536341,47.3436261],[29.0537404,47.3435992],[29.0538605,47.3435688],[29.0539818,47.3435381],[29.054104,47.3435072],[29.0542272,47.3434761],[29.0543509,47.3434447],[29.0544754,47.3434132],[29.0546006,47.3433815],[29.0546468,47.3433698],[29.0547265,47.3433502],[29.054853,47.343319],[29.0549803,47.3432876],[29.0551082,47.3432561],[29.055237,47.3432244],[29.0553686,47.343192],[29.0555032,47.3431588],[29.0556053,47.3431337],[29.0557834,47.3430895],[29.0559295,47.3430531],[29.0560802,47.3430156],[29.056236,47.3429769],[29.0563946,47.3429375],[29.0565526,47.3428981],[29.0565538,47.3428978],[29.0567098,47.3428568],[29.0568672,47.3428154],[29.057025,47.3427737],[29.057183,47.3427321],[29.0573414,47.3426903],[29.0575018,47.3426481],[29.0576776,47.3426019],[29.0578805,47.3425484],[29.0579554,47.3425286],[29.0581687,47.3424753],[29.0652041,47.3410247],[29.0698134,47.3400741],[29.073086,47.3410012],[29.0719521,47.344017],[29.0705788,47.3502977],[29.0704049,47.351605],[29.0707482,47.3528122],[29.0719521,47.3546008],[29.072715,47.3550028],[29.075042,47.3562289],[29.077075,47.3568051]]]}}]}