{"type":"FeatureCollection","metadata":{"schema_version":1,"contract":"actual-public-geometry-chunk-v1","mode":"ACTUAL","jurisdiction":"MD","tier":"local","root_entity_id":"osm-r1693874","feature_count":19,"geometry_source":"OpenStreetMap","geometry_precision":"master_coordinate_fidelity"},"features":[{"type":"Feature","properties":{"entity_id":"osm-r5736380","jurisdiction":"MD","display_name":"Glodeni","display_type":"town","admin_level":8,"tier":"local","legal_registry":"CUATM","legal_id":"4801","legal_type":"town","parent_catalog_id":"osm-r1693874","osm_relation_id":5736380,"legal_identity_status":"reconciled","geometry_source":"OpenStreetMap","geometry_precision":"master_coordinate_fidelity"},"geometry":{"type":"Polygon","coordinates":[[[27.4725743,47.7395105],[27.4812007,47.7360152],[27.4859948,47.7339838],[27.4901964,47.7319734],[27.5077982,47.7246643],[27.5091797,47.7262072],[27.5115404,47.72684],[27.5116606,47.7270133],[27.5119782,47.727123],[27.5130513,47.7268631],[27.5135921,47.726892],[27.5142874,47.7270826],[27.5150257,47.7270421],[27.5153863,47.7274521],[27.515764,47.7281797],[27.5170001,47.7287802],[27.5171927,47.7291302],[27.5171524,47.7293377],[27.5178499,47.7300505],[27.5177158,47.7334607],[27.5179572,47.7338577],[27.5183596,47.7341915],[27.5073643,47.7389681],[27.5232141,47.7562225],[27.5396312,47.7644502],[27.5531803,47.7716311],[27.5565146,47.7740824],[27.5581928,47.7742112],[27.5594285,47.7784863],[27.5585869,47.7796635],[27.5563383,47.7831601],[27.5562239,47.7833468],[27.5561276,47.7834723],[27.5561136,47.783497],[27.5559764,47.783739],[27.5556966,47.7841177],[27.5553243,47.7845288],[27.5548539,47.7851494],[27.5545613,47.7855354],[27.5544319,47.7856971],[27.5543239,47.7858679],[27.5541994,47.7860069],[27.5540749,47.7861892],[27.5540295,47.7862465],[27.5538657,47.7864427],[27.5538287,47.7865349],[27.5537847,47.7865918],[27.5537327,47.7866487],[27.553585,47.7868417],[27.5534346,47.7870428],[27.5533054,47.7872239],[27.5531575,47.7874122],[27.5531085,47.7875131],[27.5530533,47.7876319],[27.5529166,47.7878052],[27.5528282,47.7879524],[27.5526688,47.7881237],[27.5525457,47.7882985],[27.5523793,47.7885776],[27.5521674,47.7888549],[27.5520312,47.7890432],[27.5518589,47.7892288],[27.5517692,47.7893266],[27.5516232,47.7894902],[27.5512877,47.7898644],[27.5468684,47.7940999],[27.5459029,47.7949928],[27.540641,47.8001693],[27.5279662,47.8134251],[27.5211286,47.8200397],[27.5075581,47.8073728],[27.5144585,47.8034845],[27.5145529,47.8034313],[27.5138063,47.8029797],[27.5095491,47.8004046],[27.5019128,47.792644],[27.5015478,47.7922358],[27.5012335,47.7920619],[27.4984827,47.7913402],[27.49733,47.790337],[27.4959906,47.7850794],[27.4959047,47.7847973],[27.4936871,47.7772686],[27.4930048,47.7749555],[27.4928825,47.7748743],[27.4903855,47.775452],[27.4879516,47.7700326],[27.4866521,47.7674374],[27.4827702,47.7598412],[27.4785289,47.751525],[27.4725743,47.7395105]]]}},{"type":"Feature","properties":{"entity_id":"osm-r10628686","jurisdiction":"MD","display_name":"Cuhnești","display_type":"commune","admin_level":8,"tier":"local","legal_registry":"CUATM","legal_id":"4823","legal_type":"commune","parent_catalog_id":"osm-r1693874","osm_relation_id":10628686,"legal_identity_status":"reconciled","geometry_source":"OpenStreetMap","geometry_precision":"master_coordinate_fidelity"},"geometry":{"type":"Polygon","coordinates":[[[27.4483744,47.6958715],[27.4480933,47.6960956],[27.4473609,47.6966872],[27.4471292,47.6968642],[27.4443407,47.7007411],[27.4442579,47.7008561],[27.4442789,47.7012651],[27.4448029,47.7016318],[27.4449013,47.7026582],[27.4449286,47.7029435],[27.4393747,47.7030846],[27.439228,47.7115183],[27.432448,47.7114936],[27.4256153,47.7115249],[27.4284423,47.7063149],[27.4322776,47.703071],[27.4322173,47.703038],[27.430844,47.7022871],[27.4279183,47.7006873],[27.4219872,47.7008143],[27.4152249,47.708263],[27.4147566,47.7087265],[27.4146066,47.7086464],[27.4070299,47.7048447],[27.405836,47.704223],[27.4028751,47.7027864],[27.401699,47.7022157],[27.3999575,47.7012952],[27.3975723,47.7000345],[27.3963589,47.6994495],[27.39031,47.6968128],[27.3900946,47.6968263],[27.389221,47.6964571],[27.3881067,47.6961523],[27.3862588,47.6956725],[27.3831029,47.6957114],[27.3861418,47.6935778],[27.3746383,47.6831854],[27.3743412,47.6829284],[27.372912,47.6816385],[27.3720717,47.6809943],[27.371667,47.6806839],[27.3709645,47.6801454],[27.3702709,47.6796136],[27.3696532,47.67914],[27.3660757,47.676397],[27.3655504,47.6759942],[27.3640331,47.6746873],[27.3634978,47.6742261],[27.3626424,47.6734893],[27.3530803,47.6669796],[27.3382042,47.657613],[27.3373846,47.6569739],[27.336526,47.6563682],[27.3354489,47.6554948],[27.3336635,47.6540503],[27.332366,47.6527996],[27.3305263,47.6514327],[27.3262164,47.6478009],[27.3252881,47.6469829],[27.3208623,47.6433864],[27.3179557,47.6409432],[27.3199516,47.6400378],[27.3219012,47.6391383],[27.3236016,47.637768],[27.3255691,47.6355322],[27.3260549,47.6351873],[27.3279128,47.6338682],[27.3283961,47.6329634],[27.3287267,47.632015],[27.3305578,47.6300632],[27.3315698,47.6289443],[27.3332679,47.6276613],[27.3391244,47.6253677],[27.3453516,47.6239098],[27.349239,47.6230442],[27.3528948,47.622649],[27.3550943,47.6221423],[27.3589395,47.6209199],[27.3603696,47.6197362],[27.3618123,47.6187065],[27.3627676,47.61761],[27.3636775,47.6159196],[27.3641996,47.6141193],[27.3634947,47.6128156],[27.3650882,47.613785],[27.3709827,47.6193919],[27.3755667,47.6240885],[27.3746236,47.6247948],[27.3770129,47.625388],[27.380974,47.6269277],[27.3851866,47.6314898],[27.3889381,47.6329304],[27.3896926,47.6329869],[27.3903632,47.6337072],[27.3908034,47.6347805],[27.3907195,47.6361645],[27.3910549,47.6368989],[27.3918042,47.6376888],[27.3923543,47.6382687],[27.3940728,47.6387347],[27.3947645,47.6385794],[27.3954142,47.6381134],[27.3958333,47.6374073],[27.396504,47.6373084],[27.3969022,47.6367436],[27.3975938,47.6365882],[27.3984741,47.6352466],[27.3995639,47.6350771],[27.4027915,47.6342297],[27.4041747,47.6334247],[27.404531,47.6335801],[27.4083189,47.6360122],[27.4077327,47.6368192],[27.412332,47.6394247],[27.4102391,47.6407644],[27.4066013,47.6430929],[27.4217878,47.653434],[27.4289922,47.6488842],[27.4290292,47.6489894],[27.4324715,47.6587831],[27.4348616,47.6626581],[27.4411433,47.6728408],[27.4419481,47.6728069],[27.446706,47.6721379],[27.4480814,47.6753131],[27.4487691,47.6755336],[27.4494895,47.6768566],[27.4497515,47.6783559],[27.450472,47.6793701],[27.4498498,47.6796568],[27.4511269,47.6827875],[27.4540004,47.6811056],[27.4600669,47.6848598],[27.4627474,47.6855067],[27.4652737,47.6861164],[27.4488632,47.6955875],[27.4483744,47.6958715]]]}},{"type":"Feature","properties":{"entity_id":"osm-r10628687","jurisdiction":"MD","display_name":"Viișoara","display_type":"commune","admin_level":8,"tier":"local","legal_registry":"CUATM","legal_id":"4842","legal_type":"commune","parent_catalog_id":"osm-r1693874","osm_relation_id":10628687,"legal_identity_status":"reconciled","geometry_source":"OpenStreetMap","geometry_precision":"master_coordinate_fidelity"},"geometry":{"type":"Polygon","coordinates":[[[27.4867638,47.6244579],[27.4857421,47.6249729],[27.4774273,47.6323499],[27.4702639,47.6283499],[27.4697562,47.6285772],[27.4495781,47.6376104],[27.449512,47.6378066],[27.4491367,47.6389213],[27.4478098,47.6428618],[27.45115,47.6437222],[27.4499383,47.6453549],[27.4486284,47.6452225],[27.4481372,47.6459505],[27.4493489,47.6462153],[27.4484647,47.6476934],[27.4471876,47.6475831],[27.4452882,47.6481567],[27.4456157,47.6484656],[27.4430232,47.6487129],[27.4464207,47.6564336],[27.4425192,47.6587637],[27.4437558,47.6594837],[27.4433028,47.6603526],[27.4432197,47.6607003],[27.4439253,47.6607743],[27.4445917,47.6616637],[27.4442879,47.6623633],[27.4445941,47.6632384],[27.4450552,47.6639724],[27.4448982,47.6644827],[27.4449843,47.6646568],[27.4458225,47.6645168],[27.4456136,47.6653055],[27.446112,47.6662307],[27.4461095,47.666975],[27.4465327,47.6673231],[27.4459356,47.6681843],[27.4462878,47.6690958],[27.4461881,47.6696456],[27.4466837,47.6707506],[27.4474025,47.6716362],[27.446706,47.6721379],[27.4419481,47.6728069],[27.4411433,47.6728408],[27.4348616,47.6626581],[27.4324715,47.6587831],[27.4290292,47.6489894],[27.4289922,47.6488842],[27.4217878,47.653434],[27.4066013,47.6430929],[27.4102391,47.6407644],[27.412332,47.6394247],[27.4077327,47.6368192],[27.4083189,47.6360122],[27.404531,47.6335801],[27.4041747,47.6334247],[27.4027915,47.6342297],[27.3995639,47.6350771],[27.3984741,47.6352466],[27.3975938,47.6365882],[27.3969022,47.6367436],[27.396504,47.6373084],[27.3958333,47.6374073],[27.3954142,47.6381134],[27.3947645,47.6385794],[27.3940728,47.6387347],[27.3923543,47.6382687],[27.3918042,47.6376888],[27.3910549,47.6368989],[27.3907195,47.6361645],[27.3908034,47.6347805],[27.3903632,47.6337072],[27.3896926,47.6329869],[27.3889381,47.6329304],[27.3851866,47.6314898],[27.380974,47.6269277],[27.3770129,47.625388],[27.3746236,47.6247948],[27.3755667,47.6240885],[27.3709827,47.6193919],[27.3650882,47.613785],[27.3634947,47.6128156],[27.3635178,47.6113848],[27.3664739,47.6075774],[27.3678739,47.6058791],[27.3690792,47.6042164],[27.3700161,47.6025826],[27.3715688,47.6020924],[27.3725509,47.6018498],[27.3740724,47.601366],[27.3746644,47.6009445],[27.3746671,47.6003326],[27.3742373,47.5999736],[27.3728806,47.5996297],[27.3718752,47.599353],[27.3715103,47.5989048],[27.3718483,47.5981281],[27.3727625,47.5973719],[27.3737407,47.5967213],[27.3777027,47.5947397],[27.3814573,47.5929685],[27.3876494,47.59115],[27.3912556,47.5894225],[27.3940002,47.5883678],[27.3969837,47.5871732],[27.399026,47.5860795],[27.4001736,47.5851114],[27.4009171,47.5845705],[27.4015669,47.584903],[27.404437,47.5862887],[27.4069738,47.5874734],[27.4257912,47.5957272],[27.4258265,47.5973898],[27.42757,47.5986487],[27.4297686,47.5986336],[27.4319012,47.5991671],[27.4321076,47.5996774],[27.4333427,47.5998003],[27.4342058,47.5998861],[27.4378862,47.6016952],[27.4416698,47.6032027],[27.4556348,47.6094875],[27.4566324,47.6100575],[27.4576439,47.6106278],[27.4592175,47.6115209],[27.4597476,47.6117649],[27.4650673,47.614213],[27.4651283,47.6142411],[27.4867638,47.6244579]]]}},{"type":"Feature","properties":{"entity_id":"osm-r10628688","jurisdiction":"MD","display_name":"Dușmani","display_type":"independent_village","admin_level":8,"tier":"local","legal_registry":"CUATM","legal_id":"4830","legal_type":"independent_village","parent_catalog_id":"osm-r1693874","osm_relation_id":10628688,"legal_identity_status":"reconciled","geometry_source":"OpenStreetMap","geometry_precision":"master_coordinate_fidelity"},"geometry":{"type":"Polygon","coordinates":[[[27.5436954,47.7069035],[27.5437469,47.7070135],[27.5453983,47.7105394],[27.5497503,47.7141044],[27.5471377,47.7168958],[27.5441188,47.7205103],[27.5421842,47.7222902],[27.5406394,47.7237115],[27.5355738,47.7265339],[27.53409,47.7251227],[27.527387,47.7279795],[27.5214516,47.7312835],[27.5181987,47.7318098],[27.5180243,47.7299873],[27.5174878,47.7289859],[27.5171927,47.7291302],[27.5170001,47.7287802],[27.515764,47.7281797],[27.5153863,47.7274521],[27.5150257,47.7270421],[27.5142874,47.7270826],[27.5135921,47.726892],[27.5130513,47.7268631],[27.5119782,47.727123],[27.5116606,47.7270133],[27.5115404,47.72684],[27.5091797,47.7262072],[27.5077982,47.7246643],[27.4901964,47.7319734],[27.4859948,47.7339838],[27.4812007,47.7360152],[27.4725743,47.7395105],[27.4662584,47.7421625],[27.46542,47.7422752],[27.4652733,47.741782],[27.4593841,47.7365811],[27.4582169,47.7358008],[27.4580859,47.7346996],[27.4564953,47.7306505],[27.456371,47.730334],[27.4551599,47.7272507],[27.4550404,47.7269464],[27.4543855,47.7172092],[27.4539598,47.708043],[27.4517002,47.7010131],[27.4487124,47.696118],[27.4483744,47.6958715],[27.4488632,47.6955875],[27.4652737,47.6861164],[27.4680899,47.6846393],[27.470022,47.6839339],[27.4709491,47.68343],[27.4735915,47.6819938],[27.4760148,47.6822142],[27.4793877,47.6830741],[27.4875745,47.6892247],[27.4899323,47.6908559],[27.4919615,47.6916822],[27.4925848,47.691936],[27.5005097,47.6942284],[27.5086345,47.6923999],[27.5111852,47.6918258],[27.5141179,47.6942528],[27.5151804,47.6951321],[27.5158231,47.6959523],[27.5183241,47.6991434],[27.5206164,47.7012812],[27.5236333,47.6995322],[27.5262269,47.6980354],[27.5265025,47.6978764],[27.5266747,47.697777],[27.5415026,47.7084433],[27.5436954,47.7069035]]]}},{"type":"Feature","properties":{"entity_id":"osm-r10628689","jurisdiction":"MD","display_name":"Ciuciulea","display_type":"independent_village","admin_level":8,"tier":"local","legal_registry":"CUATM","legal_id":"4821","legal_type":"independent_village","parent_catalog_id":"osm-r1693874","osm_relation_id":10628689,"legal_identity_status":"reconciled","geometry_source":"OpenStreetMap","geometry_precision":"master_coordinate_fidelity"},"geometry":{"type":"Polygon","coordinates":[[[27.446706,47.6721379],[27.4474025,47.6716362],[27.4466837,47.6707506],[27.4461881,47.6696456],[27.4462878,47.6690958],[27.4459356,47.6681843],[27.4465327,47.6673231],[27.4461095,47.666975],[27.446112,47.6662307],[27.4456136,47.6653055],[27.4458225,47.6645168],[27.4449843,47.6646568],[27.4448982,47.6644827],[27.4450552,47.6639724],[27.4445941,47.6632384],[27.4442879,47.6623633],[27.4445917,47.6616637],[27.4439253,47.6607743],[27.4432197,47.6607003],[27.4433028,47.6603526],[27.4437558,47.6594837],[27.4425192,47.6587637],[27.4464207,47.6564336],[27.4430232,47.6487129],[27.4456157,47.6484656],[27.4452882,47.6481567],[27.4471876,47.6475831],[27.4484647,47.6476934],[27.4493489,47.6462153],[27.4481372,47.6459505],[27.4486284,47.6452225],[27.4499383,47.6453549],[27.45115,47.6437222],[27.4478098,47.6428618],[27.4491367,47.6389213],[27.449512,47.6378066],[27.4495781,47.6376104],[27.4697562,47.6285772],[27.4702639,47.6283499],[27.4774273,47.6323499],[27.4857421,47.6249729],[27.4867638,47.6244579],[27.486555,47.6243378],[27.4871502,47.6246188],[27.488945,47.6254663],[27.4912582,47.6265585],[27.4919947,47.6269063],[27.4946092,47.6281407],[27.5038619,47.6321973],[27.5160529,47.638099],[27.5178581,47.638811],[27.5233273,47.6377541],[27.531711,47.636134],[27.5335742,47.6404693],[27.5354868,47.6449194],[27.5415226,47.6437749],[27.5430958,47.6475562],[27.5438399,47.6498047],[27.5425916,47.6504329],[27.5587482,47.6648638],[27.5624159,47.667841],[27.5477191,47.6776912],[27.5457558,47.6788795],[27.5456442,47.678947],[27.5466254,47.6797505],[27.550964,47.6833032],[27.549429,47.6843659],[27.5435304,47.6879548],[27.557089,47.6985952],[27.5555827,47.7008432],[27.5552552,47.7032454],[27.5549932,47.7042371],[27.5544038,47.7047439],[27.553978,47.7046778],[27.5532249,47.7049422],[27.5526354,47.7060882],[27.5493607,47.7063306],[27.5472649,47.7060661],[27.545551,47.7062697],[27.5451529,47.706317],[27.5450381,47.7063306],[27.5436954,47.7069035],[27.5415026,47.7084433],[27.5266747,47.697777],[27.5265025,47.6978764],[27.5262269,47.6980354],[27.5236333,47.6995322],[27.5206164,47.7012812],[27.5183241,47.6991434],[27.5158231,47.6959523],[27.5151804,47.6951321],[27.5141179,47.6942528],[27.5111852,47.6918258],[27.5086345,47.6923999],[27.5005097,47.6942284],[27.4925848,47.691936],[27.4919615,47.6916822],[27.4899323,47.6908559],[27.4875745,47.6892247],[27.4793877,47.6830741],[27.4760148,47.6822142],[27.4735915,47.6819938],[27.4709491,47.68343],[27.470022,47.6839339],[27.4680899,47.6846393],[27.4652737,47.6861164],[27.4627474,47.6855067],[27.4600669,47.6848598],[27.4540004,47.6811056],[27.4511269,47.6827875],[27.4498498,47.6796568],[27.450472,47.6793701],[27.4497515,47.6783559],[27.4494895,47.6768566],[27.4487691,47.6755336],[27.4480814,47.6753131],[27.446706,47.6721379]]]}},{"type":"Feature","properties":{"entity_id":"osm-r10628690","jurisdiction":"MD","display_name":"Ustia","display_type":"independent_village","admin_level":8,"tier":"local","legal_registry":"CUATM","legal_id":"4841","legal_type":"independent_village","parent_catalog_id":"osm-r1693874","osm_relation_id":10628690,"legal_identity_status":"reconciled","geometry_source":"OpenStreetMap","geometry_precision":"master_coordinate_fidelity"},"geometry":{"type":"Polygon","coordinates":[[[27.6227632,47.668727],[27.6204653,47.6668176],[27.6190326,47.6685543],[27.5995059,47.6804565],[27.571596,47.6991021],[27.5679611,47.6961707],[27.5628476,47.6981882],[27.5615829,47.6986872],[27.5584644,47.6999175],[27.557089,47.6985952],[27.5435304,47.6879548],[27.549429,47.6843659],[27.550964,47.6833032],[27.5466254,47.6797505],[27.5456442,47.678947],[27.5457558,47.6788795],[27.5477191,47.6776912],[27.5624159,47.667841],[27.5587482,47.6648638],[27.5425916,47.6504329],[27.5438399,47.6498047],[27.5566287,47.642893],[27.5634737,47.6417322],[27.5820585,47.6387198],[27.5846365,47.638302],[27.5900577,47.6374232],[27.5894699,47.6359343],[27.5943814,47.6321772],[27.6020457,47.6369513],[27.6092905,47.6319361],[27.6330646,47.6476096],[27.6362499,47.6497092],[27.6340278,47.6512737],[27.6222649,47.6595546],[27.6260186,47.6621499],[27.6226303,47.6643423],[27.6232282,47.665103],[27.6232938,47.66815],[27.6232947,47.6681901],[27.6227632,47.668727]]]}},{"type":"Feature","properties":{"entity_id":"osm-r10628691","jurisdiction":"MD","display_name":"Limbenii Vechi","display_type":"independent_village","admin_level":8,"tier":"local","legal_registry":"CUATM","legal_id":"4837","legal_type":"independent_village","parent_catalog_id":"osm-r1693874","osm_relation_id":10628691,"legal_identity_status":"reconciled","geometry_source":"OpenStreetMap","geometry_precision":"master_coordinate_fidelity"},"geometry":{"type":"Polygon","coordinates":[[[27.5497503,47.7141044],[27.5453983,47.7105394],[27.5437469,47.7070135],[27.5436954,47.7069035],[27.5450381,47.7063306],[27.5451529,47.706317],[27.545551,47.7062697],[27.5472649,47.7060661],[27.5493607,47.7063306],[27.5526354,47.7060882],[27.5532249,47.7049422],[27.553978,47.7046778],[27.5544038,47.7047439],[27.5549932,47.7042371],[27.5552552,47.7032454],[27.5555827,47.7008432],[27.557089,47.6985952],[27.5584644,47.6999175],[27.5615829,47.6986872],[27.5628476,47.6981882],[27.5679611,47.6961707],[27.571596,47.6991021],[27.5995059,47.6804565],[27.6190326,47.6685543],[27.6204653,47.6668176],[27.6227632,47.668727],[27.6241583,47.6701587],[27.6282079,47.6761767],[27.634568,47.6856112],[27.6350783,47.6862839],[27.6363326,47.6862409],[27.6369279,47.6864842],[27.6373956,47.6877007],[27.6387137,47.6880442],[27.6386287,47.6886453],[27.6402869,47.6907633],[27.6392877,47.6921085],[27.635314,47.6953705],[27.6244125,47.7046135],[27.6223729,47.7063427],[27.6217023,47.7065965],[27.6202562,47.7081902],[27.6177903,47.7099222],[27.5947877,47.7267939],[27.5882218,47.7316252],[27.5859037,47.7322033],[27.5832691,47.7347812],[27.5806355,47.7374057],[27.5758558,47.7338248],[27.5742499,47.7326104],[27.5741408,47.7325501],[27.5600657,47.7218706],[27.5592879,47.7209893],[27.557405,47.7199704],[27.5501837,47.7144365],[27.5497503,47.7141044]]]}},{"type":"Feature","properties":{"entity_id":"osm-r10628692","jurisdiction":"MD","display_name":"Limbenii Noi","display_type":"independent_village","admin_level":8,"tier":"local","legal_registry":"CUATM","legal_id":"4836","legal_type":"independent_village","parent_catalog_id":"osm-r1693874","osm_relation_id":10628692,"legal_identity_status":"reconciled","geometry_source":"OpenStreetMap","geometry_precision":"master_coordinate_fidelity"},"geometry":{"type":"Polygon","coordinates":[[[27.6114921,47.7615106],[27.6103813,47.7608333],[27.604825,47.7567656],[27.6009524,47.754228],[27.594011,47.749144],[27.5878745,47.7439692],[27.583861,47.7405311],[27.5806355,47.7374057],[27.5832691,47.7347812],[27.5859037,47.7322033],[27.5882218,47.7316252],[27.5947877,47.7267939],[27.6177903,47.7099222],[27.6202562,47.7081902],[27.6217023,47.7065965],[27.6223729,47.7063427],[27.6244125,47.7046135],[27.635314,47.6953705],[27.6392877,47.6921085],[27.6393982,47.6922413],[27.639719,47.6926269],[27.6404669,47.6935258],[27.6407759,47.6938972],[27.645431,47.698012],[27.6504004,47.704379],[27.6505333,47.7054877],[27.6517292,47.7060779],[27.6556357,47.7109597],[27.6593798,47.7146808],[27.6500593,47.7200463],[27.6462239,47.7228239],[27.6485008,47.7241475],[27.6479857,47.7264212],[27.6460328,47.7264284],[27.6459348,47.726518],[27.6442944,47.7280164],[27.6436613,47.7286083],[27.6422763,47.7293026],[27.6425119,47.7296905],[27.6431167,47.7301871],[27.6437531,47.7305253],[27.644059,47.7306507],[27.6445766,47.7307824],[27.6389482,47.7435214],[27.6375801,47.7440175],[27.6361261,47.7452387],[27.6355767,47.7462027],[27.6348298,47.7465432],[27.6345379,47.7468896],[27.6341295,47.7471775],[27.6295806,47.7503845],[27.624511,47.7541335],[27.6236005,47.754911],[27.6226968,47.7555185],[27.6217062,47.7560867],[27.6208372,47.7565482],[27.6114921,47.7615106]]]}},{"type":"Feature","properties":{"entity_id":"osm-r10628693","jurisdiction":"MD","display_name":"Fundurii Noi","display_type":"independent_village","admin_level":8,"tier":"local","legal_registry":"CUATM","legal_id":"4831","legal_type":"independent_village","parent_catalog_id":"osm-r1693874","osm_relation_id":10628693,"legal_identity_status":"reconciled","geometry_source":"OpenStreetMap","geometry_precision":"master_coordinate_fidelity"},"geometry":{"type":"Polygon","coordinates":[[[27.6535365,47.7806163],[27.6498556,47.7779598],[27.6471729,47.7762922],[27.6503725,47.7730722],[27.648029,47.7718029],[27.6475826,47.7714106],[27.646913,47.7710413],[27.6462692,47.7708047],[27.6440887,47.7689238],[27.6427941,47.7675289],[27.6395517,47.7647592],[27.6351863,47.7659531],[27.6262816,47.7720255],[27.6252857,47.7721489],[27.6240785,47.77159],[27.623778,47.7716776],[27.6234175,47.7719545],[27.6221041,47.7725776],[27.6207906,47.7722026],[27.6206189,47.7719257],[27.6203528,47.771718],[27.6192609,47.7711569],[27.6188208,47.7706217],[27.6188428,47.769898],[27.6198214,47.7686748],[27.6198829,47.7674454],[27.6208721,47.7667805],[27.6183167,47.7653075],[27.6114921,47.7615106],[27.6208372,47.7565482],[27.6217062,47.7560867],[27.6226968,47.7555185],[27.6236005,47.754911],[27.624511,47.7541335],[27.6295806,47.7503845],[27.6341295,47.7471775],[27.6345379,47.7468896],[27.6348298,47.7465432],[27.6355767,47.7462027],[27.6361261,47.7452387],[27.6375801,47.7440175],[27.6389482,47.7435214],[27.6445766,47.7307824],[27.644059,47.7306507],[27.6437531,47.7305253],[27.6431167,47.7301871],[27.6425119,47.7296905],[27.6422763,47.7293026],[27.6436613,47.7286083],[27.6442944,47.7280164],[27.6459348,47.726518],[27.6460328,47.7264284],[27.6479857,47.7264212],[27.6485008,47.7241475],[27.6462239,47.7228239],[27.6500593,47.7200463],[27.6593798,47.7146808],[27.661429,47.7167172],[27.6687802,47.7235533],[27.6694145,47.7240955],[27.6748946,47.7287396],[27.6752504,47.7290713],[27.6763646,47.7300364],[27.6741998,47.7322316],[27.6700707,47.7364185],[27.6803684,47.7412162],[27.6883319,47.7446695],[27.6875463,47.7457117],[27.680943,47.7525785],[27.6801222,47.7534552],[27.6790244,47.7546278],[27.6787073,47.7549665],[27.6749555,47.7589735],[27.6725138,47.7620993],[27.6672991,47.7682367],[27.6673854,47.7688898],[27.666156,47.7698319],[27.6611412,47.7751567],[27.6610566,47.7754768],[27.6589589,47.77678],[27.6588965,47.7768187],[27.6581412,47.7770816],[27.6572298,47.7775211],[27.6566384,47.7779559],[27.6563184,47.7783159],[27.6556889,47.7796228],[27.655265,47.7799004],[27.6535365,47.7806163]]]}},{"type":"Feature","properties":{"entity_id":"osm-r10628694","jurisdiction":"MD","display_name":"Fundurii Vechi","display_type":"independent_village","admin_level":8,"tier":"local","legal_registry":"CUATM","legal_id":"4832","legal_type":"independent_village","parent_catalog_id":"osm-r1693874","osm_relation_id":10628694,"legal_identity_status":"reconciled","geometry_source":"OpenStreetMap","geometry_precision":"master_coordinate_fidelity"},"geometry":{"type":"Polygon","coordinates":[[[27.6732027,47.7910042],[27.6621729,47.7864154],[27.6621188,47.7863929],[27.6616771,47.7863967],[27.657913,47.7835627],[27.6570425,47.7830776],[27.6563723,47.7826071],[27.6535365,47.7806163],[27.655265,47.7799004],[27.6556889,47.7796228],[27.6563184,47.7783159],[27.6566384,47.7779559],[27.6572298,47.7775211],[27.6581412,47.7770816],[27.6588965,47.7768187],[27.6589589,47.77678],[27.6610566,47.7754768],[27.6611412,47.7751567],[27.666156,47.7698319],[27.6673854,47.7688898],[27.6672991,47.7682367],[27.6725138,47.7620993],[27.6749555,47.7589735],[27.6787073,47.7549665],[27.6790244,47.7546278],[27.6801222,47.7534552],[27.680943,47.7525785],[27.6875463,47.7457117],[27.6883319,47.7446695],[27.6803684,47.7412162],[27.6700707,47.7364185],[27.6741998,47.7322316],[27.6763646,47.7300364],[27.6799879,47.7331332],[27.6825391,47.7308453],[27.6865844,47.726677],[27.6957474,47.7176238],[27.6924308,47.7155784],[27.6927285,47.715278],[27.6990542,47.7122784],[27.7049644,47.7096891],[27.7061975,47.7093029],[27.7074943,47.7092171],[27.7102156,47.709446],[27.7151904,47.7101898],[27.7270959,47.7120638],[27.7294132,47.7120781],[27.7304549,47.7134657],[27.7341636,47.7167057],[27.7382795,47.7199668],[27.739368,47.7205618],[27.741341,47.719635],[27.7423954,47.7196922],[27.7424635,47.7200011],[27.7458751,47.7198888],[27.7494627,47.7236208],[27.7548257,47.7325589],[27.7615332,47.743981],[27.7623706,47.7478956],[27.7625766,47.748859],[27.76419,47.7564003],[27.7424544,47.7609064],[27.7381266,47.7618304],[27.7316586,47.763264],[27.7310136,47.7633928],[27.7301051,47.7635116],[27.7290652,47.7636475],[27.7290883,47.76375],[27.7289033,47.7638917],[27.7287154,47.7637519],[27.7284507,47.7637572],[27.7267246,47.7640972],[27.725113,47.7644488],[27.7244479,47.7646717],[27.7200795,47.7654395],[27.7198693,47.7651977],[27.7196944,47.7652132],[27.719186,47.7652883],[27.7190766,47.7652546],[27.7189307,47.7650922],[27.7187688,47.7646401],[27.718086,47.7642405],[27.7173393,47.7637146],[27.7157831,47.7622268],[27.7145072,47.7615314],[27.710404,47.7629045],[27.7093613,47.7632403],[27.7090726,47.7633472],[27.7088975,47.7633717],[27.7087589,47.7633701],[27.7086083,47.7633263],[27.708411,47.7632371],[27.7080228,47.7629465],[27.7072987,47.7623814],[27.7059783,47.7613565],[27.7037548,47.7598037],[27.7033431,47.7596137],[27.7030577,47.7596593],[27.7006933,47.7621896],[27.6957345,47.7673912],[27.6951132,47.7681656],[27.6932134,47.7701557],[27.6875511,47.7760867],[27.6811861,47.7827529],[27.6732027,47.7910042]]]}},{"type":"Feature","properties":{"entity_id":"osm-r10628695","jurisdiction":"MD","display_name":"Sturzovca","display_type":"independent_village","admin_level":8,"tier":"local","legal_registry":"CUATM","legal_id":"4840","legal_type":"independent_village","parent_catalog_id":"osm-r1693874","osm_relation_id":10628695,"legal_identity_status":"reconciled","geometry_source":"OpenStreetMap","geometry_precision":"master_coordinate_fidelity"},"geometry":{"type":"Polygon","coordinates":[[[27.7834843,47.7774306],[27.7928804,47.7862519],[27.7932214,47.7869586],[27.7949466,47.7885875],[27.7947365,47.7888101],[27.7941561,47.789425],[27.7940359,47.7895524],[27.7939212,47.7902505],[27.7938544,47.7904094],[27.7933268,47.7916639],[27.7935812,47.7918831],[27.7941562,47.7923786],[27.7939939,47.7932507],[27.7949134,47.7946557],[27.7961755,47.7945588],[27.7973339,47.7951675],[27.7983752,47.7961576],[27.7987313,47.7960638],[27.8000474,47.7972235],[27.8002232,47.7972961],[27.8006154,47.7971508],[27.8014628,47.7971447],[27.8032658,47.7966996],[27.8036118,47.7963797],[27.8045857,47.7972999],[27.8043289,47.7974121],[27.8037915,47.7976301],[27.8033968,47.7977456],[27.8030021,47.7978386],[27.8027928,47.7979059],[27.8024838,47.7980534],[27.8021936,47.7981111],[27.8008097,47.7984157],[27.8006337,47.7984542],[27.8001819,47.7985087],[27.7995779,47.7985953],[27.7990214,47.7986339],[27.7984221,47.7986403],[27.7975517,47.7985891],[27.796862,47.7985892],[27.7965719,47.7985635],[27.7953893,47.7989194],[27.7949329,47.7990822],[27.7945033,47.7992451],[27.7940468,47.7995166],[27.7934663,47.7997047],[27.7927625,47.8001406],[27.7908268,47.8011631],[27.7895569,47.8019387],[27.7893714,47.8019836],[27.7891812,47.80199],[27.7890524,47.8018509],[27.7890255,47.8015614],[27.7892671,47.8002948],[27.7886225,47.7997881],[27.788182,47.7997465],[27.7878681,47.7996984],[27.787459,47.7997016],[27.7867694,47.799926],[27.7861789,47.8003129],[27.7856955,47.8007109],[27.7854807,47.8008557],[27.7851585,47.8011814],[27.7845409,47.8013985],[27.7836547,47.8015975],[27.7828759,47.8015975],[27.7812378,47.801905],[27.7803247,47.8021763],[27.7797071,47.8023934],[27.7792505,47.8026467],[27.7785882,47.8029927],[27.7782077,47.8032042],[27.7785121,47.8038517],[27.7791779,47.8053645],[27.7795775,47.8061401],[27.7796536,47.8067427],[27.7797106,47.8070952],[27.779644,47.8076016],[27.7793776,47.8078003],[27.7789209,47.8082233],[27.7783215,47.8087296],[27.777075,47.8098064],[27.7753812,47.8113895],[27.7735446,47.8131456],[27.7722693,47.8142928],[27.7711368,47.8152285],[27.7708608,47.8155425],[27.7696806,47.8165551],[27.7694998,47.8167666],[27.7686051,47.8176062],[27.7679769,47.8181381],[27.7652164,47.8206503],[27.7641464,47.8215528],[27.7628327,47.8227576],[27.7613704,47.8241044],[27.7606563,47.8247773],[27.7601422,47.8252002],[27.7598185,47.825495],[27.7596662,47.8255719],[27.7594473,47.8256167],[27.7578351,47.8252947],[27.7566266,47.8249867],[27.7560308,47.8249363],[27.7537565,47.8244164],[27.7537563,47.8246472],[27.7539275,47.8249164],[27.7540892,47.8251857],[27.7541462,47.8253973],[27.7541746,47.825596],[27.7541745,47.825878],[27.7541363,47.8260959],[27.754079,47.8263139],[27.7539837,47.8265574],[27.7538694,47.8268458],[27.753913,47.8270419],[27.7540461,47.8273753],[27.7540689,47.8275446],[27.7540688,47.8276664],[27.7540211,47.8278074],[27.7538782,47.8280765],[27.7538647,47.8283688],[27.7538494,47.8285637],[27.7538017,47.8287111],[27.7536969,47.8289226],[27.7534587,47.8294225],[27.7531825,47.8297173],[27.7530586,47.8300762],[27.7530489,47.8303646],[27.752963,47.8307428],[27.7529058,47.8309158],[27.7527343,47.831294],[27.7525818,47.8317106],[27.7523245,47.83214],[27.7520768,47.8325309],[27.7518291,47.8329346],[27.7517719,47.8331269],[27.7519967,47.833222],[27.7521315,47.8333235],[27.7521525,47.833445],[27.7519691,47.8335886],[27.7516675,47.8337857],[27.7515797,47.8339543],[27.7515152,47.8340891],[27.7514603,47.8342441],[27.7515103,47.8344037],[27.7515509,47.8345495],[27.7515424,47.8346275],[27.7513074,47.834821],[27.7513284,47.8349285],[27.7513875,47.83507],[27.7514136,47.8352063],[27.7513913,47.8352992],[27.7512599,47.8354356],[27.7511814,47.8355758],[27.7511877,47.835692],[27.7511517,47.8358266],[27.7511529,47.8359034],[27.7512314,47.83605],[27.7512804,47.8361393],[27.7512681,47.8362534],[27.7512265,47.8363305],[27.7511235,47.83644],[27.7510388,47.8365184],[27.7510686,47.8365875],[27.7510978,47.8366396],[27.7510759,47.8367474],[27.7510817,47.8368317],[27.7511408,47.8369592],[27.7511704,47.837023],[27.7511577,47.8371084],[27.7510405,47.8372243],[27.7510424,47.837363],[27.7510128,47.8375828],[27.751082,47.8377488],[27.7510805,47.8379567],[27.7510735,47.8381199],[27.7510607,47.838216],[27.7510851,47.8382713],[27.7511641,47.83845],[27.751157,47.83861],[27.7511778,47.8387186],[27.7512362,47.8387875],[27.7512477,47.8389122],[27.7512008,47.8389744],[27.7512271,47.8391203],[27.7512546,47.839254],[27.7512284,47.8394013],[27.7512029,47.8395998],[27.7511556,47.8399217],[27.7510253,47.8401177],[27.7507992,47.8402696],[27.7507484,47.8403723],[27.7506986,47.8405326],[27.7506056,47.8406739],[27.7505018,47.8407354],[27.7503366,47.8408261],[27.7503792,47.8411138],[27.7503392,47.8412996],[27.7502974,47.8413638],[27.7503094,47.8415237],[27.7502344,47.8416422],[27.7502316,47.841729],[27.7502569,47.8418248],[27.7502253,47.8419306],[27.7501217,47.8420049],[27.7499842,47.8420442],[27.7499775,47.842313],[27.7498185,47.8424068],[27.7488886,47.8425833],[27.748431,47.8425068],[27.747394,47.8432143],[27.7453582,47.8447406],[27.743144,47.8463559],[27.741269,47.8477311],[27.7404999,47.8472142],[27.7393952,47.8465384],[27.7387418,47.8461238],[27.7386643,47.8460309],[27.7377513,47.845444],[27.7356488,47.8442268],[27.7321222,47.8467276],[27.7299737,47.8483101],[27.7296091,47.8486953],[27.7270758,47.8506918],[27.7240808,47.8530448],[27.719616,47.8565451],[27.719294,47.8567623],[27.716615,47.8550869],[27.7150866,47.8540656],[27.711368,47.8516533],[27.7081877,47.849592],[27.7053342,47.8477283],[27.7040471,47.8469115],[27.7030281,47.8461962],[27.7000097,47.8440887],[27.696401,47.8419521],[27.6936566,47.8403578],[27.6914989,47.8391916],[27.6905269,47.8398494],[27.6904688,47.8397725],[27.6894909,47.8392628],[27.6876984,47.8383455],[27.6859163,47.8374925],[27.6841622,47.8365439],[27.6823626,47.8357741],[27.681653,47.8353753],[27.6794585,47.8342366],[27.6775799,47.8332369],[27.6763911,47.8325852],[27.6746064,47.8316682],[27.6725518,47.8305223],[27.6669772,47.8276188],[27.6592736,47.8236143],[27.6542131,47.8263421],[27.6535801,47.8260195],[27.6524184,47.8253479],[27.6503357,47.824189],[27.6488296,47.8233915],[27.6474294,47.8226702],[27.645396,47.8216135],[27.6451756,47.8215124],[27.6438692,47.8206942],[27.6431487,47.820252],[27.645499,47.8186614],[27.6541449,47.8129468],[27.6556906,47.8113384],[27.6629746,47.8028252],[27.6631445,47.8024259],[27.6669735,47.7982574],[27.6672855,47.7979177],[27.6732027,47.7910042],[27.6811861,47.7827529],[27.6875511,47.7760867],[27.6932134,47.7701557],[27.6951132,47.7681656],[27.6957345,47.7673912],[27.7006933,47.7621896],[27.7030577,47.7596593],[27.7033431,47.7596137],[27.7037548,47.7598037],[27.7059783,47.7613565],[27.7072987,47.7623814],[27.7080228,47.7629465],[27.708411,47.7632371],[27.7086083,47.7633263],[27.7087589,47.7633701],[27.7088975,47.7633717],[27.7090726,47.7633472],[27.7093613,47.7632403],[27.710404,47.7629045],[27.7145072,47.7615314],[27.7157831,47.7622268],[27.7173393,47.7637146],[27.718086,47.7642405],[27.7187688,47.7646401],[27.7189307,47.7650922],[27.7190766,47.7652546],[27.719186,47.7652883],[27.7196944,47.7652132],[27.7198693,47.7651977],[27.7200795,47.7654395],[27.7244479,47.7646717],[27.725113,47.7644488],[27.7267246,47.7640972],[27.7284507,47.7637572],[27.7287154,47.7637519],[27.7289033,47.7638917],[27.7290883,47.76375],[27.7290652,47.7636475],[27.7301051,47.7635116],[27.7310136,47.7633928],[27.7316586,47.763264],[27.7381266,47.7618304],[27.7424544,47.7609064],[27.76419,47.7564003],[27.7650211,47.7602849],[27.7834843,47.7774306]]]}},{"type":"Feature","properties":{"entity_id":"osm-r10628801","jurisdiction":"MD","display_name":"Cobani","display_type":"independent_village","admin_level":8,"tier":"local","legal_registry":"CUATM","legal_id":"4822","legal_type":"independent_village","parent_catalog_id":"osm-r1693874","osm_relation_id":10628801,"legal_identity_status":"reconciled","geometry_source":"OpenStreetMap","geometry_precision":"master_coordinate_fidelity"},"geometry":{"type":"Polygon","coordinates":[[[27.3886476,47.7758597],[27.3226585,47.7914462],[27.3226446,47.7913761],[27.3221254,47.7887014],[27.3221085,47.7883213],[27.3221016,47.7880613],[27.3218777,47.7868391],[27.3218951,47.7865771],[27.3219323,47.7864896],[27.3221468,47.7858893],[27.3222114,47.7852848],[27.3221052,47.7843702],[27.3217888,47.7843045],[27.3220664,47.7838107],[27.3222262,47.7835181],[27.3223784,47.7832133],[27.322397,47.7829312],[27.3224142,47.7823617],[27.3224065,47.7818877],[27.3224354,47.7811564],[27.3225324,47.7804776],[27.3225432,47.7798785],[27.3225668,47.7795596],[27.3225825,47.779346],[27.3225948,47.7791878],[27.3226062,47.7790965],[27.3226286,47.7789451],[27.3226752,47.7786337],[27.3227478,47.7784953],[27.322232,47.7785077],[27.3213702,47.7785619],[27.3210519,47.7785742],[27.3202403,47.7786639],[27.3197837,47.7787177],[27.3185729,47.7788131],[27.3181168,47.7788701],[27.3176417,47.7789125],[27.3168698,47.7789536],[27.3158503,47.7789968],[27.3127539,47.7792688],[27.3108625,47.7794772],[27.3095562,47.7795956],[27.3081965,47.7797442],[27.3079622,47.7797498],[27.3017254,47.7803717],[27.296515,47.7808693],[27.2967185,47.7806112],[27.2967591,47.7804312],[27.2968229,47.7802435],[27.2969974,47.7800948],[27.2972885,47.779954],[27.2974571,47.7797741],[27.2976489,47.7794846],[27.2978233,47.7791952],[27.2978871,47.7790309],[27.2979393,47.7788431],[27.2979796,47.7785068],[27.2980257,47.778186],[27.2980429,47.7779591],[27.2981238,47.7775367],[27.2982342,47.7772903],[27.2984315,47.7768131],[27.2985999,47.7764571],[27.2988615,47.7761168],[27.2989953,47.7759603],[27.2991697,47.7757335],[27.2994195,47.7752876],[27.2997563,47.7746069],[27.2999424,47.7743722],[27.3003031,47.7741571],[27.3003496,47.7740319],[27.3001979,47.7738559],[27.3001219,47.7736447],[27.3001333,47.7734843],[27.3002088,47.7733357],[27.300261,47.7731988],[27.3003656,47.7730149],[27.3004409,47.7727607],[27.3005335,47.7723891],[27.3006553,47.7720253],[27.3007365,47.7718102],[27.3009571,47.7713251],[27.3011433,47.7711843],[27.3013236,47.7710161],[27.3014106,47.7707892],[27.3013286,47.7704841],[27.3013254,47.7696975],[27.3009662,47.769447],[27.3000352,47.7692713],[27.2998794,47.7692562],[27.2990809,47.7693589],[27.298184,47.7692522],[27.2978627,47.7690714],[27.2970815,47.7682215],[27.2970855,47.7679981],[27.2962014,47.7672404],[27.2957577,47.7666771],[27.2955866,47.766405],[27.2958452,47.765844],[27.2959036,47.7654463],[27.2963711,47.7648297],[27.2963535,47.7646758],[27.2950892,47.7636372],[27.294819,47.7634152],[27.2930201,47.7617909],[27.2927824,47.7615826],[27.2926808,47.7614797],[27.2926083,47.7614367],[27.292508,47.7612739],[27.2923826,47.7611152],[27.2921634,47.7609782],[27.2920351,47.7608143],[27.2914544,47.7604333],[27.2912794,47.7601982],[27.2912073,47.7598667],[27.2911002,47.7597142],[27.290842,47.7596203],[27.2904604,47.7595399],[27.2903073,47.7594771],[27.2902293,47.7593627],[27.2901698,47.7592163],[27.2900254,47.7591024],[27.2899193,47.7590137],[27.2853935,47.7574772],[27.2864344,47.7556581],[27.285949,47.7543234],[27.2844849,47.7535068],[27.2824645,47.7532288],[27.2803938,47.7530052],[27.2790742,47.7524714],[27.2784404,47.751484],[27.2786713,47.7506464],[27.2804658,47.7494307],[27.2841692,47.7483522],[27.2866582,47.7484201],[27.2878647,47.7486182],[27.2894919,47.7493263],[27.2911923,47.7511553],[27.292632,47.7527498],[27.2940838,47.7532288],[27.2949346,47.7532644],[27.2965354,47.7527671],[27.2976244,47.7517293],[27.2979677,47.7508037],[27.2980535,47.7489259],[27.297909,47.7474609],[27.2964323,47.7463665],[27.2936983,47.7460654],[27.2917603,47.745772],[27.2881776,47.7457445],[27.2864717,47.7450086],[27.2856027,47.7445197],[27.2835796,47.7417213],[27.2814938,47.7387324],[27.2806674,47.7367078],[27.2807586,47.7348642],[27.2821627,47.7326659],[27.2836339,47.731635],[27.2847059,47.7310297],[27.2863194,47.730015],[27.2890961,47.7295736],[27.2922975,47.7297515],[27.2937405,47.7292175],[27.2948831,47.7282288],[27.2980417,47.7297188],[27.2982894,47.7298357],[27.2995583,47.7308897],[27.3006995,47.7318375],[27.3024181,47.7348681],[27.3048702,47.7344452],[27.3058553,47.7338532],[27.3072804,47.7324718],[27.3166143,47.7349209],[27.3186191,47.7318234],[27.3250113,47.7328383],[27.3350293,47.7353333],[27.335218,47.7346567],[27.3397659,47.7342197],[27.3401012,47.7347413],[27.3494456,47.7381829],[27.3627331,47.7434541],[27.3675116,47.7450748],[27.3686853,47.7449057],[27.3691044,47.7451171],[27.3691463,47.7453284],[27.3798591,47.7476736],[27.3817423,47.7495188],[27.3919584,47.7518341],[27.3898975,47.7552258],[27.3903816,47.7563033],[27.3905208,47.7566084],[27.3904998,47.7571157],[27.3916525,47.7574538],[27.3898668,47.7589025],[27.3880716,47.763744],[27.3872912,47.7660106],[27.3870006,47.7670979],[27.3867958,47.7674315],[27.3868561,47.7680087],[27.3886476,47.7758597]]]}},{"type":"Feature","properties":{"entity_id":"osm-r10628802","jurisdiction":"MD","display_name":"Balatina","display_type":"commune","admin_level":8,"tier":"local","legal_registry":"CUATM","legal_id":"4811","legal_type":"commune","parent_catalog_id":"osm-r1693874","osm_relation_id":10628802,"legal_identity_status":"reconciled","geometry_source":"OpenStreetMap","geometry_precision":"master_coordinate_fidelity"},"geometry":{"type":"Polygon","coordinates":[[[27.2733289,47.6895996],[27.2736303,47.6890116],[27.2759575,47.6865103],[27.2768432,47.6856195],[27.2808848,47.6825681],[27.2824913,47.6819274],[27.2872424,47.6823302],[27.289744,47.6820863],[27.2920339,47.6818146],[27.2946076,47.6812275],[27.2960545,47.6805795],[27.296896,47.6792576],[27.2967766,47.6783448],[27.2951778,47.6766512],[27.2949106,47.6750482],[27.2961449,47.6732246],[27.2961047,47.6716257],[27.2950209,47.669973],[27.2932684,47.6684762],[27.2927296,47.6668537],[27.2933057,47.6658352],[27.2947824,47.6646318],[27.2950689,47.6637604],[27.2948875,47.6622787],[27.2955044,47.6615166],[27.2977685,47.6615384],[27.2990451,47.6610511],[27.3020813,47.6608367],[27.3039098,47.6609103],[27.3051536,47.6615466],[27.3064259,47.6617024],[27.3082696,47.6610518],[27.3088565,47.6599397],[27.3084184,47.6583432],[27.3095063,47.6566988],[27.3110377,47.6559453],[27.3126728,47.6541999],[27.3141682,47.6511668],[27.3151976,47.6483167],[27.3150242,47.6473379],[27.3149896,47.6458669],[27.3146331,47.6443399],[27.3145834,47.6431718],[27.3179557,47.6409432],[27.3208623,47.6433864],[27.3252881,47.6469829],[27.3262164,47.6478009],[27.3305263,47.6514327],[27.332366,47.6527996],[27.3336635,47.6540503],[27.3354489,47.6554948],[27.336526,47.6563682],[27.3373846,47.6569739],[27.3382042,47.657613],[27.3530803,47.6669796],[27.3626424,47.6734893],[27.3634978,47.6742261],[27.3640331,47.6746873],[27.3655504,47.6759942],[27.3660757,47.676397],[27.3696532,47.67914],[27.3702709,47.6796136],[27.3709645,47.6801454],[27.371667,47.6806839],[27.3720717,47.6809943],[27.372912,47.6816385],[27.3743412,47.6829284],[27.3746383,47.6831854],[27.3861418,47.6935778],[27.3831029,47.6957114],[27.3862588,47.6956725],[27.3881067,47.6961523],[27.389221,47.6964571],[27.3900946,47.6968263],[27.39031,47.6968128],[27.3963589,47.6994495],[27.3975723,47.7000345],[27.3999575,47.7012952],[27.401699,47.7022157],[27.4028751,47.7027864],[27.405836,47.704223],[27.4070299,47.7048447],[27.4146066,47.7086464],[27.4147566,47.7087265],[27.4152249,47.708263],[27.4219872,47.7008143],[27.4279183,47.7006873],[27.430844,47.7022871],[27.4322173,47.703038],[27.4322776,47.703071],[27.4284423,47.7063149],[27.4256153,47.7115249],[27.432448,47.7114936],[27.4323798,47.7172474],[27.4309644,47.7164732],[27.4266083,47.7220501],[27.4257888,47.7230992],[27.4213668,47.7278128],[27.4208279,47.7283872],[27.420254,47.7289989],[27.4165744,47.7329207],[27.4154716,47.7341576],[27.4115317,47.7329187],[27.4114602,47.7329908],[27.4096827,47.7347841],[27.4094392,47.7350297],[27.4042659,47.7402485],[27.3986273,47.7354415],[27.3986068,47.735424],[27.3981156,47.7346807],[27.3944316,47.7342402],[27.3919584,47.7518341],[27.3817423,47.7495188],[27.3798591,47.7476736],[27.3691463,47.7453284],[27.3691044,47.7451171],[27.3686853,47.7449057],[27.3675116,47.7450748],[27.3627331,47.7434541],[27.3494456,47.7381829],[27.3401012,47.7347413],[27.3397659,47.7342197],[27.335218,47.7346567],[27.3350293,47.7353333],[27.3250113,47.7328383],[27.3186191,47.7318234],[27.3166143,47.7349209],[27.3072804,47.7324718],[27.3058553,47.7338532],[27.3048702,47.7344452],[27.3024181,47.7348681],[27.3006995,47.7318375],[27.2995583,47.7308897],[27.2982894,47.7298357],[27.2980417,47.7297188],[27.2948831,47.7282288],[27.2954085,47.7264937],[27.2945186,47.7243746],[27.2930512,47.7233114],[27.2907859,47.7227837],[27.2874659,47.72312],[27.2837832,47.7239647],[27.2826088,47.72479],[27.2815406,47.7258411],[27.2800758,47.7276876],[27.2791022,47.7283432],[27.2779141,47.7287967],[27.2767322,47.7289913],[27.2755502,47.7289839],[27.2739512,47.7287176],[27.271848,47.7281315],[27.2697347,47.7270814],[27.2682327,47.726522],[27.2674222,47.7265144],[27.2668865,47.7267689],[27.266575,47.7271741],[27.2666919,47.7280861],[27.2678114,47.7303335],[27.2678889,47.7314582],[27.2677922,47.732104],[27.2675461,47.7327247],[27.2661568,47.7332207],[27.264882,47.7331082],[27.262605,47.7322614],[27.2613205,47.7317429],[27.2599286,47.7306392],[27.2579759,47.7284562],[27.2574931,47.72772],[27.2570568,47.7265302],[27.255332,47.7224605],[27.2546759,47.7215251],[27.2537275,47.7207454],[27.251603,47.7200949],[27.2509962,47.7195968],[27.2514407,47.7188874],[27.2521791,47.7184705],[27.2530596,47.7172176],[27.2555238,47.7160994],[27.2577792,47.7150187],[27.2586949,47.7142811],[27.2592701,47.7140391],[27.2611471,47.7138014],[27.2638661,47.7136923],[27.2658964,47.7130249],[27.2675675,47.7120464],[27.2681345,47.7107234],[27.2684058,47.7088778],[27.2691539,47.7072242],[27.2685399,47.7052449],[27.2676855,47.7038811],[27.2679771,47.7030414],[27.2688657,47.7021519],[27.2700137,47.7009713],[27.2702703,47.7000855],[27.2716842,47.6992876],[27.274846,47.6993624],[27.2772345,47.7004467],[27.2791174,47.7011834],[27.2812951,47.7013287],[27.2823465,47.7008775],[27.2827128,47.70002],[27.2823465,47.6987799],[27.2810214,47.6977147],[27.2792083,47.6964655],[27.2785968,47.6956856],[27.278409,47.6942342],[27.2785765,47.6931921],[27.2773629,47.691786],[27.2759065,47.6913364],[27.2740155,47.6910747],[27.273414,47.6904221],[27.2733289,47.6895996]]]}},{"type":"Feature","properties":{"entity_id":"osm-r10628803","jurisdiction":"MD","display_name":"Cajba","display_type":"independent_village","admin_level":8,"tier":"local","legal_registry":"CUATM","legal_id":"4816","legal_type":"independent_village","parent_catalog_id":"osm-r1693874","osm_relation_id":10628803,"legal_identity_status":"reconciled","geometry_source":"OpenStreetMap","geometry_precision":"master_coordinate_fidelity"},"geometry":{"type":"Polygon","coordinates":[[[27.4015679,47.7974883],[27.4003917,47.797473],[27.3975172,47.7939984],[27.3950241,47.79067],[27.3924523,47.7859038],[27.3914209,47.7841916],[27.3886476,47.7758597],[27.3868561,47.7680087],[27.3867958,47.7674315],[27.3870006,47.7670979],[27.3872912,47.7660106],[27.3880716,47.763744],[27.3898668,47.7589025],[27.3916525,47.7574538],[27.3904998,47.7571157],[27.3905208,47.7566084],[27.3903816,47.7563033],[27.3898975,47.7552258],[27.3919584,47.7518341],[27.3944316,47.7342402],[27.3981156,47.7346807],[27.3986068,47.735424],[27.3986273,47.7354415],[27.4042659,47.7402485],[27.4094392,47.7350297],[27.4096827,47.7347841],[27.4114602,47.7329908],[27.4115317,47.7329187],[27.4154716,47.7341576],[27.4165744,47.7329207],[27.420254,47.7289989],[27.4208279,47.7283872],[27.4213668,47.7278128],[27.4257888,47.7230992],[27.4266083,47.7220501],[27.4309644,47.7164732],[27.4323798,47.7172474],[27.432448,47.7114936],[27.439228,47.7115183],[27.4393747,47.7030846],[27.4449286,47.7029435],[27.4449013,47.7026582],[27.4448029,47.7016318],[27.4442789,47.7012651],[27.4442579,47.7008561],[27.4443407,47.7007411],[27.4471292,47.6968642],[27.4473609,47.6966872],[27.4480933,47.6960956],[27.4483744,47.6958715],[27.4487124,47.696118],[27.4517002,47.7010131],[27.4539598,47.708043],[27.4543855,47.7172092],[27.4550404,47.7269464],[27.4551599,47.7272507],[27.456371,47.730334],[27.4564953,47.7306505],[27.4580859,47.7346996],[27.4582169,47.7358008],[27.4491132,47.7459713],[27.4311406,47.7614517],[27.4262157,47.7670407],[27.4100896,47.7855996],[27.4034218,47.7940912],[27.4015679,47.7974883]]]}},{"type":"Feature","properties":{"entity_id":"osm-r10628804","jurisdiction":"MD","display_name":"Camenca","display_type":"commune","admin_level":8,"tier":"local","legal_registry":"CUATM","legal_id":"4817","legal_type":"commune","parent_catalog_id":"osm-r1693874","osm_relation_id":10628804,"legal_identity_status":"reconciled","geometry_source":"OpenStreetMap","geometry_precision":"master_coordinate_fidelity"},"geometry":{"type":"Polygon","coordinates":[[[27.425909,47.8211488],[27.4090228,47.8329011],[27.4060952,47.8349471],[27.4046493,47.8359154],[27.4027258,47.8372727],[27.3989235,47.8398586],[27.3966137,47.8414244],[27.3947872,47.8428597],[27.3908545,47.843444],[27.3874731,47.8439796],[27.3867608,47.8428242],[27.3857082,47.8407406],[27.3855115,47.8404347],[27.3855281,47.8403128],[27.3855159,47.8401848],[27.3854184,47.8400703],[27.3851873,47.8399443],[27.3849483,47.8398952],[27.3847584,47.8399161],[27.3844757,47.8400597],[27.3842193,47.8400941],[27.3840281,47.8400574],[27.3837311,47.839964],[27.3835101,47.8398634],[27.3832222,47.8397507],[27.3830056,47.8396243],[27.3829504,47.8394968],[27.38262,47.8396344],[27.3822965,47.8396438],[27.3819245,47.8396087],[27.3815507,47.839484],[27.3813112,47.8394092],[27.3808807,47.8393106],[27.3804308,47.8391865],[27.3801255,47.8391573],[27.3792494,47.839146],[27.3787756,47.8392528],[27.3785379,47.8392678],[27.3783172,47.8391865],[27.378133,47.8390216],[27.3780715,47.8388042],[27.3780846,47.8385093],[27.3780026,47.8382217],[27.3768477,47.8390204],[27.3751668,47.8401699],[27.373466,47.8412812],[27.3728897,47.8414842],[27.3717038,47.8422629],[27.369311,47.8437243],[27.3669572,47.8452429],[27.3654605,47.8462291],[27.3632376,47.8476249],[27.3622411,47.8482176],[27.3615018,47.848707],[27.3615427,47.8485862],[27.3615169,47.8484835],[27.3609732,47.8478644],[27.3605244,47.8472661],[27.3596283,47.8462107],[27.3581999,47.8444508],[27.3574777,47.8434399],[27.3567994,47.8419823],[27.3559207,47.8408694],[27.3545964,47.8391923],[27.3542249,47.8386654],[27.3527195,47.8365302],[27.3520541,47.8355947],[27.3505994,47.8335491],[27.3503799,47.8332192],[27.349763,47.8320333],[27.3484673,47.8302611],[27.3476362,47.8289362],[27.3469887,47.8280416],[27.3471177,47.8279504],[27.3470725,47.8278769],[27.3470348,47.8278158],[27.347026,47.8277983],[27.3470675,47.827772],[27.3471397,47.8277257],[27.3464009,47.8267373],[27.3452957,47.8250393],[27.3442287,47.8232595],[27.3430134,47.8202708],[27.3419971,47.81851],[27.3414743,47.8176733],[27.3406763,47.8163669],[27.3404997,47.8161121],[27.3398969,47.8154961],[27.3394445,47.8147953],[27.3389886,47.8139215],[27.3381376,47.8118913],[27.3375761,47.8105121],[27.3368736,47.8087561],[27.3364799,47.8076637],[27.3359982,47.8064569],[27.3356535,47.8054346],[27.3347084,47.8057383],[27.3332697,47.8061782],[27.3311599,47.8066755],[27.3270516,47.8076946],[27.3241074,47.8084208],[27.3211536,47.809147],[27.3189173,47.8097501],[27.3188778,47.809678],[27.3187585,47.8094604],[27.3184913,47.8089729],[27.3180799,47.8082221],[27.3176628,47.807461],[27.3172374,47.8066848],[27.3168221,47.805927],[27.3164164,47.8051867],[27.3161715,47.8047398],[27.3161578,47.8047015],[27.3147912,47.8021989],[27.3143397,47.8013999],[27.3138931,47.8005964],[27.3134851,47.7999022],[27.3134128,47.7997734],[27.3128745,47.7988142],[27.3119299,47.7971311],[27.3115786,47.7965051],[27.3111967,47.7958247],[27.3108351,47.7951802],[27.3105775,47.7947213],[27.3163073,47.7931551],[27.3207463,47.7919379],[27.3226585,47.7914462],[27.3886476,47.7758597],[27.3914209,47.7841916],[27.3924523,47.7859038],[27.3950241,47.79067],[27.3975172,47.7939984],[27.4003917,47.797473],[27.4015679,47.7974883],[27.4022741,47.7975436],[27.4027891,47.7977994],[27.4032238,47.7984302],[27.4033096,47.7989564],[27.4046348,47.799515],[27.405343,47.799515],[27.4070084,47.8005953],[27.4076904,47.8013174],[27.409058,47.8015832],[27.4097708,47.8032197],[27.4091484,47.8039798],[27.4092153,47.8043699],[27.4099647,47.8047081],[27.4117613,47.8056365],[27.4125326,47.806864],[27.4134239,47.8078504],[27.4143615,47.808146],[27.4150644,47.8089697],[27.4153513,47.8093544],[27.4151985,47.8096318],[27.4147799,47.8100291],[27.4148508,47.810616],[27.4146834,47.8111816],[27.4153359,47.8113551],[27.4165901,47.8123703],[27.4175437,47.8123668],[27.4187213,47.8123412],[27.4209633,47.8123568],[27.4222182,47.8128369],[27.4232235,47.8132629],[27.4241436,47.8137863],[27.4242994,47.8143518],[27.424306,47.8145037],[27.4243726,47.8149154],[27.4246562,47.8158535],[27.4243363,47.8163899],[27.4242692,47.8171667],[27.4240009,47.8175045],[27.4241015,47.8185853],[27.4236462,47.8196026],[27.4244536,47.820274],[27.4253562,47.8208361],[27.425909,47.8211488]]]}},{"type":"Feature","properties":{"entity_id":"osm-r10628805","jurisdiction":"MD","display_name":"Hîjdieni","display_type":"independent_village","admin_level":8,"tier":"local","legal_registry":"CUATM","legal_id":"4833","legal_type":"independent_village","parent_catalog_id":"osm-r1693874","osm_relation_id":10628805,"legal_identity_status":"reconciled","geometry_source":"OpenStreetMap","geometry_precision":"master_coordinate_fidelity"},"geometry":{"type":"Polygon","coordinates":[[[27.4333897,47.8332828],[27.4331416,47.8331955],[27.4323683,47.8330939],[27.4317856,47.8329969],[27.4312881,47.8328799],[27.4311917,47.8328232],[27.4311687,47.8326375],[27.4311706,47.8322786],[27.4311185,47.8320676],[27.4309904,47.8318638],[27.4308439,47.8316857],[27.4303539,47.8314725],[27.4300088,47.8313604],[27.4297775,47.8312281],[27.4296679,47.8309984],[27.4296259,47.8308129],[27.4295605,47.8304226],[27.4294913,47.8303015],[27.4292674,47.8300666],[27.4289959,47.829832],[27.4286674,47.8296044],[27.428465,47.8294846],[27.4284529,47.8293629],[27.4284779,47.8291961],[27.4284668,47.8291193],[27.4283012,47.8289414],[27.4282801,47.8288455],[27.4283132,47.8286081],[27.4282145,47.8284424],[27.4279698,47.8281243],[27.4276472,47.8277236],[27.4274696,47.8274305],[27.4274348,47.827136],[27.4276275,47.8267945],[27.4278873,47.826478],[27.4280067,47.8262718],[27.4280228,47.8261339],[27.427959,47.8258205],[27.4278678,47.8255586],[27.4277479,47.8252905],[27.4275707,47.8250103],[27.427441,47.8247295],[27.4273309,47.8244742],[27.4271911,47.8241679],[27.4270737,47.8240152],[27.426737,47.8238454],[27.4266496,47.8237629],[27.4266,47.8236673],[27.4266168,47.8235646],[27.426745,47.8233262],[27.4267502,47.8231211],[27.4266975,47.8228781],[27.4266153,47.8225905],[27.4266592,47.822417],[27.4265023,47.8222006],[27.4265051,47.8218801],[27.4264389,47.8214514],[27.4263221,47.8213307],[27.4260916,47.8212304],[27.425909,47.8211488],[27.4253562,47.8208361],[27.4244536,47.820274],[27.4236462,47.8196026],[27.4241015,47.8185853],[27.4240009,47.8175045],[27.4242692,47.8171667],[27.4243363,47.8163899],[27.4246562,47.8158535],[27.4243726,47.8149154],[27.424306,47.8145037],[27.4242994,47.8143518],[27.4241436,47.8137863],[27.4232235,47.8132629],[27.4222182,47.8128369],[27.4209633,47.8123568],[27.4187213,47.8123412],[27.4175437,47.8123668],[27.4165901,47.8123703],[27.4153359,47.8113551],[27.4146834,47.8111816],[27.4148508,47.810616],[27.4147799,47.8100291],[27.4151985,47.8096318],[27.4153513,47.8093544],[27.4150644,47.8089697],[27.4143615,47.808146],[27.4134239,47.8078504],[27.4125326,47.806864],[27.4117613,47.8056365],[27.4099647,47.8047081],[27.4092153,47.8043699],[27.4091484,47.8039798],[27.4097708,47.8032197],[27.409058,47.8015832],[27.4076904,47.8013174],[27.4070084,47.8005953],[27.405343,47.799515],[27.4046348,47.799515],[27.4033096,47.7989564],[27.4032238,47.7984302],[27.4027891,47.7977994],[27.4022741,47.7975436],[27.4015679,47.7974883],[27.4034218,47.7940912],[27.4100896,47.7855996],[27.4262157,47.7670407],[27.4311406,47.7614517],[27.4491132,47.7459713],[27.4582169,47.7358008],[27.4593841,47.7365811],[27.4652733,47.741782],[27.46542,47.7422752],[27.4662584,47.7421625],[27.4725743,47.7395105],[27.4785289,47.751525],[27.4827702,47.7598412],[27.4866521,47.7674374],[27.4879516,47.7700326],[27.4903855,47.775452],[27.4928825,47.7748743],[27.4930048,47.7749555],[27.4936871,47.7772686],[27.4959047,47.7847973],[27.4959906,47.7850794],[27.49733,47.790337],[27.4984827,47.7913402],[27.5012335,47.7920619],[27.5015478,47.7922358],[27.4973786,47.7937116],[27.4951173,47.7946265],[27.4942132,47.7951847],[27.4907805,47.7972537],[27.4893529,47.7977688],[27.4886861,47.7980452],[27.4876892,47.7991543],[27.4832094,47.8004389],[27.4809302,47.8025506],[27.4788344,47.8043806],[27.4781532,47.8049261],[27.4767386,47.8051196],[27.4763718,47.8054011],[27.4763456,47.8062985],[27.4760312,47.8067384],[27.4731015,47.8083253],[27.4711246,47.8097551],[27.4658403,47.8150955],[27.4644518,47.8153066],[27.4633253,47.8169075],[27.4613605,47.8172417],[27.4527152,47.8243131],[27.4404285,47.8285872],[27.4333897,47.8332828]]]}},{"type":"Feature","properties":{"entity_id":"osm-r10628806","jurisdiction":"MD","display_name":"Danu","display_type":"commune","admin_level":8,"tier":"local","legal_registry":"CUATM","legal_id":"4827","legal_type":"commune","parent_catalog_id":"osm-r1693874","osm_relation_id":10628806,"legal_identity_status":"reconciled","geometry_source":"OpenStreetMap","geometry_precision":"master_coordinate_fidelity"},"geometry":{"type":"Polygon","coordinates":[[[27.4471254,47.8464048],[27.4470813,47.8462977],[27.4469386,47.8460797],[27.4467102,47.845881],[27.4466912,47.8458233],[27.4467008,47.8456502],[27.4467702,47.8454835],[27.446958,47.8453297],[27.4469866,47.8452271],[27.446939,47.8450412],[27.4468058,47.8449707],[27.4467392,47.8448425],[27.4466345,47.8448104],[27.4463965,47.844804],[27.446149,47.8447462],[27.4456635,47.8444898],[27.4454636,47.8444256],[27.4452923,47.8442333],[27.4450924,47.8441948],[27.4449496,47.8441307],[27.4448354,47.8440409],[27.4446927,47.8439319],[27.4444738,47.8438229],[27.4443786,47.8437524],[27.444331,47.8436883],[27.4443026,47.8434703],[27.444255,47.843387],[27.4441503,47.8433036],[27.4441313,47.843201],[27.4441314,47.8429959],[27.4439697,47.84281],[27.4435128,47.8426112],[27.4430844,47.8424829],[27.4424085,47.8423802],[27.4422563,47.8423161],[27.4421896,47.8422648],[27.4420374,47.8420853],[27.4418853,47.8417519],[27.4416379,47.8415211],[27.4413523,47.8413864],[27.4408383,47.8412902],[27.4405813,47.8412324],[27.4405337,47.8411427],[27.4404862,47.8410722],[27.4404672,47.840976],[27.4405149,47.8408222],[27.4405721,47.8407004],[27.4405531,47.8405145],[27.4404009,47.8403734],[27.4402867,47.8402067],[27.4402107,47.8400272],[27.4401822,47.8398413],[27.4401919,47.8396554],[27.4402871,47.8395208],[27.4403824,47.839367],[27.4404777,47.839258],[27.4404397,47.8390977],[27.4404492,47.8390016],[27.4405636,47.8388349],[27.4406494,47.8385529],[27.4407352,47.8382709],[27.4407924,47.8380786],[27.4407449,47.8379439],[27.4407069,47.8378478],[27.4407355,47.837726],[27.4407451,47.8376042],[27.4405833,47.8375593],[27.4404786,47.8374887],[27.4404216,47.8373669],[27.4402598,47.8372772],[27.4400695,47.8371745],[27.4399173,47.8370143],[27.4398412,47.8368283],[27.4397842,47.8367129],[27.439451,47.8366039],[27.4390608,47.8365141],[27.4387372,47.8365076],[27.4385944,47.8364627],[27.4384517,47.8363793],[27.438128,47.8364241],[27.4380233,47.8364049],[27.437852,47.8362959],[27.4376712,47.836174],[27.4373952,47.8360522],[27.4371002,47.8359944],[27.4368241,47.8360264],[27.4365385,47.8361225],[27.4363957,47.8362058],[27.4362814,47.8361802],[27.4362339,47.8361096],[27.4362911,47.8358725],[27.4362913,47.8356481],[27.4362818,47.8355263],[27.436339,47.8354558],[27.4364818,47.8353853],[27.4365486,47.8352379],[27.4365106,47.8350584],[27.436444,47.8349622],[27.4362632,47.8348981],[27.4360131,47.8348214],[27.4358969,47.8347328],[27.4357259,47.8347473],[27.435574,47.834768],[27.4355414,47.8350246],[27.4354012,47.8351477],[27.4352401,47.8351813],[27.4350202,47.8351386],[27.4348663,47.8350631],[27.4347109,47.8349172],[27.4343964,47.8344524],[27.4339821,47.833777],[27.4336805,47.8334723],[27.4333897,47.8332828],[27.4404285,47.8285872],[27.4527152,47.8243131],[27.4613605,47.8172417],[27.4633253,47.8169075],[27.4644518,47.8153066],[27.4658403,47.8150955],[27.4711246,47.8097551],[27.4731015,47.8083253],[27.4760312,47.8067384],[27.4763456,47.8062985],[27.4763718,47.8054011],[27.4767386,47.8051196],[27.4781532,47.8049261],[27.4788344,47.8043806],[27.4809302,47.8025506],[27.4832094,47.8004389],[27.4876892,47.7991543],[27.4886861,47.7980452],[27.4893529,47.7977688],[27.4907805,47.7972537],[27.4942132,47.7951847],[27.4951173,47.7946265],[27.4973786,47.7937116],[27.5015478,47.7922358],[27.5019128,47.792644],[27.5095491,47.8004046],[27.5138063,47.8029797],[27.5145529,47.8034313],[27.5144585,47.8034845],[27.5075581,47.8073728],[27.5211286,47.8200397],[27.5279662,47.8134251],[27.540641,47.8001693],[27.5459029,47.7949928],[27.5463307,47.7958657],[27.5463117,47.7968666],[27.5465305,47.7977122],[27.5471363,47.799249],[27.5472692,47.799583],[27.5490081,47.8015544],[27.5502885,47.80209],[27.5522261,47.8033333],[27.5533032,47.803204],[27.5557343,47.803463],[27.5565727,47.8041274],[27.5570589,47.8050396],[27.5570924,47.806436],[27.5566565,47.8075734],[27.5568912,47.80799],[27.5568745,47.8096003],[27.5565056,47.8123815],[27.5592888,47.8136876],[27.5594789,47.8141289],[27.5608712,47.8173616],[27.5620239,47.8187689],[27.562443,47.8200882],[27.5669753,47.8282849],[27.5662155,47.8301668],[27.5662679,47.8309054],[27.565613,47.83335],[27.5647485,47.8346338],[27.5649318,47.8370781],[27.5655082,47.8375002],[27.5649245,47.8387883],[27.564374,47.8390282],[27.5639562,47.8392032],[27.5638347,47.8394282],[27.5636923,47.839493],[27.5634928,47.8395645],[27.5633986,47.8396739],[27.5632567,47.8397772],[27.5628865,47.8399456],[27.5627645,47.8401321],[27.5623938,47.8402429],[27.5622148,47.8404489],[27.5620443,47.8405587],[27.5616549,47.840708],[27.5614464,47.8408372],[27.5609442,47.8411409],[27.560812,47.8411857],[27.560585,47.8413341],[27.5603957,47.8414438],[27.5601985,47.841688],[27.5597679,47.8423236],[27.5584521,47.8431884],[27.5574681,47.8438867],[27.5571384,47.8440392],[27.5565808,47.8444451],[27.5563632,47.8445806],[27.5561262,47.844697],[27.5560476,47.8447798],[27.5557213,47.8451022],[27.5559081,47.8455491],[27.5564446,47.8464868],[27.5569529,47.8474566],[27.5572457,47.8479797],[27.5552844,47.8482586],[27.5495327,47.8489853],[27.5492459,47.8504715],[27.5490847,47.8513104],[27.5487376,47.8532955],[27.5484349,47.8550181],[27.5462639,47.8553363],[27.5430933,47.8558259],[27.5402845,47.8562624],[27.5399708,47.8563536],[27.5393606,47.8563759],[27.5379608,47.8565877],[27.5358945,47.8568987],[27.5336283,47.8572428],[27.5333234,47.8572763],[27.5310859,47.8576329],[27.5304572,47.8577128],[27.5268579,47.8582745],[27.5242011,47.8586715],[27.5216873,47.8590741],[27.5181732,47.8595966],[27.5150782,47.8600595],[27.5115357,47.860614],[27.5106219,47.8607847],[27.5102507,47.8608633],[27.5096216,47.8609111],[27.5092487,47.8608425],[27.5080562,47.8608482],[27.5079637,47.8602856],[27.5079701,47.8600169],[27.5078444,47.8594822],[27.5077484,47.8590135],[27.507663,47.8582398],[27.5076108,47.8578562],[27.507723,47.8569791],[27.5078021,47.8562814],[27.5078113,47.8554368],[27.5077231,47.8552389],[27.507499,47.8548433],[27.5074394,47.8546389],[27.5074744,47.8543764],[27.5072831,47.8543325],[27.5067677,47.854303],[27.5062902,47.8542605],[27.505662,47.8543786],[27.5053696,47.854499],[27.5035207,47.8548111],[27.4994448,47.8554061],[27.49841,47.8556165],[27.4977614,47.8557515],[27.4966454,47.8558932],[27.4912082,47.8567166],[27.4879459,47.8572247],[27.4837677,47.8578806],[27.4826708,47.8584331],[27.4798009,47.8599802],[27.4763749,47.8618632],[27.4734748,47.8634047],[27.4657655,47.8677141],[27.4643848,47.8684512],[27.4614033,47.8700666],[27.4613366,47.8700217],[27.4611461,47.8699448],[27.4610413,47.8698294],[27.460908,47.8694448],[27.4608319,47.8693358],[27.4606795,47.8692332],[27.4604414,47.8691178],[27.4599651,47.8690089],[27.4596699,47.8688999],[27.459527,47.8687845],[27.4594508,47.868605],[27.4593937,47.868387],[27.4593176,47.8680409],[27.4592129,47.8677973],[27.4591272,47.8676691],[27.4589082,47.8674703],[27.4586986,47.8673037],[27.458632,47.8671562],[27.4586892,47.8670024],[27.4588512,47.8667139],[27.4588797,47.8666498],[27.4588512,47.8664703],[27.4586417,47.8662524],[27.4585655,47.866137],[27.458537,47.8658613],[27.4585751,47.8657331],[27.4585657,47.86556],[27.4584704,47.8654062],[27.4581848,47.8651369],[27.4580229,47.8649959],[27.4579468,47.8645856],[27.4577375,47.8634638],[27.4575663,47.8625471],[27.4574711,47.8621497],[27.4569382,47.8603483],[27.456567,47.8596688],[27.4555769,47.8582969],[27.4539967,47.8561685],[27.4532633,47.8564954],[27.4530629,47.8563207],[27.4530349,47.8562005],[27.4531206,47.8561044],[27.4531778,47.8559954],[27.4531207,47.8558608],[27.4530636,47.8557326],[27.4531303,47.8556108],[27.4532827,47.8554185],[27.4532542,47.8553351],[27.4530828,47.8552261],[27.45294,47.8551492],[27.4528618,47.854967],[27.4527496,47.854803],[27.4527878,47.8543864],[27.4527307,47.8542902],[27.4525118,47.8541171],[27.4522929,47.8538158],[27.4517504,47.8529503],[27.4514553,47.85254],[27.4509604,47.8519118],[27.4505988,47.8512194],[27.4503229,47.8507642],[27.4501515,47.8508027],[27.449942,47.8507963],[27.4498944,47.8507322],[27.449904,47.8505975],[27.4498945,47.8505014],[27.4498278,47.8504501],[27.449866,47.8502706],[27.449809,47.8500334],[27.4496186,47.8499052],[27.4494758,47.8497962],[27.4494282,47.8497257],[27.4493521,47.8495333],[27.4492855,47.8493987],[27.4490666,47.8492128],[27.449019,47.8491359],[27.4490381,47.8489692],[27.4489525,47.8488217],[27.4488478,47.8487769],[27.4487145,47.8487384],[27.4486383,47.8486743],[27.4486479,47.8485332],[27.4486384,47.8484435],[27.4485528,47.8483089],[27.4484671,47.8482127],[27.4483339,47.8481486],[27.4482863,47.8480524],[27.4482735,47.8478027],[27.4482674,47.8476293],[27.4480961,47.8473793],[27.4479534,47.84711],[27.4476489,47.846642],[27.4473157,47.8465779],[27.4471254,47.8464048]]]}},{"type":"Feature","properties":{"entity_id":"osm-r10628807","jurisdiction":"MD","display_name":"Iabloana","display_type":"commune","admin_level":8,"tier":"local","legal_registry":"CUATM","legal_id":"4834","legal_type":"commune","parent_catalog_id":"osm-r1693874","osm_relation_id":10628807,"legal_identity_status":"reconciled","geometry_source":"OpenStreetMap","geometry_precision":"master_coordinate_fidelity"},"geometry":{"type":"Polygon","coordinates":[[[27.6535365,47.7806163],[27.6563723,47.7826071],[27.6570425,47.7830776],[27.657913,47.7835627],[27.6616771,47.7863967],[27.6621188,47.7863929],[27.6621729,47.7864154],[27.6732027,47.7910042],[27.6672855,47.7979177],[27.6669735,47.7982574],[27.6631445,47.8024259],[27.6629746,47.8028252],[27.6556906,47.8113384],[27.6541449,47.8129468],[27.645499,47.8186614],[27.6431487,47.820252],[27.6429136,47.8204251],[27.6409952,47.8215898],[27.6389998,47.8228623],[27.638001,47.8235422],[27.6368124,47.8242498],[27.6364511,47.824465],[27.636504,47.8245092],[27.6344904,47.825874],[27.6304527,47.828582],[27.6299316,47.8288309],[27.628399,47.8298975],[27.6276915,47.8303951],[27.6268675,47.8309843],[27.6247596,47.8324204],[27.6247159,47.8323868],[27.6245235,47.8325369],[27.6243412,47.8326351],[27.6241156,47.8328353],[27.623891,47.8331061],[27.6234033,47.8335566],[27.6224203,47.8349569],[27.6214938,47.8362994],[27.6212471,47.8369686],[27.6210977,47.8374214],[27.6206351,47.8377503],[27.620095,47.8381032],[27.6196997,47.838299],[27.6193644,47.8384871],[27.6190691,47.8386364],[27.6186721,47.8388759],[27.6179496,47.8393499],[27.6174908,47.8396751],[27.6172716,47.8398223],[27.6168631,47.8400891],[27.616694,47.8402057],[27.6163961,47.8404268],[27.6162783,47.8405255],[27.6162334,47.8405655],[27.616164,47.840619],[27.6161131,47.840652],[27.6159638,47.8407502],[27.615822,47.8408577],[27.6155888,47.8410086],[27.6152556,47.8412116],[27.6144779,47.8416668],[27.6143427,47.8417399],[27.6140397,47.8418851],[27.6139498,47.8419568],[27.6139282,47.841984],[27.6139674,47.8420236],[27.6140276,47.8420659],[27.614047,47.8421278],[27.6140237,47.8421971],[27.6139867,47.8422654],[27.6137168,47.8424933],[27.6135694,47.8426405],[27.6134133,47.8426904],[27.6130188,47.8428586],[27.6127144,47.8430226],[27.6123294,47.8430882],[27.6111932,47.8437932],[27.6105844,47.8441709],[27.610688,47.8443079],[27.6091433,47.8452875],[27.6071536,47.8467028],[27.6062337,47.8473837],[27.6048644,47.8483299],[27.6019013,47.850432],[27.5999655,47.8517726],[27.599597,47.8519895],[27.5976241,47.8533459],[27.5975588,47.853314],[27.5946388,47.8519189],[27.5943215,47.8516969],[27.5941529,47.8515993],[27.5939557,47.8514566],[27.5939425,47.8514415],[27.5936931,47.8508822],[27.5930997,47.8500202],[27.5927984,47.8497299],[27.5923713,47.8496721],[27.5917165,47.8498321],[27.5907547,47.8500723],[27.5903859,47.8501932],[27.5901568,47.850005],[27.5898729,47.849903],[27.589555,47.849754],[27.5877896,47.8490319],[27.5874238,47.8488939],[27.5846227,47.8477186],[27.5842079,47.8475307],[27.5824237,47.8467776],[27.5822681,47.8467257],[27.5817185,47.8465038],[27.5806063,47.8460549],[27.5800425,47.8458272],[27.5794735,47.8455976],[27.5788994,47.8453658],[27.5783199,47.8451319],[27.577735,47.8448957],[27.5775609,47.8448254],[27.5764133,47.8441888],[27.5762782,47.8441228],[27.5762504,47.8441003],[27.5759702,47.843873],[27.5759168,47.843846],[27.5753111,47.8435771],[27.5748278,47.8433625],[27.5743555,47.8431529],[27.5738937,47.8429479],[27.5734302,47.8427421],[27.5732078,47.8426576],[27.5731545,47.8426373],[27.5730852,47.842611],[27.5725264,47.8423378],[27.5723269,47.8422403],[27.57231,47.8421922],[27.5722135,47.842122],[27.5721618,47.842076],[27.5720803,47.8420345],[27.5719184,47.8419431],[27.5718477,47.8419116],[27.5717839,47.8418997],[27.5716642,47.841895],[27.5716296,47.841878],[27.5716213,47.8418153],[27.5715569,47.8418638],[27.5654559,47.8389054],[27.5652591,47.8387307],[27.5649245,47.8387883],[27.5655082,47.8375002],[27.5649318,47.8370781],[27.5647485,47.8346338],[27.565613,47.83335],[27.5662679,47.8309054],[27.5662155,47.8301668],[27.5669753,47.8282849],[27.562443,47.8200882],[27.5620239,47.8187689],[27.5608712,47.8173616],[27.5594789,47.8141289],[27.5592888,47.8136876],[27.5565056,47.8123815],[27.5568745,47.8096003],[27.5568912,47.80799],[27.5566565,47.8075734],[27.5570924,47.806436],[27.5570589,47.8050396],[27.5565727,47.8041274],[27.5557343,47.803463],[27.5533032,47.803204],[27.5522261,47.8033333],[27.5502885,47.80209],[27.5490081,47.8015544],[27.5472692,47.799583],[27.5471363,47.799249],[27.5465305,47.7977122],[27.5463117,47.7968666],[27.5463307,47.7958657],[27.5459029,47.7949928],[27.5468684,47.7940999],[27.5512877,47.7898644],[27.5516232,47.7894902],[27.5517692,47.7893266],[27.5518589,47.7892288],[27.5520312,47.7890432],[27.5521674,47.7888549],[27.5523793,47.7885776],[27.5525457,47.7882985],[27.5526688,47.7881237],[27.5528282,47.7879524],[27.5529166,47.7878052],[27.5530533,47.7876319],[27.5531085,47.7875131],[27.5531575,47.7874122],[27.5533054,47.7872239],[27.5534346,47.7870428],[27.553585,47.7868417],[27.5537327,47.7866487],[27.5537847,47.7865918],[27.5538287,47.7865349],[27.5538657,47.7864427],[27.5540295,47.7862465],[27.5540749,47.7861892],[27.5541994,47.7860069],[27.5543239,47.7858679],[27.5544319,47.7856971],[27.5545613,47.7855354],[27.5548539,47.7851494],[27.5553243,47.7845288],[27.5556966,47.7841177],[27.5559764,47.783739],[27.5561136,47.783497],[27.5561276,47.7834723],[27.5562239,47.7833468],[27.5563383,47.7831601],[27.5585869,47.7796635],[27.5594285,47.7784863],[27.5581928,47.7742112],[27.5657461,47.7666954],[27.5658724,47.7665697],[27.5726281,47.769864],[27.5729286,47.7699854],[27.5803522,47.7639339],[27.584008,47.7655331],[27.5960297,47.7707915],[27.6114921,47.7615106],[27.6183167,47.7653075],[27.6208721,47.7667805],[27.6198829,47.7674454],[27.6198214,47.7686748],[27.6188428,47.769898],[27.6188208,47.7706217],[27.6192609,47.7711569],[27.6203528,47.771718],[27.6206189,47.7719257],[27.6207906,47.7722026],[27.6221041,47.7725776],[27.6234175,47.7719545],[27.623778,47.7716776],[27.6240785,47.77159],[27.6252857,47.7721489],[27.6262816,47.7720255],[27.6351863,47.7659531],[27.6395517,47.7647592],[27.6427941,47.7675289],[27.6440887,47.7689238],[27.6462692,47.7708047],[27.646913,47.7710413],[27.6475826,47.7714106],[27.648029,47.7718029],[27.6503725,47.7730722],[27.6471729,47.7762922],[27.6498556,47.7779598],[27.6535365,47.7806163]]]}},{"type":"Feature","properties":{"entity_id":"osm-r10628808","jurisdiction":"MD","display_name":"Petrunea","display_type":"independent_village","admin_level":8,"tier":"local","legal_registry":"CUATM","legal_id":"4838","legal_type":"independent_village","parent_catalog_id":"osm-r1693874","osm_relation_id":10628808,"legal_identity_status":"reconciled","geometry_source":"OpenStreetMap","geometry_precision":"master_coordinate_fidelity"},"geometry":{"type":"Polygon","coordinates":[[[27.5497503,47.7141044],[27.5501837,47.7144365],[27.557405,47.7199704],[27.5592879,47.7209893],[27.5600657,47.7218706],[27.5741408,47.7325501],[27.5742499,47.7326104],[27.5758558,47.7338248],[27.5806355,47.7374057],[27.583861,47.7405311],[27.5878745,47.7439692],[27.594011,47.749144],[27.6009524,47.754228],[27.604825,47.7567656],[27.6103813,47.7608333],[27.6114921,47.7615106],[27.5960297,47.7707915],[27.584008,47.7655331],[27.5803522,47.7639339],[27.5729286,47.7699854],[27.5726281,47.769864],[27.5658724,47.7665697],[27.5657461,47.7666954],[27.5581928,47.7742112],[27.5565146,47.7740824],[27.5531803,47.7716311],[27.5396312,47.7644502],[27.5232141,47.7562225],[27.5073643,47.7389681],[27.5183596,47.7341915],[27.5179572,47.7338577],[27.5177158,47.7334607],[27.5178499,47.7300505],[27.5171524,47.7293377],[27.5171927,47.7291302],[27.5174878,47.7289859],[27.5180243,47.7299873],[27.5181987,47.7318098],[27.5214516,47.7312835],[27.527387,47.7279795],[27.53409,47.7251227],[27.5355738,47.7265339],[27.5406394,47.7237115],[27.5421842,47.7222902],[27.5441188,47.7205103],[27.5471377,47.7168958],[27.5497503,47.7141044]]]}}]}